<?xml version="1.0" encoding="UTF-8"?>
<gpx version="1.1" creator="Bad Reichenhall gravel – saját gravel-router (OSM/Overture + SRTM)" xmlns="http://www.topografix.com/GPX/1/1">
<metadata><name>Alte Postalmstraße – vonattal Gollingig</name><desc>GENERÁLT NYOMVONAL – Kreatív, egész napos kaland: vonattal Gollingig, onnan a Lammer völgyén a Lammeröfen szurdokhoz, majd Voglaunál a régi, murvás Postalmstraße serpentinjein Európa egyik legnagyobb alpesi legelőjére, a Postalmra (≈1300 m). Lefelé az új aszfaltúton Abtenau felé, majd a Lammertalon vissza Gollingba és vonattal haza.</desc><copyright author="OpenStreetMap contributors (via Overture Maps)"><license>https://opendatacommons.org/licenses/odbl/</license></copyright><time>2026-10-04T23:02:21Z</time></metadata>
<wpt lat="47.6002" lon="13.1647"><name>Golling-Abtenau Bahnhof</name><type>station</type></wpt>
<wpt lat="47.588" lon="13.27"><name>Lammeröfen / Lammerklamm</name><type>gorge</type></wpt>
<wpt lat="47.5933" lon="13.3111"><name>Voglau</name><type>town</type></wpt>
<wpt lat="47.6017" lon="13.2974"><name>Alte Postalmstraße</name><type>pass</type></wpt>
<wpt lat="47.653" lon="13.431"><name>Postalm</name><type>hut</type></wpt>
<wpt lat="47.5637" lon="13.346"><name>Abtenau</name><type>town</type></wpt>
<trk><name>Alte Postalmstraße – vonattal Gollingig</name><type>gravel</type><trkseg>
<trkpt lat="47.600368" lon="13.164618"><ele>467.4</ele></trkpt>
<trkpt lat="47.600394" lon="13.164755"><ele>467.6</ele></trkpt>
<trkpt lat="47.599100" lon="13.165346"><ele>467.0</ele></trkpt>
<trkpt lat="47.597791" lon="13.165963"><ele>470.4</ele></trkpt>
<trkpt lat="47.597782" lon="13.165968"><ele>470.4</ele></trkpt>
<trkpt lat="47.596816" lon="13.166142"><ele>472.2</ele></trkpt>
<trkpt lat="47.595634" lon="13.167414"><ele>469.5</ele></trkpt>
<trkpt lat="47.595262" lon="13.169401"><ele>471.0</ele></trkpt>
<trkpt lat="47.595038" lon="13.170088"><ele>472.9</ele></trkpt>
<trkpt lat="47.594575" lon="13.170435"><ele>474.8</ele></trkpt>
<trkpt lat="47.593524" lon="13.172056"><ele>475.3</ele></trkpt>
<trkpt lat="47.593491" lon="13.172108"><ele>475.4</ele></trkpt>
<trkpt lat="47.592677" lon="13.173766"><ele>476.5</ele></trkpt>
<trkpt lat="47.591805" lon="13.175417"><ele>475.0</ele></trkpt>
<trkpt lat="47.591275" lon="13.176277"><ele>473.4</ele></trkpt>
<trkpt lat="47.590473" lon="13.177937"><ele>475.9</ele></trkpt>
<trkpt lat="47.590334" lon="13.178398"><ele>481.0</ele></trkpt>
<trkpt lat="47.590230" lon="13.180163"><ele>488.6</ele></trkpt>
<trkpt lat="47.590687" lon="13.182324"><ele>486.6</ele></trkpt>
<trkpt lat="47.590887" lon="13.183376"><ele>488.5</ele></trkpt>
<trkpt lat="47.590961" lon="13.185201"><ele>488.0</ele></trkpt>
<trkpt lat="47.590831" lon="13.186356"><ele>484.9</ele></trkpt>
<trkpt lat="47.590521" lon="13.186702"><ele>482.9</ele></trkpt>
<trkpt lat="47.590015" lon="13.188628"><ele>481.3</ele></trkpt>
<trkpt lat="47.589843" lon="13.189791"><ele>481.9</ele></trkpt>
<trkpt lat="47.590080" lon="13.191785"><ele>486.2</ele></trkpt>
<trkpt lat="47.590253" lon="13.193211"><ele>482.0</ele></trkpt>
<trkpt lat="47.589997" lon="13.195226"><ele>477.4</ele></trkpt>
<trkpt lat="47.589822" lon="13.196557"><ele>481.9</ele></trkpt>
<trkpt lat="47.589897" lon="13.197109"><ele>482.9</ele></trkpt>
<trkpt lat="47.590612" lon="13.198924"><ele>481.5</ele></trkpt>
<trkpt lat="47.591074" lon="13.200064"><ele>486.1</ele></trkpt>
<trkpt lat="47.591058" lon="13.201476"><ele>485.6</ele></trkpt>
<trkpt lat="47.590873" lon="13.202271"><ele>485.0</ele></trkpt>
<trkpt lat="47.590081" lon="13.204177"><ele>483.4</ele></trkpt>
<trkpt lat="47.589830" lon="13.204850"><ele>484.0</ele></trkpt>
<trkpt lat="47.589456" lon="13.206798"><ele>481.5</ele></trkpt>
<trkpt lat="47.589045" lon="13.208197"><ele>482.8</ele></trkpt>
<trkpt lat="47.588403" lon="13.209996"><ele>484.0</ele></trkpt>
<trkpt lat="47.587683" lon="13.211979"><ele>485.0</ele></trkpt>
<trkpt lat="47.587106" lon="13.213769"><ele>485.0</ele></trkpt>
<trkpt lat="47.586810" lon="13.215195"><ele>488.1</ele></trkpt>
<trkpt lat="47.586578" lon="13.217202"><ele>487.3</ele></trkpt>
<trkpt lat="47.586353" lon="13.219363"><ele>487.7</ele></trkpt>
<trkpt lat="47.586242" lon="13.220157"><ele>488.0</ele></trkpt>
<trkpt lat="47.585807" lon="13.222281"><ele>490.4</ele></trkpt>
<trkpt lat="47.585678" lon="13.222768"><ele>491.4</ele></trkpt>
<trkpt lat="47.585113" lon="13.224590"><ele>490.8</ele></trkpt>
<trkpt lat="47.584972" lon="13.224932"><ele>492.7</ele></trkpt>
<trkpt lat="47.584108" lon="13.226723"><ele>490.8</ele></trkpt>
<trkpt lat="47.583130" lon="13.228431"><ele>491.4</ele></trkpt>
<trkpt lat="47.582400" lon="13.229996"><ele>493.7</ele></trkpt>
<trkpt lat="47.582147" lon="13.232075"><ele>493.1</ele></trkpt>
<trkpt lat="47.581970" lon="13.234177"><ele>493.5</ele></trkpt>
<trkpt lat="47.581938" lon="13.234503"><ele>491.7</ele></trkpt>
<trkpt lat="47.581160" lon="13.236404"><ele>497.1</ele></trkpt>
<trkpt lat="47.580628" lon="13.237583"><ele>497.4</ele></trkpt>
<trkpt lat="47.580316" lon="13.238730"><ele>497.3</ele></trkpt>
<trkpt lat="47.580297" lon="13.239398"><ele>498.1</ele></trkpt>
<trkpt lat="47.580695" lon="13.241389"><ele>496.5</ele></trkpt>
<trkpt lat="47.581162" lon="13.243299"><ele>494.4</ele></trkpt>
<trkpt lat="47.581247" lon="13.244206"><ele>497.6</ele></trkpt>
<trkpt lat="47.581140" lon="13.244946"><ele>497.6</ele></trkpt>
<trkpt lat="47.580793" lon="13.245786"><ele>497.3</ele></trkpt>
<trkpt lat="47.579595" lon="13.246931"><ele>501.0</ele></trkpt>
<trkpt lat="47.579235" lon="13.247337"><ele>503.2</ele></trkpt>
<trkpt lat="47.578785" lon="13.248081"><ele>503.7</ele></trkpt>
<trkpt lat="47.578067" lon="13.249875"><ele>502.1</ele></trkpt>
<trkpt lat="47.578011" lon="13.250123"><ele>503.4</ele></trkpt>
<trkpt lat="47.578257" lon="13.251729"><ele>502.7</ele></trkpt>
<trkpt lat="47.578911" lon="13.253730"><ele>496.9</ele></trkpt>
<trkpt lat="47.579439" lon="13.255373"><ele>505.9</ele></trkpt>
<trkpt lat="47.579573" lon="13.257506"><ele>522.1</ele></trkpt>
<trkpt lat="47.579587" lon="13.258244"><ele>520.2</ele></trkpt>
<trkpt lat="47.579242" lon="13.259841"><ele>501.5</ele></trkpt>
<trkpt lat="47.578378" lon="13.261408"><ele>504.8</ele></trkpt>
<trkpt lat="47.577485" lon="13.262916"><ele>502.6</ele></trkpt>
<trkpt lat="47.577402" lon="13.263087"><ele>503.3</ele></trkpt>
<trkpt lat="47.576968" lon="13.264683"><ele>503.1</ele></trkpt>
<trkpt lat="47.576888" lon="13.265519"><ele>502.9</ele></trkpt>
<trkpt lat="47.577011" lon="13.266442"><ele>503.4</ele></trkpt>
<trkpt lat="47.577279" lon="13.267090"><ele>504.8</ele></trkpt>
<trkpt lat="47.577587" lon="13.267029"><ele>506.9</ele></trkpt>
<trkpt lat="47.576875" lon="13.267950"><ele>513.6</ele></trkpt>
<trkpt lat="47.576993" lon="13.268716"><ele>527.6</ele></trkpt>
<trkpt lat="47.577543" lon="13.270060"><ele>519.5</ele></trkpt>
<trkpt lat="47.578498" lon="13.270643"><ele>539.4</ele></trkpt>
<trkpt lat="47.579037" lon="13.270568"><ele>541.0</ele></trkpt>
<trkpt lat="47.580379" lon="13.269755"><ele>547.8</ele></trkpt>
<trkpt lat="47.581066" lon="13.269505"><ele>554.5</ele></trkpt>
<trkpt lat="47.582343" lon="13.269546"><ele>576.4</ele></trkpt>
<trkpt lat="47.583792" lon="13.270073"><ele>600.3</ele></trkpt>
<trkpt lat="47.584177" lon="13.270138"><ele>604.5</ele></trkpt>
<trkpt lat="47.585458" lon="13.269451"><ele>585.0</ele></trkpt>
<trkpt lat="47.585952" lon="13.269202"><ele>580.7</ele></trkpt>
<trkpt lat="47.586656" lon="13.269207"><ele>576.6</ele></trkpt>
<trkpt lat="47.587422" lon="13.269759"><ele>572.5</ele></trkpt>
<trkpt lat="47.588339" lon="13.271482"><ele>562.4</ele></trkpt>
<trkpt lat="47.588927" lon="13.272309"><ele>544.6</ele></trkpt>
<trkpt lat="47.589270" lon="13.273767"><ele>543.5</ele></trkpt>
<trkpt lat="47.589058" lon="13.275975"><ele>544.2</ele></trkpt>
<trkpt lat="47.588888" lon="13.278103"><ele>543.7</ele></trkpt>
<trkpt lat="47.588887" lon="13.278157"><ele>543.3</ele></trkpt>
<trkpt lat="47.588944" lon="13.280291"><ele>539.0</ele></trkpt>
<trkpt lat="47.588999" lon="13.282412"><ele>542.4</ele></trkpt>
<trkpt lat="47.589058" lon="13.284626"><ele>544.2</ele></trkpt>
<trkpt lat="47.589075" lon="13.285160"><ele>545.6</ele></trkpt>
<trkpt lat="47.589286" lon="13.287140"><ele>542.9</ele></trkpt>
<trkpt lat="47.589446" lon="13.288009"><ele>546.0</ele></trkpt>
<trkpt lat="47.590164" lon="13.289886"><ele>556.9</ele></trkpt>
<trkpt lat="47.590508" lon="13.290494"><ele>551.9</ele></trkpt>
<trkpt lat="47.591105" lon="13.291160"><ele>555.3</ele></trkpt>
<trkpt lat="47.592389" lon="13.292022"><ele>562.6</ele></trkpt>
<trkpt lat="47.592932" lon="13.292467"><ele>560.1</ele></trkpt>
<trkpt lat="47.593944" lon="13.293899"><ele>556.0</ele></trkpt>
<trkpt lat="47.594114" lon="13.294268"><ele>552.3</ele></trkpt>
<trkpt lat="47.594313" lon="13.295188"><ele>556.8</ele></trkpt>
<trkpt lat="47.594330" lon="13.297144"><ele>561.3</ele></trkpt>
<trkpt lat="47.595064" lon="13.298280"><ele>558.6</ele></trkpt>
<trkpt lat="47.595258" lon="13.299067"><ele>553.8</ele></trkpt>
<trkpt lat="47.595110" lon="13.300934"><ele>559.4</ele></trkpt>
<trkpt lat="47.595195" lon="13.302088"><ele>562.7</ele></trkpt>
<trkpt lat="47.594883" lon="13.303163"><ele>568.1</ele></trkpt>
<trkpt lat="47.595746" lon="13.304405"><ele>572.7</ele></trkpt>
<trkpt lat="47.595752" lon="13.306122"><ele>580.3</ele></trkpt>
<trkpt lat="47.595976" lon="13.306707"><ele>578.0</ele></trkpt>
<trkpt lat="47.596110" lon="13.306837"><ele>578.0</ele></trkpt>
<trkpt lat="47.596334" lon="13.306655"><ele>578.8</ele></trkpt>
<trkpt lat="47.596619" lon="13.305760"><ele>581.8</ele></trkpt>
<trkpt lat="47.597284" lon="13.305591"><ele>585.7</ele></trkpt>
<trkpt lat="47.597651" lon="13.305075"><ele>586.7</ele></trkpt>
<trkpt lat="47.597763" lon="13.304265"><ele>593.4</ele></trkpt>
<trkpt lat="47.598245" lon="13.303233"><ele>602.2</ele></trkpt>
<trkpt lat="47.598168" lon="13.301101"><ele>606.3</ele></trkpt>
<trkpt lat="47.598084" lon="13.299523"><ele>622.0</ele></trkpt>
<trkpt lat="47.599496" lon="13.298796"><ele>643.6</ele></trkpt>
<trkpt lat="47.599613" lon="13.298751"><ele>643.9</ele></trkpt>
<trkpt lat="47.600007" lon="13.298165"><ele>636.8</ele></trkpt>
<trkpt lat="47.600277" lon="13.297334"><ele>634.8</ele></trkpt>
<trkpt lat="47.600264" lon="13.296823"><ele>627.3</ele></trkpt>
<trkpt lat="47.600042" lon="13.296621"><ele>621.5</ele></trkpt>
<trkpt lat="47.599438" lon="13.296628"><ele>617.7</ele></trkpt>
<trkpt lat="47.599130" lon="13.295985"><ele>629.0</ele></trkpt>
<trkpt lat="47.599648" lon="13.295198"><ele>619.6</ele></trkpt>
<trkpt lat="47.600092" lon="13.293920"><ele>630.2</ele></trkpt>
<trkpt lat="47.600246" lon="13.292871"><ele>639.7</ele></trkpt>
<trkpt lat="47.600392" lon="13.292843"><ele>643.3</ele></trkpt>
<trkpt lat="47.600596" lon="13.293435"><ele>643.2</ele></trkpt>
<trkpt lat="47.600729" lon="13.293463"><ele>649.2</ele></trkpt>
<trkpt lat="47.600678" lon="13.292181"><ele>660.2</ele></trkpt>
<trkpt lat="47.601184" lon="13.292804"><ele>673.5</ele></trkpt>
<trkpt lat="47.601171" lon="13.293328"><ele>668.4</ele></trkpt>
<trkpt lat="47.601555" lon="13.294453"><ele>676.7</ele></trkpt>
<trkpt lat="47.601053" lon="13.295356"><ele>652.3</ele></trkpt>
<trkpt lat="47.601900" lon="13.295673"><ele>655.0</ele></trkpt>
<trkpt lat="47.601053" lon="13.295356"><ele>652.3</ele></trkpt>
<trkpt lat="47.601555" lon="13.294453"><ele>676.7</ele></trkpt>
<trkpt lat="47.601171" lon="13.293328"><ele>668.4</ele></trkpt>
<trkpt lat="47.601154" lon="13.292726"><ele>673.1</ele></trkpt>
<trkpt lat="47.600678" lon="13.292180"><ele>660.2</ele></trkpt>
<trkpt lat="47.600776" lon="13.292868"><ele>657.3</ele></trkpt>
<trkpt lat="47.600689" lon="13.293496"><ele>647.1</ele></trkpt>
<trkpt lat="47.600392" lon="13.292843"><ele>643.3</ele></trkpt>
<trkpt lat="47.600246" lon="13.292871"><ele>639.7</ele></trkpt>
<trkpt lat="47.600063" lon="13.294027"><ele>628.7</ele></trkpt>
<trkpt lat="47.599648" lon="13.295198"><ele>619.6</ele></trkpt>
<trkpt lat="47.599116" lon="13.296106"><ele>628.9</ele></trkpt>
<trkpt lat="47.599483" lon="13.296660"><ele>618.1</ele></trkpt>
<trkpt lat="47.600200" lon="13.296702"><ele>624.2</ele></trkpt>
<trkpt lat="47.600277" lon="13.297334"><ele>634.8</ele></trkpt>
<trkpt lat="47.599712" lon="13.298665"><ele>643.5</ele></trkpt>
<trkpt lat="47.598417" lon="13.299246"><ele>623.2</ele></trkpt>
<trkpt lat="47.598084" lon="13.299523"><ele>622.0</ele></trkpt>
<trkpt lat="47.598202" lon="13.301579"><ele>603.8</ele></trkpt>
<trkpt lat="47.598245" lon="13.303233"><ele>602.2</ele></trkpt>
<trkpt lat="47.597763" lon="13.304265"><ele>593.4</ele></trkpt>
<trkpt lat="47.597651" lon="13.305075"><ele>586.7</ele></trkpt>
<trkpt lat="47.597284" lon="13.305591"><ele>585.7</ele></trkpt>
<trkpt lat="47.596540" lon="13.305841"><ele>580.7</ele></trkpt>
<trkpt lat="47.596334" lon="13.306655"><ele>578.8</ele></trkpt>
<trkpt lat="47.595800" lon="13.307191"><ele>577.0</ele></trkpt>
<trkpt lat="47.594941" lon="13.307110"><ele>577.1</ele></trkpt>
<trkpt lat="47.594941" lon="13.307816"><ele>561.8</ele></trkpt>
<trkpt lat="47.594791" lon="13.308135"><ele>561.5</ele></trkpt>
<trkpt lat="47.594958" lon="13.309209"><ele>560.3</ele></trkpt>
<trkpt lat="47.594915" lon="13.310038"><ele>561.5</ele></trkpt>
<trkpt lat="47.594521" lon="13.311960"><ele>564.1</ele></trkpt>
<trkpt lat="47.594418" lon="13.312439"><ele>566.6</ele></trkpt>
<trkpt lat="47.593659" lon="13.314154"><ele>566.0</ele></trkpt>
<trkpt lat="47.593463" lon="13.315921"><ele>569.8</ele></trkpt>
<trkpt lat="47.593009" lon="13.317956"><ele>567.8</ele></trkpt>
<trkpt lat="47.592817" lon="13.318935"><ele>568.0</ele></trkpt>
<trkpt lat="47.592779" lon="13.320342"><ele>571.2</ele></trkpt>
<trkpt lat="47.593054" lon="13.321640"><ele>573.9</ele></trkpt>
<trkpt lat="47.593675" lon="13.323313"><ele>566.8</ele></trkpt>
<trkpt lat="47.593797" lon="13.325213"><ele>577.4</ele></trkpt>
<trkpt lat="47.593995" lon="13.325874"><ele>575.7</ele></trkpt>
<trkpt lat="47.594731" lon="13.326129"><ele>579.1</ele></trkpt>
<trkpt lat="47.595061" lon="13.326801"><ele>584.8</ele></trkpt>
<trkpt lat="47.595099" lon="13.327909"><ele>590.7</ele></trkpt>
<trkpt lat="47.594802" lon="13.329877"><ele>595.7</ele></trkpt>
<trkpt lat="47.594624" lon="13.330500"><ele>595.4</ele></trkpt>
<trkpt lat="47.595005" lon="13.332237"><ele>610.0</ele></trkpt>
<trkpt lat="47.596182" lon="13.332988"><ele>625.1</ele></trkpt>
<trkpt lat="47.596498" lon="13.333601"><ele>630.9</ele></trkpt>
<trkpt lat="47.596635" lon="13.333474"><ele>632.9</ele></trkpt>
<trkpt lat="47.596631" lon="13.332860"><ele>633.3</ele></trkpt>
<trkpt lat="47.597093" lon="13.332710"><ele>640.8</ele></trkpt>
<trkpt lat="47.598085" lon="13.334120"><ele>653.1</ele></trkpt>
<trkpt lat="47.598457" lon="13.334340"><ele>655.6</ele></trkpt>
<trkpt lat="47.599184" lon="13.333916"><ele>671.2</ele></trkpt>
<trkpt lat="47.599708" lon="13.332773"><ele>685.6</ele></trkpt>
<trkpt lat="47.600093" lon="13.332747"><ele>694.0</ele></trkpt>
<trkpt lat="47.600136" lon="13.333002"><ele>692.3</ele></trkpt>
<trkpt lat="47.599800" lon="13.334030"><ele>680.7</ele></trkpt>
<trkpt lat="47.599906" lon="13.336144"><ele>687.6</ele></trkpt>
<trkpt lat="47.600059" lon="13.337621"><ele>695.8</ele></trkpt>
<trkpt lat="47.599889" lon="13.339747"><ele>699.6</ele></trkpt>
<trkpt lat="47.599822" lon="13.340481"><ele>699.7</ele></trkpt>
<trkpt lat="47.599772" lon="13.342626"><ele>716.6</ele></trkpt>
<trkpt lat="47.599834" lon="13.343404"><ele>717.9</ele></trkpt>
<trkpt lat="47.599508" lon="13.344448"><ele>716.2</ele></trkpt>
<trkpt lat="47.599506" lon="13.345010"><ele>720.5</ele></trkpt>
<trkpt lat="47.600154" lon="13.346853"><ele>734.8</ele></trkpt>
<trkpt lat="47.600279" lon="13.347358"><ele>737.5</ele></trkpt>
<trkpt lat="47.600590" lon="13.349218"><ele>762.2</ele></trkpt>
<trkpt lat="47.600569" lon="13.350156"><ele>767.9</ele></trkpt>
<trkpt lat="47.601068" lon="13.352084"><ele>781.1</ele></trkpt>
<trkpt lat="47.601267" lon="13.352953"><ele>785.8</ele></trkpt>
<trkpt lat="47.602167" lon="13.354534"><ele>801.3</ele></trkpt>
<trkpt lat="47.602494" lon="13.355249"><ele>805.4</ele></trkpt>
<trkpt lat="47.602618" lon="13.356765"><ele>819.9</ele></trkpt>
<trkpt lat="47.602894" lon="13.357798"><ele>832.3</ele></trkpt>
<trkpt lat="47.602832" lon="13.358321"><ele>837.6</ele></trkpt>
<trkpt lat="47.602546" lon="13.358834"><ele>825.1</ele></trkpt>
<trkpt lat="47.602672" lon="13.359650"><ele>836.0</ele></trkpt>
<trkpt lat="47.602945" lon="13.359856"><ele>847.0</ele></trkpt>
<trkpt lat="47.603491" lon="13.358642"><ele>859.5</ele></trkpt>
<trkpt lat="47.603748" lon="13.358597"><ele>868.2</ele></trkpt>
<trkpt lat="47.603744" lon="13.359470"><ele>870.1</ele></trkpt>
<trkpt lat="47.604175" lon="13.360584"><ele>886.9</ele></trkpt>
<trkpt lat="47.604457" lon="13.362386"><ele>872.0</ele></trkpt>
<trkpt lat="47.605190" lon="13.364031"><ele>903.8</ele></trkpt>
<trkpt lat="47.605026" lon="13.364220"><ele>905.7</ele></trkpt>
<trkpt lat="47.604225" lon="13.364095"><ele>902.6</ele></trkpt>
<trkpt lat="47.603505" lon="13.364699"><ele>907.1</ele></trkpt>
<trkpt lat="47.602723" lon="13.364651"><ele>908.4</ele></trkpt>
<trkpt lat="47.602234" lon="13.365992"><ele>920.6</ele></trkpt>
<trkpt lat="47.602213" lon="13.366422"><ele>919.6</ele></trkpt>
<trkpt lat="47.602729" lon="13.367178"><ele>934.3</ele></trkpt>
<trkpt lat="47.603536" lon="13.366901"><ele>941.0</ele></trkpt>
<trkpt lat="47.603648" lon="13.367033"><ele>947.0</ele></trkpt>
<trkpt lat="47.603427" lon="13.367696"><ele>953.6</ele></trkpt>
<trkpt lat="47.602745" lon="13.368134"><ele>941.8</ele></trkpt>
<trkpt lat="47.602856" lon="13.368574"><ele>950.5</ele></trkpt>
<trkpt lat="47.603346" lon="13.368496"><ele>961.3</ele></trkpt>
<trkpt lat="47.603689" lon="13.367788"><ele>960.9</ele></trkpt>
<trkpt lat="47.603935" lon="13.367760"><ele>966.2</ele></trkpt>
<trkpt lat="47.603737" lon="13.369127"><ele>978.8</ele></trkpt>
<trkpt lat="47.603231" lon="13.370240"><ele>964.6</ele></trkpt>
<trkpt lat="47.603340" lon="13.370918"><ele>976.3</ele></trkpt>
<trkpt lat="47.603803" lon="13.371020"><ele>999.0</ele></trkpt>
<trkpt lat="47.604478" lon="13.370375"><ele>1012.3</ele></trkpt>
<trkpt lat="47.604633" lon="13.368853"><ele>1009.9</ele></trkpt>
<trkpt lat="47.604913" lon="13.368827"><ele>1016.2</ele></trkpt>
<trkpt lat="47.604868" lon="13.370667"><ele>1026.0</ele></trkpt>
<trkpt lat="47.604317" lon="13.372137"><ele>1031.6</ele></trkpt>
<trkpt lat="47.604292" lon="13.372606"><ele>1038.6</ele></trkpt>
<trkpt lat="47.604559" lon="13.373147"><ele>1046.9</ele></trkpt>
<trkpt lat="47.605783" lon="13.373779"><ele>1066.1</ele></trkpt>
<trkpt lat="47.606835" lon="13.375239"><ele>1067.6</ele></trkpt>
<trkpt lat="47.607655" lon="13.376701"><ele>1093.0</ele></trkpt>
<trkpt lat="47.608153" lon="13.378608"><ele>1115.6</ele></trkpt>
<trkpt lat="47.608345" lon="13.379552"><ele>1119.3</ele></trkpt>
<trkpt lat="47.608768" lon="13.380628"><ele>1136.2</ele></trkpt>
<trkpt lat="47.608618" lon="13.382782"><ele>1149.4</ele></trkpt>
<trkpt lat="47.608621" lon="13.383171"><ele>1151.6</ele></trkpt>
<trkpt lat="47.608882" lon="13.384096"><ele>1154.9</ele></trkpt>
<trkpt lat="47.609740" lon="13.385338"><ele>1148.0</ele></trkpt>
<trkpt lat="47.611228" lon="13.385729"><ele>1157.1</ele></trkpt>
<trkpt lat="47.611350" lon="13.385763"><ele>1155.8</ele></trkpt>
<trkpt lat="47.612165" lon="13.386245"><ele>1162.5</ele></trkpt>
<trkpt lat="47.612704" lon="13.385893"><ele>1167.0</ele></trkpt>
<trkpt lat="47.613083" lon="13.385312"><ele>1177.6</ele></trkpt>
<trkpt lat="47.613799" lon="13.383627"><ele>1183.9</ele></trkpt>
<trkpt lat="47.614501" lon="13.382351"><ele>1208.3</ele></trkpt>
<trkpt lat="47.615043" lon="13.382598"><ele>1199.5</ele></trkpt>
<trkpt lat="47.615621" lon="13.383464"><ele>1177.7</ele></trkpt>
<trkpt lat="47.616122" lon="13.383850"><ele>1182.0</ele></trkpt>
<trkpt lat="47.616816" lon="13.385567"><ele>1170.9</ele></trkpt>
<trkpt lat="47.617266" lon="13.386756"><ele>1168.3</ele></trkpt>
<trkpt lat="47.616915" lon="13.388701"><ele>1161.7</ele></trkpt>
<trkpt lat="47.617506" lon="13.389754"><ele>1156.8</ele></trkpt>
<trkpt lat="47.617663" lon="13.391141"><ele>1131.8</ele></trkpt>
<trkpt lat="47.618262" lon="13.392002"><ele>1132.7</ele></trkpt>
<trkpt lat="47.618687" lon="13.393933"><ele>1131.2</ele></trkpt>
<trkpt lat="47.618901" lon="13.394664"><ele>1133.3</ele></trkpt>
<trkpt lat="47.618651" lon="13.395687"><ele>1150.0</ele></trkpt>
<trkpt lat="47.618632" lon="13.396787"><ele>1150.3</ele></trkpt>
<trkpt lat="47.618148" lon="13.398270"><ele>1161.7</ele></trkpt>
<trkpt lat="47.618110" lon="13.399368"><ele>1166.0</ele></trkpt>
<trkpt lat="47.618827" lon="13.401155"><ele>1178.1</ele></trkpt>
<trkpt lat="47.619037" lon="13.401655"><ele>1177.9</ele></trkpt>
<trkpt lat="47.620052" lon="13.403081"><ele>1192.5</ele></trkpt>
<trkpt lat="47.620789" lon="13.403963"><ele>1203.6</ele></trkpt>
<trkpt lat="47.621075" lon="13.404560"><ele>1212.6</ele></trkpt>
<trkpt lat="47.621358" lon="13.405373"><ele>1220.9</ele></trkpt>
<trkpt lat="47.621457" lon="13.407032"><ele>1222.0</ele></trkpt>
<trkpt lat="47.621594" lon="13.407426"><ele>1220.7</ele></trkpt>
<trkpt lat="47.622533" lon="13.409087"><ele>1245.5</ele></trkpt>
<trkpt lat="47.623469" lon="13.410851"><ele>1267.2</ele></trkpt>
<trkpt lat="47.624078" lon="13.412175"><ele>1272.0</ele></trkpt>
<trkpt lat="47.625122" lon="13.413033"><ele>1278.4</ele></trkpt>
<trkpt lat="47.626257" lon="13.414463"><ele>1292.0</ele></trkpt>
<trkpt lat="47.626506" lon="13.414637"><ele>1297.0</ele></trkpt>
<trkpt lat="47.626664" lon="13.414319"><ele>1303.4</ele></trkpt>
<trkpt lat="47.626610" lon="13.412800"><ele>1301.7</ele></trkpt>
<trkpt lat="47.627062" lon="13.411441"><ele>1293.5</ele></trkpt>
<trkpt lat="47.627630" lon="13.413299"><ele>1278.3</ele></trkpt>
<trkpt lat="47.627855" lon="13.413896"><ele>1273.5</ele></trkpt>
<trkpt lat="47.628406" lon="13.414587"><ele>1268.2</ele></trkpt>
<trkpt lat="47.629049" lon="13.414116"><ele>1263.0</ele></trkpt>
<trkpt lat="47.629790" lon="13.413932"><ele>1256.9</ele></trkpt>
<trkpt lat="47.631025" lon="13.413900"><ele>1248.9</ele></trkpt>
<trkpt lat="47.631982" lon="13.413463"><ele>1236.9</ele></trkpt>
<trkpt lat="47.633029" lon="13.413438"><ele>1233.0</ele></trkpt>
<trkpt lat="47.634210" lon="13.414646"><ele>1215.9</ele></trkpt>
<trkpt lat="47.634292" lon="13.414757"><ele>1215.2</ele></trkpt>
<trkpt lat="47.635211" lon="13.416532"><ele>1208.0</ele></trkpt>
<trkpt lat="47.635350" lon="13.416920"><ele>1206.1</ele></trkpt>
<trkpt lat="47.635736" lon="13.417349"><ele>1205.1</ele></trkpt>
<trkpt lat="47.636742" lon="13.417562"><ele>1196.1</ele></trkpt>
<trkpt lat="47.637449" lon="13.418255"><ele>1197.0</ele></trkpt>
<trkpt lat="47.638692" lon="13.419056"><ele>1195.4</ele></trkpt>
<trkpt lat="47.639417" lon="13.419496"><ele>1193.7</ele></trkpt>
<trkpt lat="47.640801" lon="13.419947"><ele>1188.3</ele></trkpt>
<trkpt lat="47.642169" lon="13.419819"><ele>1184.0</ele></trkpt>
<trkpt lat="47.642243" lon="13.419852"><ele>1185.4</ele></trkpt>
<trkpt lat="47.643044" lon="13.421596"><ele>1196.4</ele></trkpt>
<trkpt lat="47.643177" lon="13.421920"><ele>1200.9</ele></trkpt>
<trkpt lat="47.643667" lon="13.423612"><ele>1207.0</ele></trkpt>
<trkpt lat="47.643869" lon="13.425254"><ele>1197.9</ele></trkpt>
<trkpt lat="47.644403" lon="13.425822"><ele>1190.3</ele></trkpt>
<trkpt lat="47.644752" lon="13.426540"><ele>1183.4</ele></trkpt>
<trkpt lat="47.646010" lon="13.427491"><ele>1183.1</ele></trkpt>
<trkpt lat="47.646344" lon="13.427889"><ele>1177.8</ele></trkpt>
<trkpt lat="47.646847" lon="13.428825"><ele>1173.1</ele></trkpt>
<trkpt lat="47.647213" lon="13.430288"><ele>1165.0</ele></trkpt>
<trkpt lat="47.647562" lon="13.431011"><ele>1162.0</ele></trkpt>
<trkpt lat="47.648861" lon="13.432116"><ele>1159.4</ele></trkpt>
<trkpt lat="47.650213" lon="13.432780"><ele>1158.2</ele></trkpt>
<trkpt lat="47.650984" lon="13.433243"><ele>1155.7</ele></trkpt>
<trkpt lat="47.649584" lon="13.432454"><ele>1158.7</ele></trkpt>
<trkpt lat="47.648861" lon="13.432116"><ele>1159.4</ele></trkpt>
<trkpt lat="47.647562" lon="13.431011"><ele>1162.0</ele></trkpt>
<trkpt lat="47.647213" lon="13.430288"><ele>1165.0</ele></trkpt>
<trkpt lat="47.646847" lon="13.428825"><ele>1173.1</ele></trkpt>
<trkpt lat="47.646344" lon="13.427889"><ele>1177.8</ele></trkpt>
<trkpt lat="47.645047" lon="13.426774"><ele>1182.4</ele></trkpt>
<trkpt lat="47.644752" lon="13.426540"><ele>1183.4</ele></trkpt>
<trkpt lat="47.644403" lon="13.425822"><ele>1190.3</ele></trkpt>
<trkpt lat="47.643869" lon="13.425254"><ele>1197.9</ele></trkpt>
<trkpt lat="47.643667" lon="13.423612"><ele>1207.0</ele></trkpt>
<trkpt lat="47.643177" lon="13.421920"><ele>1200.9</ele></trkpt>
<trkpt lat="47.642423" lon="13.420113"><ele>1192.0</ele></trkpt>
<trkpt lat="47.642243" lon="13.419852"><ele>1185.4</ele></trkpt>
<trkpt lat="47.640886" lon="13.419948"><ele>1187.5</ele></trkpt>
<trkpt lat="47.640801" lon="13.419947"><ele>1188.3</ele></trkpt>
<trkpt lat="47.639417" lon="13.419496"><ele>1193.7</ele></trkpt>
<trkpt lat="47.638065" lon="13.418531"><ele>1196.0</ele></trkpt>
<trkpt lat="47.637449" lon="13.418255"><ele>1197.0</ele></trkpt>
<trkpt lat="47.636742" lon="13.417562"><ele>1196.1</ele></trkpt>
<trkpt lat="47.635736" lon="13.417349"><ele>1205.1</ele></trkpt>
<trkpt lat="47.635350" lon="13.416920"><ele>1206.1</ele></trkpt>
<trkpt lat="47.634494" lon="13.415095"><ele>1214.9</ele></trkpt>
<trkpt lat="47.634292" lon="13.414757"><ele>1215.2</ele></trkpt>
<trkpt lat="47.633154" lon="13.413496"><ele>1233.2</ele></trkpt>
<trkpt lat="47.633029" lon="13.413438"><ele>1233.0</ele></trkpt>
<trkpt lat="47.631982" lon="13.413463"><ele>1236.9</ele></trkpt>
<trkpt lat="47.631025" lon="13.413900"><ele>1248.9</ele></trkpt>
<trkpt lat="47.629790" lon="13.413932"><ele>1256.9</ele></trkpt>
<trkpt lat="47.629049" lon="13.414116"><ele>1263.0</ele></trkpt>
<trkpt lat="47.628406" lon="13.414587"><ele>1268.2</ele></trkpt>
<trkpt lat="47.627855" lon="13.413896"><ele>1273.5</ele></trkpt>
<trkpt lat="47.627241" lon="13.412033"><ele>1288.6</ele></trkpt>
<trkpt lat="47.627062" lon="13.411441"><ele>1293.5</ele></trkpt>
<trkpt lat="47.626610" lon="13.412800"><ele>1301.7</ele></trkpt>
<trkpt lat="47.626664" lon="13.414319"><ele>1303.4</ele></trkpt>
<trkpt lat="47.626506" lon="13.414637"><ele>1297.0</ele></trkpt>
<trkpt lat="47.625411" lon="13.413387"><ele>1281.5</ele></trkpt>
<trkpt lat="47.625122" lon="13.413033"><ele>1278.4</ele></trkpt>
<trkpt lat="47.623938" lon="13.412007"><ele>1265.5</ele></trkpt>
<trkpt lat="47.623885" lon="13.411942"><ele>1262.8</ele></trkpt>
<trkpt lat="47.623528" lon="13.410941"><ele>1268.5</ele></trkpt>
<trkpt lat="47.622654" lon="13.409292"><ele>1249.5</ele></trkpt>
<trkpt lat="47.621759" lon="13.407787"><ele>1222.0</ele></trkpt>
<trkpt lat="47.621594" lon="13.407426"><ele>1220.7</ele></trkpt>
<trkpt lat="47.621457" lon="13.407032"><ele>1222.0</ele></trkpt>
<trkpt lat="47.621358" lon="13.405373"><ele>1220.9</ele></trkpt>
<trkpt lat="47.621075" lon="13.404560"><ele>1212.6</ele></trkpt>
<trkpt lat="47.620789" lon="13.403963"><ele>1203.6</ele></trkpt>
<trkpt lat="47.619657" lon="13.402539"><ele>1194.7</ele></trkpt>
<trkpt lat="47.619037" lon="13.401655"><ele>1177.9</ele></trkpt>
<trkpt lat="47.618240" lon="13.399726"><ele>1167.0</ele></trkpt>
<trkpt lat="47.618110" lon="13.399368"><ele>1166.0</ele></trkpt>
<trkpt lat="47.618148" lon="13.398270"><ele>1161.7</ele></trkpt>
<trkpt lat="47.618632" lon="13.396787"><ele>1150.3</ele></trkpt>
<trkpt lat="47.618651" lon="13.395687"><ele>1150.0</ele></trkpt>
<trkpt lat="47.618901" lon="13.394664"><ele>1133.3</ele></trkpt>
<trkpt lat="47.618428" lon="13.392701"><ele>1131.2</ele></trkpt>
<trkpt lat="47.618262" lon="13.392002"><ele>1132.7</ele></trkpt>
<trkpt lat="47.617663" lon="13.391141"><ele>1131.8</ele></trkpt>
<trkpt lat="47.617506" lon="13.389754"><ele>1156.8</ele></trkpt>
<trkpt lat="47.616915" lon="13.388701"><ele>1161.7</ele></trkpt>
<trkpt lat="47.617266" lon="13.386756"><ele>1168.3</ele></trkpt>
<trkpt lat="47.616552" lon="13.385066"><ele>1176.3</ele></trkpt>
<trkpt lat="47.616291" lon="13.384170"><ele>1178.2</ele></trkpt>
<trkpt lat="47.615237" lon="13.382835"><ele>1186.9</ele></trkpt>
<trkpt lat="47.615043" lon="13.382598"><ele>1199.5</ele></trkpt>
<trkpt lat="47.614501" lon="13.382351"><ele>1208.3</ele></trkpt>
<trkpt lat="47.613856" lon="13.383479"><ele>1187.1</ele></trkpt>
<trkpt lat="47.613385" lon="13.384807"><ele>1182.1</ele></trkpt>
<trkpt lat="47.612704" lon="13.385893"><ele>1167.0</ele></trkpt>
<trkpt lat="47.612291" lon="13.386231"><ele>1164.2</ele></trkpt>
<trkpt lat="47.610873" lon="13.385648"><ele>1153.3</ele></trkpt>
<trkpt lat="47.609645" lon="13.385241"><ele>1148.1</ele></trkpt>
<trkpt lat="47.608882" lon="13.384096"><ele>1154.9</ele></trkpt>
<trkpt lat="47.608649" lon="13.383322"><ele>1152.0</ele></trkpt>
<trkpt lat="47.608731" lon="13.381241"><ele>1139.1</ele></trkpt>
<trkpt lat="47.608768" lon="13.380628"><ele>1136.2</ele></trkpt>
<trkpt lat="47.608345" lon="13.379552"><ele>1119.3</ele></trkpt>
<trkpt lat="47.607920" lon="13.377598"><ele>1103.0</ele></trkpt>
<trkpt lat="47.607655" lon="13.376701"><ele>1093.0</ele></trkpt>
<trkpt lat="47.606710" lon="13.375074"><ele>1067.2</ele></trkpt>
<trkpt lat="47.605783" lon="13.373779"><ele>1066.1</ele></trkpt>
<trkpt lat="47.604724" lon="13.373276"><ele>1047.2</ele></trkpt>
<trkpt lat="47.604359" lon="13.372855"><ele>1042.6</ele></trkpt>
<trkpt lat="47.604317" lon="13.372137"><ele>1031.6</ele></trkpt>
<trkpt lat="47.604868" lon="13.370667"><ele>1026.0</ele></trkpt>
<trkpt lat="47.604913" lon="13.368827"><ele>1016.2</ele></trkpt>
<trkpt lat="47.604633" lon="13.368853"><ele>1009.9</ele></trkpt>
<trkpt lat="47.604550" lon="13.370201"><ele>1013.7</ele></trkpt>
<trkpt lat="47.604334" lon="13.370534"><ele>1008.4</ele></trkpt>
<trkpt lat="47.603630" lon="13.371058"><ele>993.2</ele></trkpt>
<trkpt lat="47.603226" lon="13.370670"><ele>965.4</ele></trkpt>
<trkpt lat="47.603333" lon="13.369875"><ele>970.5</ele></trkpt>
<trkpt lat="47.603737" lon="13.369127"><ele>978.8</ele></trkpt>
<trkpt lat="47.603935" lon="13.367760"><ele>966.2</ele></trkpt>
<trkpt lat="47.603784" lon="13.367675"><ele>961.3</ele></trkpt>
<trkpt lat="47.603507" lon="13.368353"><ele>964.5</ele></trkpt>
<trkpt lat="47.603177" lon="13.368606"><ele>960.6</ele></trkpt>
<trkpt lat="47.602766" lon="13.368495"><ele>945.8</ele></trkpt>
<trkpt lat="47.602745" lon="13.368134"><ele>941.8</ele></trkpt>
<trkpt lat="47.603427" lon="13.367696"><ele>953.6</ele></trkpt>
<trkpt lat="47.603648" lon="13.367033"><ele>947.0</ele></trkpt>
<trkpt lat="47.603536" lon="13.366901"><ele>941.0</ele></trkpt>
<trkpt lat="47.602952" lon="13.367180"><ele>935.8</ele></trkpt>
<trkpt lat="47.602587" lon="13.367097"><ele>932.4</ele></trkpt>
<trkpt lat="47.602213" lon="13.366422"><ele>919.6</ele></trkpt>
<trkpt lat="47.602234" lon="13.365992"><ele>920.6</ele></trkpt>
<trkpt lat="47.602723" lon="13.364651"><ele>908.4</ele></trkpt>
<trkpt lat="47.603505" lon="13.364699"><ele>907.1</ele></trkpt>
<trkpt lat="47.604225" lon="13.364095"><ele>902.6</ele></trkpt>
<trkpt lat="47.605026" lon="13.364220"><ele>905.7</ele></trkpt>
<trkpt lat="47.605190" lon="13.364031"><ele>903.8</ele></trkpt>
<trkpt lat="47.604457" lon="13.362386"><ele>872.0</ele></trkpt>
<trkpt lat="47.604175" lon="13.360584"><ele>886.9</ele></trkpt>
<trkpt lat="47.603744" lon="13.359470"><ele>870.1</ele></trkpt>
<trkpt lat="47.603748" lon="13.358597"><ele>868.2</ele></trkpt>
<trkpt lat="47.603491" lon="13.358642"><ele>859.5</ele></trkpt>
<trkpt lat="47.602945" lon="13.359856"><ele>847.0</ele></trkpt>
<trkpt lat="47.602672" lon="13.359650"><ele>836.0</ele></trkpt>
<trkpt lat="47.602546" lon="13.358834"><ele>825.1</ele></trkpt>
<trkpt lat="47.602832" lon="13.358321"><ele>837.6</ele></trkpt>
<trkpt lat="47.602894" lon="13.357798"><ele>832.3</ele></trkpt>
<trkpt lat="47.602618" lon="13.356765"><ele>819.9</ele></trkpt>
<trkpt lat="47.602519" lon="13.355367"><ele>807.6</ele></trkpt>
<trkpt lat="47.601585" lon="13.353667"><ele>791.7</ele></trkpt>
<trkpt lat="47.601267" lon="13.352953"><ele>785.8</ele></trkpt>
<trkpt lat="47.600736" lon="13.350859"><ele>772.1</ele></trkpt>
<trkpt lat="47.600569" lon="13.350156"><ele>767.9</ele></trkpt>
<trkpt lat="47.600421" lon="13.348126"><ele>744.5</ele></trkpt>
<trkpt lat="47.600420" lon="13.348118"><ele>744.4</ele></trkpt>
<trkpt lat="47.600061" lon="13.348306"><ele>752.4</ele></trkpt>
<trkpt lat="47.599639" lon="13.349074"><ele>760.9</ele></trkpt>
<trkpt lat="47.598848" lon="13.349642"><ele>753.7</ele></trkpt>
<trkpt lat="47.597500" lon="13.349112"><ele>758.2</ele></trkpt>
<trkpt lat="47.597313" lon="13.348981"><ele>758.8</ele></trkpt>
<trkpt lat="47.597215" lon="13.349093"><ele>761.2</ele></trkpt>
<trkpt lat="47.596742" lon="13.350389"><ele>758.1</ele></trkpt>
<trkpt lat="47.596356" lon="13.352481"><ele>751.8</ele></trkpt>
<trkpt lat="47.596031" lon="13.354506"><ele>746.2</ele></trkpt>
<trkpt lat="47.595807" lon="13.355896"><ele>739.2</ele></trkpt>
<trkpt lat="47.595584" lon="13.356029"><ele>737.0</ele></trkpt>
<trkpt lat="47.594999" lon="13.355025"><ele>729.1</ele></trkpt>
<trkpt lat="47.594713" lon="13.353599"><ele>723.8</ele></trkpt>
<trkpt lat="47.593437" lon="13.353027"><ele>705.6</ele></trkpt>
<trkpt lat="47.593232" lon="13.352725"><ele>702.4</ele></trkpt>
<trkpt lat="47.592788" lon="13.350741"><ele>691.3</ele></trkpt>
<trkpt lat="47.592720" lon="13.350235"><ele>690.4</ele></trkpt>
<trkpt lat="47.593283" lon="13.348623"><ele>683.3</ele></trkpt>
<trkpt lat="47.593864" lon="13.348103"><ele>687.4</ele></trkpt>
<trkpt lat="47.593896" lon="13.347736"><ele>685.0</ele></trkpt>
<trkpt lat="47.593661" lon="13.346713"><ele>673.5</ele></trkpt>
<trkpt lat="47.592649" lon="13.345322"><ele>665.6</ele></trkpt>
<trkpt lat="47.592607" lon="13.345262"><ele>665.6</ele></trkpt>
<trkpt lat="47.592424" lon="13.344529"><ele>666.9</ele></trkpt>
<trkpt lat="47.592385" lon="13.343127"><ele>649.8</ele></trkpt>
<trkpt lat="47.591732" lon="13.343209"><ele>649.6</ele></trkpt>
<trkpt lat="47.591272" lon="13.342487"><ele>634.6</ele></trkpt>
<trkpt lat="47.591568" lon="13.340487"><ele>629.0</ele></trkpt>
<trkpt lat="47.591545" lon="13.340385"><ele>629.2</ele></trkpt>
<trkpt lat="47.591239" lon="13.340354"><ele>624.4</ele></trkpt>
<trkpt lat="47.590590" lon="13.341051"><ele>614.9</ele></trkpt>
<trkpt lat="47.590089" lon="13.342037"><ele>605.5</ele></trkpt>
<trkpt lat="47.588941" lon="13.342813"><ele>599.0</ele></trkpt>
<trkpt lat="47.588798" lon="13.342757"><ele>595.5</ele></trkpt>
<trkpt lat="47.588959" lon="13.341918"><ele>591.0</ele></trkpt>
<trkpt lat="47.589594" lon="13.340846"><ele>594.6</ele></trkpt>
<trkpt lat="47.589804" lon="13.339781"><ele>595.9</ele></trkpt>
<trkpt lat="47.589148" lon="13.339496"><ele>588.0</ele></trkpt>
<trkpt lat="47.589067" lon="13.340122"><ele>589.0</ele></trkpt>
<trkpt lat="47.588550" lon="13.341030"><ele>585.4</ele></trkpt>
<trkpt lat="47.587340" lon="13.342132"><ele>590.1</ele></trkpt>
<trkpt lat="47.587168" lon="13.342236"><ele>589.4</ele></trkpt>
<trkpt lat="47.587298" lon="13.341047"><ele>600.5</ele></trkpt>
<trkpt lat="47.586826" lon="13.339106"><ele>613.7</ele></trkpt>
<trkpt lat="47.586740" lon="13.338573"><ele>616.4</ele></trkpt>
<trkpt lat="47.586478" lon="13.338062"><ele>632.4</ele></trkpt>
<trkpt lat="47.586886" lon="13.337909"><ele>624.1</ele></trkpt>
<trkpt lat="47.587091" lon="13.337554"><ele>630.2</ele></trkpt>
<trkpt lat="47.587845" lon="13.337139"><ele>629.9</ele></trkpt>
<trkpt lat="47.587933" lon="13.336908"><ele>632.1</ele></trkpt>
<trkpt lat="47.586758" lon="13.336993"><ele>647.0</ele></trkpt>
<trkpt lat="47.586484" lon="13.336486"><ele>655.0</ele></trkpt>
<trkpt lat="47.586470" lon="13.335903"><ele>656.0</ele></trkpt>
<trkpt lat="47.586331" lon="13.335766"><ele>657.6</ele></trkpt>
<trkpt lat="47.586386" lon="13.335285"><ele>656.1</ele></trkpt>
<trkpt lat="47.585135" lon="13.336346"><ele>678.2</ele></trkpt>
<trkpt lat="47.584859" lon="13.336523"><ele>689.6</ele></trkpt>
<trkpt lat="47.584927" lon="13.335504"><ele>698.4</ele></trkpt>
<trkpt lat="47.584771" lon="13.333945"><ele>700.5</ele></trkpt>
<trkpt lat="47.585736" lon="13.332430"><ele>685.0</ele></trkpt>
<trkpt lat="47.585926" lon="13.332158"><ele>683.4</ele></trkpt>
<trkpt lat="47.586363" lon="13.332280"><ele>678.6</ele></trkpt>
<trkpt lat="47.586851" lon="13.330348"><ele>682.8</ele></trkpt>
<trkpt lat="47.586884" lon="13.330247"><ele>682.0</ele></trkpt>
<trkpt lat="47.587112" lon="13.329942"><ele>673.3</ele></trkpt>
<trkpt lat="47.587638" lon="13.329911"><ele>651.9</ele></trkpt>
<trkpt lat="47.587314" lon="13.329059"><ele>662.9</ele></trkpt>
<trkpt lat="47.586108" lon="13.328020"><ele>675.2</ele></trkpt>
<trkpt lat="47.585990" lon="13.327921"><ele>676.6</ele></trkpt>
<trkpt lat="47.584655" lon="13.327180"><ele>690.5</ele></trkpt>
<trkpt lat="47.584568" lon="13.327135"><ele>691.3</ele></trkpt>
<trkpt lat="47.584298" lon="13.327048"><ele>693.2</ele></trkpt>
<trkpt lat="47.583510" lon="13.327406"><ele>700.5</ele></trkpt>
<trkpt lat="47.582251" lon="13.328617"><ele>721.8</ele></trkpt>
<trkpt lat="47.580887" lon="13.329585"><ele>737.1</ele></trkpt>
<trkpt lat="47.580058" lon="13.330359"><ele>725.8</ele></trkpt>
<trkpt lat="47.579414" lon="13.331727"><ele>730.4</ele></trkpt>
<trkpt lat="47.578248" lon="13.332375"><ele>727.2</ele></trkpt>
<trkpt lat="47.577424" lon="13.333509"><ele>728.0</ele></trkpt>
<trkpt lat="47.576808" lon="13.335071"><ele>724.9</ele></trkpt>
<trkpt lat="47.576298" lon="13.335841"><ele>731.3</ele></trkpt>
<trkpt lat="47.574849" lon="13.336117"><ele>734.4</ele></trkpt>
<trkpt lat="47.574188" lon="13.336390"><ele>729.2</ele></trkpt>
<trkpt lat="47.573110" lon="13.337686"><ele>734.3</ele></trkpt>
<trkpt lat="47.572539" lon="13.337613"><ele>733.0</ele></trkpt>
<trkpt lat="47.571620" lon="13.338360"><ele>745.1</ele></trkpt>
<trkpt lat="47.570563" lon="13.339651"><ele>733.1</ele></trkpt>
<trkpt lat="47.570506" lon="13.339762"><ele>732.9</ele></trkpt>
<trkpt lat="47.570380" lon="13.341639"><ele>728.0</ele></trkpt>
<trkpt lat="47.570529" lon="13.342273"><ele>727.9</ele></trkpt>
<trkpt lat="47.570124" lon="13.342970"><ele>725.1</ele></trkpt>
<trkpt lat="47.569248" lon="13.342820"><ele>721.3</ele></trkpt>
<trkpt lat="47.568525" lon="13.343020"><ele>712.2</ele></trkpt>
<trkpt lat="47.567329" lon="13.344096"><ele>709.6</ele></trkpt>
<trkpt lat="47.566942" lon="13.344576"><ele>709.5</ele></trkpt>
<trkpt lat="47.566416" lon="13.344764"><ele>709.9</ele></trkpt>
<trkpt lat="47.565714" lon="13.345493"><ele>710.9</ele></trkpt>
<trkpt lat="47.564829" lon="13.345946"><ele>715.6</ele></trkpt>
<trkpt lat="47.564282" lon="13.345182"><ele>716.0</ele></trkpt>
<trkpt lat="47.563995" lon="13.345388"><ele>715.6</ele></trkpt>
<trkpt lat="47.563581" lon="13.346614"><ele>716.1</ele></trkpt>
<trkpt lat="47.563699" lon="13.345940"><ele>716.0</ele></trkpt>
<trkpt lat="47.563119" lon="13.345491"><ele>718.5</ele></trkpt>
<trkpt lat="47.563822" lon="13.344748"><ele>717.7</ele></trkpt>
<trkpt lat="47.564120" lon="13.344905"><ele>716.3</ele></trkpt>
<trkpt lat="47.564653" lon="13.344511"><ele>715.1</ele></trkpt>
<trkpt lat="47.565633" lon="13.343115"><ele>710.0</ele></trkpt>
<trkpt lat="47.565741" lon="13.342983"><ele>710.5</ele></trkpt>
<trkpt lat="47.566594" lon="13.344655"><ele>709.8</ele></trkpt>
<trkpt lat="47.567225" lon="13.343912"><ele>709.9</ele></trkpt>
<trkpt lat="47.567839" lon="13.341987"><ele>707.7</ele></trkpt>
<trkpt lat="47.568379" lon="13.340059"><ele>708.4</ele></trkpt>
<trkpt lat="47.568943" lon="13.338045"><ele>705.8</ele></trkpt>
<trkpt lat="47.568955" lon="13.337435"><ele>706.3</ele></trkpt>
<trkpt lat="47.569632" lon="13.335510"><ele>708.1</ele></trkpt>
<trkpt lat="47.569762" lon="13.335191"><ele>707.2</ele></trkpt>
<trkpt lat="47.569936" lon="13.333795"><ele>702.7</ele></trkpt>
<trkpt lat="47.570873" lon="13.332337"><ele>701.1</ele></trkpt>
<trkpt lat="47.570885" lon="13.332316"><ele>701.1</ele></trkpt>
<trkpt lat="47.571342" lon="13.331896"><ele>692.1</ele></trkpt>
<trkpt lat="47.571289" lon="13.331162"><ele>692.8</ele></trkpt>
<trkpt lat="47.571611" lon="13.330145"><ele>702.1</ele></trkpt>
<trkpt lat="47.571862" lon="13.329753"><ele>701.8</ele></trkpt>
<trkpt lat="47.572377" lon="13.329454"><ele>698.1</ele></trkpt>
<trkpt lat="47.572097" lon="13.328265"><ele>687.3</ele></trkpt>
<trkpt lat="47.571966" lon="13.326214"><ele>671.3</ele></trkpt>
<trkpt lat="47.571979" lon="13.325658"><ele>664.6</ele></trkpt>
<trkpt lat="47.571631" lon="13.325091"><ele>655.2</ele></trkpt>
<trkpt lat="47.570688" lon="13.324798"><ele>650.1</ele></trkpt>
<trkpt lat="47.570578" lon="13.324280"><ele>648.7</ele></trkpt>
<trkpt lat="47.571185" lon="13.324227"><ele>654.7</ele></trkpt>
<trkpt lat="47.571572" lon="13.323424"><ele>659.3</ele></trkpt>
<trkpt lat="47.572369" lon="13.323092"><ele>652.5</ele></trkpt>
<trkpt lat="47.573112" lon="13.321826"><ele>649.7</ele></trkpt>
<trkpt lat="47.574186" lon="13.321406"><ele>648.5</ele></trkpt>
<trkpt lat="47.575605" lon="13.321511"><ele>637.0</ele></trkpt>
<trkpt lat="47.576696" lon="13.321520"><ele>647.8</ele></trkpt>
<trkpt lat="47.577494" lon="13.321885"><ele>637.0</ele></trkpt>
<trkpt lat="47.578426" lon="13.321033"><ele>649.5</ele></trkpt>
<trkpt lat="47.579389" lon="13.320700"><ele>649.6</ele></trkpt>
<trkpt lat="47.580563" lon="13.319640"><ele>648.8</ele></trkpt>
<trkpt lat="47.580854" lon="13.319349"><ele>643.5</ele></trkpt>
<trkpt lat="47.581155" lon="13.319553"><ele>633.1</ele></trkpt>
<trkpt lat="47.581529" lon="13.319287"><ele>631.7</ele></trkpt>
<trkpt lat="47.582921" lon="13.319041"><ele>638.6</ele></trkpt>
<trkpt lat="47.583882" lon="13.318764"><ele>622.3</ele></trkpt>
<trkpt lat="47.584137" lon="13.318850"><ele>620.2</ele></trkpt>
<trkpt lat="47.584632" lon="13.319573"><ele>616.1</ele></trkpt>
<trkpt lat="47.585109" lon="13.319484"><ele>609.1</ele></trkpt>
<trkpt lat="47.585377" lon="13.318914"><ele>608.1</ele></trkpt>
<trkpt lat="47.585286" lon="13.317586"><ele>615.6</ele></trkpt>
<trkpt lat="47.585597" lon="13.317143"><ele>609.5</ele></trkpt>
<trkpt lat="47.586559" lon="13.316947"><ele>606.9</ele></trkpt>
<trkpt lat="47.587595" lon="13.317769"><ele>604.2</ele></trkpt>
<trkpt lat="47.588015" lon="13.317669"><ele>606.3</ele></trkpt>
<trkpt lat="47.589094" lon="13.316225"><ele>592.1</ele></trkpt>
<trkpt lat="47.589891" lon="13.315087"><ele>591.8</ele></trkpt>
<trkpt lat="47.590829" lon="13.314700"><ele>588.0</ele></trkpt>
<trkpt lat="47.592033" lon="13.314862"><ele>579.7</ele></trkpt>
<trkpt lat="47.592545" lon="13.314636"><ele>573.3</ele></trkpt>
<trkpt lat="47.592976" lon="13.313924"><ele>569.1</ele></trkpt>
<trkpt lat="47.593484" lon="13.311929"><ele>564.4</ele></trkpt>
<trkpt lat="47.594000" lon="13.310472"><ele>563.6</ele></trkpt>
<trkpt lat="47.594161" lon="13.309129"><ele>564.0</ele></trkpt>
<trkpt lat="47.594071" lon="13.307125"><ele>576.1</ele></trkpt>
<trkpt lat="47.594111" lon="13.305904"><ele>590.2</ele></trkpt>
<trkpt lat="47.594616" lon="13.303823"><ele>584.6</ele></trkpt>
<trkpt lat="47.594627" lon="13.303778"><ele>583.4</ele></trkpt>
<trkpt lat="47.595146" lon="13.302426"><ele>562.6</ele></trkpt>
<trkpt lat="47.595130" lon="13.300421"><ele>557.2</ele></trkpt>
<trkpt lat="47.595258" lon="13.299067"><ele>553.8</ele></trkpt>
<trkpt lat="47.595064" lon="13.298280"><ele>558.6</ele></trkpt>
<trkpt lat="47.594467" lon="13.297212"><ele>555.3</ele></trkpt>
<trkpt lat="47.594313" lon="13.295188"><ele>556.8</ele></trkpt>
<trkpt lat="47.594275" lon="13.294877"><ele>554.2</ele></trkpt>
<trkpt lat="47.594002" lon="13.294008"><ele>555.7</ele></trkpt>
<trkpt lat="47.593053" lon="13.292595"><ele>558.8</ele></trkpt>
<trkpt lat="47.592932" lon="13.292467"><ele>560.1</ele></trkpt>
<trkpt lat="47.591649" lon="13.291537"><ele>558.3</ele></trkpt>
<trkpt lat="47.590652" lon="13.290686"><ele>553.0</ele></trkpt>
<trkpt lat="47.590037" lon="13.289631"><ele>557.0</ele></trkpt>
<trkpt lat="47.589446" lon="13.288009"><ele>546.0</ele></trkpt>
<trkpt lat="47.589138" lon="13.286157"><ele>547.6</ele></trkpt>
<trkpt lat="47.589068" lon="13.284093"><ele>542.0</ele></trkpt>
<trkpt lat="47.589000" lon="13.282438"><ele>542.2</ele></trkpt>
<trkpt lat="47.588997" lon="13.280274"><ele>539.0</ele></trkpt>
<trkpt lat="47.588941" lon="13.278156"><ele>541.7</ele></trkpt>
<trkpt lat="47.588954" lon="13.277519"><ele>543.1</ele></trkpt>
<trkpt lat="47.589176" lon="13.275464"><ele>539.9</ele></trkpt>
<trkpt lat="47.589322" lon="13.274020"><ele>542.1</ele></trkpt>
<trkpt lat="47.589091" lon="13.272533"><ele>543.2</ele></trkpt>
<trkpt lat="47.588140" lon="13.271044"><ele>566.8</ele></trkpt>
<trkpt lat="47.587530" lon="13.269796"><ele>569.4</ele></trkpt>
<trkpt lat="47.586656" lon="13.269207"><ele>576.6</ele></trkpt>
<trkpt lat="47.585952" lon="13.269202"><ele>580.7</ele></trkpt>
<trkpt lat="47.584625" lon="13.270008"><ele>587.1</ele></trkpt>
<trkpt lat="47.584177" lon="13.270138"><ele>604.5</ele></trkpt>
<trkpt lat="47.582751" lon="13.269683"><ele>585.7</ele></trkpt>
<trkpt lat="47.582343" lon="13.269546"><ele>576.4</ele></trkpt>
<trkpt lat="47.581066" lon="13.269505"><ele>554.5</ele></trkpt>
<trkpt lat="47.579774" lon="13.270119"><ele>545.8</ele></trkpt>
<trkpt lat="47.579037" lon="13.270568"><ele>541.0</ele></trkpt>
<trkpt lat="47.578498" lon="13.270643"><ele>539.4</ele></trkpt>
<trkpt lat="47.577821" lon="13.270339"><ele>525.3</ele></trkpt>
<trkpt lat="47.577420" lon="13.269762"><ele>517.5</ele></trkpt>
<trkpt lat="47.577104" lon="13.268987"><ele>524.2</ele></trkpt>
<trkpt lat="47.577035" lon="13.268179"><ele>515.5</ele></trkpt>
<trkpt lat="47.577393" lon="13.267313"><ele>505.3</ele></trkpt>
<trkpt lat="47.578647" lon="13.266160"><ele>506.2</ele></trkpt>
<trkpt lat="47.579004" lon="13.265185"><ele>507.5</ele></trkpt>
<trkpt lat="47.579386" lon="13.263007"><ele>509.6</ele></trkpt>
<trkpt lat="47.579592" lon="13.260958"><ele>513.3</ele></trkpt>
<trkpt lat="47.579595" lon="13.260917"><ele>513.4</ele></trkpt>
<trkpt lat="47.579653" lon="13.258859"><ele>517.1</ele></trkpt>
<trkpt lat="47.579642" lon="13.256736"><ele>515.9</ele></trkpt>
<trkpt lat="47.579746" lon="13.255202"><ele>522.3</ele></trkpt>
<trkpt lat="47.580101" lon="13.253142"><ele>515.9</ele></trkpt>
<trkpt lat="47.580137" lon="13.252968"><ele>512.9</ele></trkpt>
<trkpt lat="47.580670" lon="13.251048"><ele>505.5</ele></trkpt>
<trkpt lat="47.581185" lon="13.248935"><ele>511.3</ele></trkpt>
<trkpt lat="47.581242" lon="13.248580"><ele>508.4</ele></trkpt>
<trkpt lat="47.581360" lon="13.246438"><ele>503.2</ele></trkpt>
<trkpt lat="47.581379" lon="13.244730"><ele>500.9</ele></trkpt>
<trkpt lat="47.581613" lon="13.243348"><ele>501.8</ele></trkpt>
<trkpt lat="47.581099" lon="13.242987"><ele>492.8</ele></trkpt>
<trkpt lat="47.580576" lon="13.240885"><ele>496.0</ele></trkpt>
<trkpt lat="47.580297" lon="13.239398"><ele>498.1</ele></trkpt>
<trkpt lat="47.580316" lon="13.238730"><ele>497.3</ele></trkpt>
<trkpt lat="47.580628" lon="13.237583"><ele>497.4</ele></trkpt>
<trkpt lat="47.581412" lon="13.235698"><ele>494.4</ele></trkpt>
<trkpt lat="47.581938" lon="13.234503"><ele>491.7</ele></trkpt>
<trkpt lat="47.582136" lon="13.232296"><ele>492.8</ele></trkpt>
<trkpt lat="47.582331" lon="13.230249"><ele>494.0</ele></trkpt>
<trkpt lat="47.582400" lon="13.229996"><ele>493.7</ele></trkpt>
<trkpt lat="47.583251" lon="13.228253"><ele>492.4</ele></trkpt>
<trkpt lat="47.584214" lon="13.226508"><ele>490.2</ele></trkpt>
<trkpt lat="47.584972" lon="13.224932"><ele>492.7</ele></trkpt>
<trkpt lat="47.585621" lon="13.222955"><ele>490.1</ele></trkpt>
<trkpt lat="47.585678" lon="13.222768"><ele>491.4</ele></trkpt>
<trkpt lat="47.586151" lon="13.220699"><ele>487.1</ele></trkpt>
<trkpt lat="47.586242" lon="13.220157"><ele>488.0</ele></trkpt>
<trkpt lat="47.586493" lon="13.218044"><ele>485.0</ele></trkpt>
<trkpt lat="47.586714" lon="13.216032"><ele>487.7</ele></trkpt>
<trkpt lat="47.586810" lon="13.215195"><ele>488.1</ele></trkpt>
<trkpt lat="47.587106" lon="13.213769"><ele>485.0</ele></trkpt>
<trkpt lat="47.587720" lon="13.211879"><ele>485.2</ele></trkpt>
<trkpt lat="47.588367" lon="13.210096"><ele>483.7</ele></trkpt>
<trkpt lat="47.589030" lon="13.208234"><ele>482.8</ele></trkpt>
<trkpt lat="47.589045" lon="13.208197"><ele>482.8</ele></trkpt>
<trkpt lat="47.589535" lon="13.206330"><ele>481.3</ele></trkpt>
<trkpt lat="47.589830" lon="13.204850"><ele>484.0</ele></trkpt>
<trkpt lat="47.590559" lon="13.203002"><ele>484.2</ele></trkpt>
<trkpt lat="47.590873" lon="13.202271"><ele>485.0</ele></trkpt>
<trkpt lat="47.591058" lon="13.201476"><ele>485.6</ele></trkpt>
<trkpt lat="47.591074" lon="13.200064"><ele>486.1</ele></trkpt>
<trkpt lat="47.590348" lon="13.198334"><ele>480.3</ele></trkpt>
<trkpt lat="47.589897" lon="13.197109"><ele>482.9</ele></trkpt>
<trkpt lat="47.589822" lon="13.196557"><ele>481.9</ele></trkpt>
<trkpt lat="47.590078" lon="13.194560"><ele>478.0</ele></trkpt>
<trkpt lat="47.590253" lon="13.193211"><ele>482.0</ele></trkpt>
<trkpt lat="47.589976" lon="13.191057"><ele>487.8</ele></trkpt>
<trkpt lat="47.589843" lon="13.189791"><ele>481.9</ele></trkpt>
<trkpt lat="47.590244" lon="13.187726"><ele>484.2</ele></trkpt>
<trkpt lat="47.590521" lon="13.186702"><ele>482.9</ele></trkpt>
<trkpt lat="47.590831" lon="13.186356"><ele>484.9</ele></trkpt>
<trkpt lat="47.590961" lon="13.185201"><ele>488.0</ele></trkpt>
<trkpt lat="47.590887" lon="13.183376"><ele>488.5</ele></trkpt>
<trkpt lat="47.590465" lon="13.181307"><ele>488.7</ele></trkpt>
<trkpt lat="47.590230" lon="13.180163"><ele>488.6</ele></trkpt>
<trkpt lat="47.590334" lon="13.178398"><ele>481.0</ele></trkpt>
<trkpt lat="47.591110" lon="13.176693"><ele>476.1</ele></trkpt>
<trkpt lat="47.591275" lon="13.176277"><ele>473.4</ele></trkpt>
<trkpt lat="47.592178" lon="13.174714"><ele>477.8</ele></trkpt>
<trkpt lat="47.593002" lon="13.173134"><ele>475.3</ele></trkpt>
<trkpt lat="47.593231" lon="13.172758"><ele>475.0</ele></trkpt>
<trkpt lat="47.593588" lon="13.173390"><ele>475.9</ele></trkpt>
<trkpt lat="47.594691" lon="13.171941"><ele>474.1</ele></trkpt>
<trkpt lat="47.594713" lon="13.171916"><ele>474.0</ele></trkpt>
<trkpt lat="47.595814" lon="13.170983"><ele>488.3</ele></trkpt>
<trkpt lat="47.595796" lon="13.169982"><ele>476.3</ele></trkpt>
<trkpt lat="47.596031" lon="13.169639"><ele>482.3</ele></trkpt>
<trkpt lat="47.595988" lon="13.168601"><ele>476.9</ele></trkpt>
<trkpt lat="47.596199" lon="13.167635"><ele>475.6</ele></trkpt>
<trkpt lat="47.596503" lon="13.167491"><ele>477.7</ele></trkpt>
<trkpt lat="47.597468" lon="13.167664"><ele>487.6</ele></trkpt>
<trkpt lat="47.597694" lon="13.166598"><ele>477.4</ele></trkpt>
<trkpt lat="47.597596" lon="13.166353"><ele>475.5</ele></trkpt>
<trkpt lat="47.597782" lon="13.165968"><ele>470.4</ele></trkpt>
<trkpt lat="47.599070" lon="13.165248"><ele>466.6</ele></trkpt>
<trkpt lat="47.600368" lon="13.164618"><ele>467.4</ele></trkpt>
</trkseg></trk></gpx>