<?xml version="1.0" encoding="UTF-8"?>
<gpx version="1.1" creator="Bad Reichenhall gravel – saját gravel-router (OSM/Overture + SRTM)" xmlns="http://www.topografix.com/GPX/1/1">
<metadata><name>Aschauer Klamm–Lofer</name><desc>GENERÁLT NYOMVONAL – Egész napos völgyi túra a Saalach mentén Loferig. A Saalachsee után a régi völgyi utakon Schneizlreuthba, majd a Mußbach és az Aschauer Klamm erdei útjain Melleckhez érsz, átlépsz Ausztriába, és a Tauernradweg Saalach-szakaszán Unkenen át Loferig tekersz. Visszafelé a folyó túlsó partján, ahol lehet, más úton.</desc><copyright author="OpenStreetMap contributors (via Overture Maps)"><license>https://opendatacommons.org/licenses/odbl/</license></copyright><time>2026-10-04T15:58:43Z</time></metadata>
<wpt lat="47.7086" lon="12.8573"><name>Saalachsee</name><type>lake</type></wpt>
<wpt lat="47.6905" lon="12.7999"><name>Schneizlreuth</name><type>town</type></wpt>
<wpt lat="47.6806" lon="12.7811"><name>Mußbach-völgy</name><type>gorge</type></wpt>
<wpt lat="47.6713" lon="12.7848"><name>Aschauer Klamm</name><type>gorge</type></wpt>
<wpt lat="47.672" lon="12.7581"><name>Melleck</name><type>town</type></wpt>
<wpt lat="47.6443" lon="12.7189"><name>Unken</name><type>town</type></wpt>
<wpt lat="47.5868" lon="12.695"><name>Lofer</name><type>town</type></wpt>
<wpt lat="47.7116" lon="12.785"><name>Mauthäusl</name><type>hut</type></wpt>
<trk><name>Aschauer Klamm–Lofer</name><type>gravel</type><trkseg>
<trkpt lat="47.726900" lon="12.883842"><ele>474.7</ele></trkpt>
<trkpt lat="47.726618" lon="12.884372"><ele>478.2</ele></trkpt>
<trkpt lat="47.726415" lon="12.884346"><ele>480.9</ele></trkpt>
<trkpt lat="47.726118" lon="12.883872"><ele>478.7</ele></trkpt>
<trkpt lat="47.725662" lon="12.883798"><ele>485.2</ele></trkpt>
<trkpt lat="47.724996" lon="12.883195"><ele>481.5</ele></trkpt>
<trkpt lat="47.724541" lon="12.882248"><ele>476.1</ele></trkpt>
<trkpt lat="47.724935" lon="12.881320"><ele>473.9</ele></trkpt>
<trkpt lat="47.724408" lon="12.880823"><ele>471.3</ele></trkpt>
<trkpt lat="47.724405" lon="12.880228"><ele>469.2</ele></trkpt>
<trkpt lat="47.723321" lon="12.879027"><ele>472.5</ele></trkpt>
<trkpt lat="47.722405" lon="12.877908"><ele>475.0</ele></trkpt>
<trkpt lat="47.722643" lon="12.877188"><ele>474.5</ele></trkpt>
<trkpt lat="47.721432" lon="12.876214"><ele>473.8</ele></trkpt>
<trkpt lat="47.720980" lon="12.875902"><ele>474.1</ele></trkpt>
<trkpt lat="47.719662" lon="12.875133"><ele>475.0</ele></trkpt>
<trkpt lat="47.719071" lon="12.874906"><ele>474.0</ele></trkpt>
<trkpt lat="47.719013" lon="12.874041"><ele>473.5</ele></trkpt>
<trkpt lat="47.718862" lon="12.873988"><ele>473.5</ele></trkpt>
<trkpt lat="47.718701" lon="12.873208"><ele>472.2</ele></trkpt>
<trkpt lat="47.718795" lon="12.872987"><ele>472.0</ele></trkpt>
<trkpt lat="47.718210" lon="12.871326"><ele>471.9</ele></trkpt>
<trkpt lat="47.717198" lon="12.871147"><ele>472.3</ele></trkpt>
<trkpt lat="47.716622" lon="12.871827"><ele>476.5</ele></trkpt>
<trkpt lat="47.716326" lon="12.871935"><ele>478.7</ele></trkpt>
<trkpt lat="47.715181" lon="12.870608"><ele>494.4</ele></trkpt>
<trkpt lat="47.715086" lon="12.870465"><ele>493.6</ele></trkpt>
<trkpt lat="47.714607" lon="12.868544"><ele>505.8</ele></trkpt>
<trkpt lat="47.714415" lon="12.868056"><ele>506.8</ele></trkpt>
<trkpt lat="47.714100" lon="12.867572"><ele>511.9</ele></trkpt>
<trkpt lat="47.713417" lon="12.867130"><ele>493.0</ele></trkpt>
<trkpt lat="47.713177" lon="12.866096"><ele>500.6</ele></trkpt>
<trkpt lat="47.712663" lon="12.865415"><ele>486.8</ele></trkpt>
<trkpt lat="47.712598" lon="12.863369"><ele>498.4</ele></trkpt>
<trkpt lat="47.712081" lon="12.861504"><ele>519.8</ele></trkpt>
<trkpt lat="47.711914" lon="12.860534"><ele>532.9</ele></trkpt>
<trkpt lat="47.711623" lon="12.859634"><ele>514.3</ele></trkpt>
<trkpt lat="47.710768" lon="12.857903"><ele>513.0</ele></trkpt>
<trkpt lat="47.710486" lon="12.857321"><ele>511.4</ele></trkpt>
<trkpt lat="47.710017" lon="12.855380"><ele>531.0</ele></trkpt>
<trkpt lat="47.709778" lon="12.854735"><ele>529.7</ele></trkpt>
<trkpt lat="47.709023" lon="12.853081"><ele>516.9</ele></trkpt>
<trkpt lat="47.708778" lon="12.852737"><ele>501.6</ele></trkpt>
<trkpt lat="47.707472" lon="12.851849"><ele>501.4</ele></trkpt>
<trkpt lat="47.706503" lon="12.851254"><ele>502.9</ele></trkpt>
<trkpt lat="47.705374" lon="12.849818"><ele>503.0</ele></trkpt>
<trkpt lat="47.704740" lon="12.849087"><ele>502.9</ele></trkpt>
<trkpt lat="47.703585" lon="12.848463"><ele>503.8</ele></trkpt>
<trkpt lat="47.702267" lon="12.847343"><ele>499.6</ele></trkpt>
<trkpt lat="47.700957" lon="12.846256"><ele>502.9</ele></trkpt>
<trkpt lat="47.699900" lon="12.845203"><ele>502.5</ele></trkpt>
<trkpt lat="47.698605" lon="12.844553"><ele>509.4</ele></trkpt>
<trkpt lat="47.698554" lon="12.844528"><ele>509.6</ele></trkpt>
<trkpt lat="47.697140" lon="12.844275"><ele>508.8</ele></trkpt>
<trkpt lat="47.696956" lon="12.844225"><ele>512.2</ele></trkpt>
<trkpt lat="47.695536" lon="12.844284"><ele>506.8</ele></trkpt>
<trkpt lat="47.695030" lon="12.844173"><ele>505.7</ele></trkpt>
<trkpt lat="47.693696" lon="12.843210"><ele>505.8</ele></trkpt>
<trkpt lat="47.693165" lon="12.842793"><ele>507.9</ele></trkpt>
<trkpt lat="47.691823" lon="12.842552"><ele>507.8</ele></trkpt>
<trkpt lat="47.691291" lon="12.842746"><ele>503.1</ele></trkpt>
<trkpt lat="47.690636" lon="12.842294"><ele>508.9</ele></trkpt>
<trkpt lat="47.689523" lon="12.841075"><ele>501.3</ele></trkpt>
<trkpt lat="47.688743" lon="12.840063"><ele>503.2</ele></trkpt>
<trkpt lat="47.687762" lon="12.838550"><ele>505.9</ele></trkpt>
<trkpt lat="47.686749" lon="12.836884"><ele>505.7</ele></trkpt>
<trkpt lat="47.686742" lon="12.836873"><ele>505.6</ele></trkpt>
<trkpt lat="47.685923" lon="12.835278"><ele>510.6</ele></trkpt>
<trkpt lat="47.685390" lon="12.833246"><ele>507.8</ele></trkpt>
<trkpt lat="47.685071" lon="12.831918"><ele>516.1</ele></trkpt>
<trkpt lat="47.684642" lon="12.830901"><ele>515.9</ele></trkpt>
<trkpt lat="47.684153" lon="12.830463"><ele>510.0</ele></trkpt>
<trkpt lat="47.683452" lon="12.829178"><ele>518.9</ele></trkpt>
<trkpt lat="47.682274" lon="12.827879"><ele>508.5</ele></trkpt>
<trkpt lat="47.682023" lon="12.827519"><ele>507.5</ele></trkpt>
<trkpt lat="47.681789" lon="12.826468"><ele>514.2</ele></trkpt>
<trkpt lat="47.681713" lon="12.824229"><ele>512.8</ele></trkpt>
<trkpt lat="47.681771" lon="12.823028"><ele>512.9</ele></trkpt>
<trkpt lat="47.682045" lon="12.821872"><ele>508.7</ele></trkpt>
<trkpt lat="47.682882" lon="12.820278"><ele>516.9</ele></trkpt>
<trkpt lat="47.682892" lon="12.820261"><ele>517.0</ele></trkpt>
<trkpt lat="47.682954" lon="12.819651"><ele>507.7</ele></trkpt>
<trkpt lat="47.683836" lon="12.818075"><ele>532.8</ele></trkpt>
<trkpt lat="47.684306" lon="12.817103"><ele>543.7</ele></trkpt>
<trkpt lat="47.684669" lon="12.816055"><ele>529.2</ele></trkpt>
<trkpt lat="47.685070" lon="12.815812"><ele>546.7</ele></trkpt>
<trkpt lat="47.685569" lon="12.814936"><ele>540.7</ele></trkpt>
<trkpt lat="47.686193" lon="12.814754"><ele>546.4</ele></trkpt>
<trkpt lat="47.686478" lon="12.815089"><ele>561.5</ele></trkpt>
<trkpt lat="47.686528" lon="12.814819"><ele>556.3</ele></trkpt>
<trkpt lat="47.687732" lon="12.813724"><ele>570.2</ele></trkpt>
<trkpt lat="47.688031" lon="12.813549"><ele>579.1</ele></trkpt>
<trkpt lat="47.687998" lon="12.812974"><ele>565.3</ele></trkpt>
<trkpt lat="47.688185" lon="12.812587"><ele>568.7</ele></trkpt>
<trkpt lat="47.688091" lon="12.811762"><ele>547.0</ele></trkpt>
<trkpt lat="47.688397" lon="12.810835"><ele>556.7</ele></trkpt>
<trkpt lat="47.688185" lon="12.810390"><ele>548.0</ele></trkpt>
<trkpt lat="47.688396" lon="12.810000"><ele>554.5</ele></trkpt>
<trkpt lat="47.688398" lon="12.809594"><ele>546.4</ele></trkpt>
<trkpt lat="47.688024" lon="12.809511"><ele>532.7</ele></trkpt>
<trkpt lat="47.687986" lon="12.808935"><ele>530.2</ele></trkpt>
<trkpt lat="47.688354" lon="12.807350"><ele>535.7</ele></trkpt>
<trkpt lat="47.688850" lon="12.805780"><ele>537.6</ele></trkpt>
<trkpt lat="47.690002" lon="12.804479"><ele>529.7</ele></trkpt>
<trkpt lat="47.690228" lon="12.804198"><ele>525.3</ele></trkpt>
<trkpt lat="47.690512" lon="12.803375"><ele>521.8</ele></trkpt>
<trkpt lat="47.690433" lon="12.802518"><ele>517.2</ele></trkpt>
<trkpt lat="47.690140" lon="12.802247"><ele>513.2</ele></trkpt>
<trkpt lat="47.689934" lon="12.800667"><ele>513.2</ele></trkpt>
<trkpt lat="47.690141" lon="12.799715"><ele>517.7</ele></trkpt>
<trkpt lat="47.689499" lon="12.799610"><ele>512.9</ele></trkpt>
<trkpt lat="47.688568" lon="12.797914"><ele>516.2</ele></trkpt>
<trkpt lat="47.687960" lon="12.797038"><ele>513.4</ele></trkpt>
<trkpt lat="47.687916" lon="12.796638"><ele>513.5</ele></trkpt>
<trkpt lat="47.687487" lon="12.796258"><ele>512.5</ele></trkpt>
<trkpt lat="47.687310" lon="12.796385"><ele>512.7</ele></trkpt>
<trkpt lat="47.686443" lon="12.795317"><ele>518.1</ele></trkpt>
<trkpt lat="47.685349" lon="12.793867"><ele>522.7</ele></trkpt>
<trkpt lat="47.684259" lon="12.792480"><ele>524.6</ele></trkpt>
<trkpt lat="47.683150" lon="12.791225"><ele>524.9</ele></trkpt>
<trkpt lat="47.683104" lon="12.791170"><ele>525.0</ele></trkpt>
<trkpt lat="47.682130" lon="12.789691"><ele>527.6</ele></trkpt>
<trkpt lat="47.681164" lon="12.788276"><ele>535.8</ele></trkpt>
<trkpt lat="47.680950" lon="12.787988"><ele>538.2</ele></trkpt>
<trkpt lat="47.680336" lon="12.787393"><ele>533.5</ele></trkpt>
<trkpt lat="47.679468" lon="12.786979"><ele>522.8</ele></trkpt>
<trkpt lat="47.678773" lon="12.786259"><ele>521.5</ele></trkpt>
<trkpt lat="47.678736" lon="12.785893"><ele>526.0</ele></trkpt>
<trkpt lat="47.677743" lon="12.784351"><ele>527.6</ele></trkpt>
<trkpt lat="47.676742" lon="12.782803"><ele>544.0</ele></trkpt>
<trkpt lat="47.676714" lon="12.782753"><ele>544.0</ele></trkpt>
<trkpt lat="47.675425" lon="12.781709"><ele>535.8</ele></trkpt>
<trkpt lat="47.674224" lon="12.780713"><ele>525.7</ele></trkpt>
<trkpt lat="47.673567" lon="12.780243"><ele>533.3</ele></trkpt>
<trkpt lat="47.672932" lon="12.779520"><ele>530.0</ele></trkpt>
<trkpt lat="47.672233" lon="12.778282"><ele>527.5</ele></trkpt>
<trkpt lat="47.672021" lon="12.778154"><ele>524.8</ele></trkpt>
<trkpt lat="47.671735" lon="12.777215"><ele>534.2</ele></trkpt>
<trkpt lat="47.670798" lon="12.776271"><ele>528.9</ele></trkpt>
<trkpt lat="47.670298" lon="12.774696"><ele>538.3</ele></trkpt>
<trkpt lat="47.669830" lon="12.773812"><ele>535.3</ele></trkpt>
<trkpt lat="47.668661" lon="12.772784"><ele>519.9</ele></trkpt>
<trkpt lat="47.668535" lon="12.772666"><ele>520.5</ele></trkpt>
<trkpt lat="47.668049" lon="12.772005"><ele>516.7</ele></trkpt>
<trkpt lat="47.668002" lon="12.771662"><ele>519.5</ele></trkpt>
<trkpt lat="47.668181" lon="12.771339"><ele>522.8</ele></trkpt>
<trkpt lat="47.667617" lon="12.770038"><ele>523.0</ele></trkpt>
<trkpt lat="47.667575" lon="12.767826"><ele>533.7</ele></trkpt>
<trkpt lat="47.667441" lon="12.766845"><ele>535.0</ele></trkpt>
<trkpt lat="47.667601" lon="12.765637"><ele>538.6</ele></trkpt>
<trkpt lat="47.667336" lon="12.763551"><ele>531.4</ele></trkpt>
<trkpt lat="47.667331" lon="12.763449"><ele>531.6</ele></trkpt>
<trkpt lat="47.667549" lon="12.761381"><ele>546.4</ele></trkpt>
<trkpt lat="47.667614" lon="12.760841"><ele>552.4</ele></trkpt>
<trkpt lat="47.667501" lon="12.758615"><ele>563.0</ele></trkpt>
<trkpt lat="47.666753" lon="12.757663"><ele>553.6</ele></trkpt>
<trkpt lat="47.666282" lon="12.757432"><ele>553.2</ele></trkpt>
<trkpt lat="47.664845" lon="12.757363"><ele>544.0</ele></trkpt>
<trkpt lat="47.664327" lon="12.757969"><ele>535.4</ele></trkpt>
<trkpt lat="47.664007" lon="12.757225"><ele>533.3</ele></trkpt>
<trkpt lat="47.663644" lon="12.756995"><ele>528.4</ele></trkpt>
<trkpt lat="47.663662" lon="12.756293"><ele>527.2</ele></trkpt>
<trkpt lat="47.663897" lon="12.755722"><ele>531.3</ele></trkpt>
<trkpt lat="47.664183" lon="12.754113"><ele>543.4</ele></trkpt>
<trkpt lat="47.664075" lon="12.752936"><ele>543.6</ele></trkpt>
<trkpt lat="47.664423" lon="12.751304"><ele>550.1</ele></trkpt>
<trkpt lat="47.663910" lon="12.749308"><ele>544.2</ele></trkpt>
<trkpt lat="47.663766" lon="12.748813"><ele>544.7</ele></trkpt>
<trkpt lat="47.663218" lon="12.747393"><ele>542.5</ele></trkpt>
<trkpt lat="47.662495" lon="12.746430"><ele>537.3</ele></trkpt>
<trkpt lat="47.662358" lon="12.745877"><ele>543.3</ele></trkpt>
<trkpt lat="47.662506" lon="12.745828"><ele>548.2</ele></trkpt>
<trkpt lat="47.662221" lon="12.745015"><ele>546.9</ele></trkpt>
<trkpt lat="47.662388" lon="12.744382"><ele>551.4</ele></trkpt>
<trkpt lat="47.662211" lon="12.744162"><ele>548.9</ele></trkpt>
<trkpt lat="47.661528" lon="12.744104"><ele>541.4</ele></trkpt>
<trkpt lat="47.661093" lon="12.742140"><ele>537.4</ele></trkpt>
<trkpt lat="47.661056" lon="12.742052"><ele>536.7</ele></trkpt>
<trkpt lat="47.659911" lon="12.740720"><ele>535.7</ele></trkpt>
<trkpt lat="47.659337" lon="12.739969"><ele>534.9</ele></trkpt>
<trkpt lat="47.659104" lon="12.739250"><ele>531.8</ele></trkpt>
<trkpt lat="47.658869" lon="12.737276"><ele>535.9</ele></trkpt>
<trkpt lat="47.658748" lon="12.736569"><ele>535.7</ele></trkpt>
<trkpt lat="47.658440" lon="12.735641"><ele>540.3</ele></trkpt>
<trkpt lat="47.657731" lon="12.734700"><ele>541.8</ele></trkpt>
<trkpt lat="47.657547" lon="12.734054"><ele>545.7</ele></trkpt>
<trkpt lat="47.657185" lon="12.734345"><ele>542.0</ele></trkpt>
<trkpt lat="47.656180" lon="12.732903"><ele>544.5</ele></trkpt>
<trkpt lat="47.655963" lon="12.732567"><ele>547.1</ele></trkpt>
<trkpt lat="47.656026" lon="12.732378"><ele>549.8</ele></trkpt>
<trkpt lat="47.656523" lon="12.732612"><ele>551.6</ele></trkpt>
<trkpt lat="47.656601" lon="12.732435"><ele>553.8</ele></trkpt>
<trkpt lat="47.655529" lon="12.731151"><ele>560.8</ele></trkpt>
<trkpt lat="47.655302" lon="12.730972"><ele>563.8</ele></trkpt>
<trkpt lat="47.655393" lon="12.730612"><ele>565.7</ele></trkpt>
<trkpt lat="47.655245" lon="12.730296"><ele>570.9</ele></trkpt>
<trkpt lat="47.654738" lon="12.730025"><ele>569.1</ele></trkpt>
<trkpt lat="47.654404" lon="12.729490"><ele>566.5</ele></trkpt>
<trkpt lat="47.653294" lon="12.729641"><ele>551.0</ele></trkpt>
<trkpt lat="47.652133" lon="12.728961"><ele>550.9</ele></trkpt>
<trkpt lat="47.650726" lon="12.729627"><ele>542.3</ele></trkpt>
<trkpt lat="47.649963" lon="12.730065"><ele>541.7</ele></trkpt>
<trkpt lat="47.649895" lon="12.730493"><ele>540.0</ele></trkpt>
<trkpt lat="47.649212" lon="12.730265"><ele>541.3</ele></trkpt>
<trkpt lat="47.649239" lon="12.730080"><ele>542.5</ele></trkpt>
<trkpt lat="47.648631" lon="12.729800"><ele>543.8</ele></trkpt>
<trkpt lat="47.647639" lon="12.729696"><ele>539.2</ele></trkpt>
<trkpt lat="47.646262" lon="12.729922"><ele>546.1</ele></trkpt>
<trkpt lat="47.646257" lon="12.729923"><ele>546.1</ele></trkpt>
<trkpt lat="47.644965" lon="12.730497"><ele>551.8</ele></trkpt>
<trkpt lat="47.644307" lon="12.730786"><ele>550.6</ele></trkpt>
<trkpt lat="47.643973" lon="12.730296"><ele>557.3</ele></trkpt>
<trkpt lat="47.643584" lon="12.728430"><ele>550.2</ele></trkpt>
<trkpt lat="47.642780" lon="12.726990"><ele>545.5</ele></trkpt>
<trkpt lat="47.642534" lon="12.727170"><ele>542.2</ele></trkpt>
<trkpt lat="47.642046" lon="12.727042"><ele>542.5</ele></trkpt>
<trkpt lat="47.642021" lon="12.726423"><ele>546.6</ele></trkpt>
<trkpt lat="47.640969" lon="12.726713"><ele>556.5</ele></trkpt>
<trkpt lat="47.640244" lon="12.727286"><ele>551.2</ele></trkpt>
<trkpt lat="47.639267" lon="12.727463"><ele>554.2</ele></trkpt>
<trkpt lat="47.638206" lon="12.727563"><ele>575.7</ele></trkpt>
<trkpt lat="47.636905" lon="12.727359"><ele>553.8</ele></trkpt>
<trkpt lat="47.636756" lon="12.727602"><ele>546.9</ele></trkpt>
<trkpt lat="47.635370" lon="12.727708"><ele>557.9</ele></trkpt>
<trkpt lat="47.634008" lon="12.727911"><ele>565.3</ele></trkpt>
<trkpt lat="47.633755" lon="12.727968"><ele>563.9</ele></trkpt>
<trkpt lat="47.633198" lon="12.727813"><ele>589.6</ele></trkpt>
<trkpt lat="47.631850" lon="12.727987"><ele>578.5</ele></trkpt>
<trkpt lat="47.631800" lon="12.727997"><ele>575.9</ele></trkpt>
<trkpt lat="47.631172" lon="12.727878"><ele>561.0</ele></trkpt>
<trkpt lat="47.630289" lon="12.727078"><ele>560.0</ele></trkpt>
<trkpt lat="47.629450" lon="12.725472"><ele>563.3</ele></trkpt>
<trkpt lat="47.628666" lon="12.723813"><ele>560.9</ele></trkpt>
<trkpt lat="47.628231" lon="12.722921"><ele>563.1</ele></trkpt>
<trkpt lat="47.627211" lon="12.721577"><ele>548.6</ele></trkpt>
<trkpt lat="47.626958" lon="12.721049"><ele>549.8</ele></trkpt>
<trkpt lat="47.625565" lon="12.720590"><ele>551.9</ele></trkpt>
<trkpt lat="47.625287" lon="12.720432"><ele>556.4</ele></trkpt>
<trkpt lat="47.624318" lon="12.718852"><ele>561.8</ele></trkpt>
<trkpt lat="47.623391" lon="12.717335"><ele>556.1</ele></trkpt>
<trkpt lat="47.622304" lon="12.715935"><ele>556.3</ele></trkpt>
<trkpt lat="47.621360" lon="12.714718"><ele>565.5</ele></trkpt>
<trkpt lat="47.620668" lon="12.714059"><ele>560.6</ele></trkpt>
<trkpt lat="47.620530" lon="12.713777"><ele>559.6</ele></trkpt>
<trkpt lat="47.620349" lon="12.712004"><ele>560.0</ele></trkpt>
<trkpt lat="47.619905" lon="12.710873"><ele>572.4</ele></trkpt>
<trkpt lat="47.619214" lon="12.709839"><ele>577.7</ele></trkpt>
<trkpt lat="47.618129" lon="12.709447"><ele>557.8</ele></trkpt>
<trkpt lat="47.616837" lon="12.708374"><ele>562.8</ele></trkpt>
<trkpt lat="47.616414" lon="12.708084"><ele>560.0</ele></trkpt>
<trkpt lat="47.615033" lon="12.707574"><ele>566.1</ele></trkpt>
<trkpt lat="47.614248" lon="12.707209"><ele>563.8</ele></trkpt>
<trkpt lat="47.612969" lon="12.706593"><ele>570.8</ele></trkpt>
<trkpt lat="47.612264" lon="12.706087"><ele>572.9</ele></trkpt>
<trkpt lat="47.611427" lon="12.706045"><ele>574.3</ele></trkpt>
<trkpt lat="47.611178" lon="12.705588"><ele>575.0</ele></trkpt>
<trkpt lat="47.610241" lon="12.706105"><ele>576.0</ele></trkpt>
<trkpt lat="47.609598" lon="12.706195"><ele>574.1</ele></trkpt>
<trkpt lat="47.608504" lon="12.705454"><ele>572.2</ele></trkpt>
<trkpt lat="47.607762" lon="12.705364"><ele>579.6</ele></trkpt>
<trkpt lat="47.607101" lon="12.705841"><ele>581.3</ele></trkpt>
<trkpt lat="47.606473" lon="12.707022"><ele>572.7</ele></trkpt>
<trkpt lat="47.605833" lon="12.707041"><ele>579.9</ele></trkpt>
<trkpt lat="47.605306" lon="12.706727"><ele>577.9</ele></trkpt>
<trkpt lat="47.604734" lon="12.704906"><ele>580.9</ele></trkpt>
<trkpt lat="47.604714" lon="12.704828"><ele>581.1</ele></trkpt>
<trkpt lat="47.604267" lon="12.704150"><ele>586.8</ele></trkpt>
<trkpt lat="47.603061" lon="12.703642"><ele>591.8</ele></trkpt>
<trkpt lat="47.602672" lon="12.703874"><ele>585.9</ele></trkpt>
<trkpt lat="47.602041" lon="12.703853"><ele>592.1</ele></trkpt>
<trkpt lat="47.600721" lon="12.703252"><ele>595.4</ele></trkpt>
<trkpt lat="47.600641" lon="12.703220"><ele>595.2</ele></trkpt>
<trkpt lat="47.600214" lon="12.702700"><ele>606.7</ele></trkpt>
<trkpt lat="47.598787" lon="12.702230"><ele>612.4</ele></trkpt>
<trkpt lat="47.598548" lon="12.702149"><ele>612.6</ele></trkpt>
<trkpt lat="47.597702" lon="12.701196"><ele>610.8</ele></trkpt>
<trkpt lat="47.597566" lon="12.700645"><ele>615.5</ele></trkpt>
<trkpt lat="47.596643" lon="12.698954"><ele>620.8</ele></trkpt>
<trkpt lat="47.595312" lon="12.698181"><ele>619.2</ele></trkpt>
<trkpt lat="47.594396" lon="12.697674"><ele>623.1</ele></trkpt>
<trkpt lat="47.594023" lon="12.697286"><ele>628.4</ele></trkpt>
<trkpt lat="47.593452" lon="12.697130"><ele>620.2</ele></trkpt>
<trkpt lat="47.592304" lon="12.695925"><ele>618.6</ele></trkpt>
<trkpt lat="47.591307" lon="12.695005"><ele>630.3</ele></trkpt>
<trkpt lat="47.590155" lon="12.695116"><ele>628.0</ele></trkpt>
<trkpt lat="47.589906" lon="12.695700"><ele>619.0</ele></trkpt>
<trkpt lat="47.589267" lon="12.695811"><ele>615.7</ele></trkpt>
<trkpt lat="47.588376" lon="12.694382"><ele>622.7</ele></trkpt>
<trkpt lat="47.588422" lon="12.694215"><ele>623.8</ele></trkpt>
<trkpt lat="47.587383" lon="12.693172"><ele>625.7</ele></trkpt>
<trkpt lat="47.587112" lon="12.693484"><ele>626.7</ele></trkpt>
<trkpt lat="47.586760" lon="12.693499"><ele>627.8</ele></trkpt>
<trkpt lat="47.586919" lon="12.694624"><ele>626.4</ele></trkpt>
<trkpt lat="47.586710" lon="12.695305"><ele>626.0</ele></trkpt>
<trkpt lat="47.586450" lon="12.694998"><ele>626.8</ele></trkpt>
<trkpt lat="47.586498" lon="12.694852"><ele>626.8</ele></trkpt>
<trkpt lat="47.586095" lon="12.694695"><ele>627.9</ele></trkpt>
<trkpt lat="47.586368" lon="12.693838"><ele>627.9</ele></trkpt>
<trkpt lat="47.587006" lon="12.693477"><ele>626.9</ele></trkpt>
<trkpt lat="47.587236" lon="12.692965"><ele>626.0</ele></trkpt>
<trkpt lat="47.588359" lon="12.694229"><ele>623.1</ele></trkpt>
<trkpt lat="47.588396" lon="12.694279"><ele>623.3</ele></trkpt>
<trkpt lat="47.589267" lon="12.695811"><ele>615.7</ele></trkpt>
<trkpt lat="47.589319" lon="12.695826"><ele>616.3</ele></trkpt>
<trkpt lat="47.589965" lon="12.695650"><ele>618.4</ele></trkpt>
<trkpt lat="47.590155" lon="12.695117"><ele>628.0</ele></trkpt>
<trkpt lat="47.591307" lon="12.695005"><ele>630.3</ele></trkpt>
<trkpt lat="47.592529" lon="12.696133"><ele>619.6</ele></trkpt>
<trkpt lat="47.593452" lon="12.697130"><ele>620.2</ele></trkpt>
<trkpt lat="47.594023" lon="12.697286"><ele>628.4</ele></trkpt>
<trkpt lat="47.594396" lon="12.697674"><ele>623.1</ele></trkpt>
<trkpt lat="47.595675" lon="12.698419"><ele>620.5</ele></trkpt>
<trkpt lat="47.596643" lon="12.698954"><ele>620.8</ele></trkpt>
<trkpt lat="47.597555" lon="12.700623"><ele>615.5</ele></trkpt>
<trkpt lat="47.597566" lon="12.700645"><ele>615.5</ele></trkpt>
<trkpt lat="47.597702" lon="12.701196"><ele>610.8</ele></trkpt>
<trkpt lat="47.598548" lon="12.702149"><ele>612.6</ele></trkpt>
<trkpt lat="47.600006" lon="12.702639"><ele>606.0</ele></trkpt>
<trkpt lat="47.600214" lon="12.702700"><ele>606.7</ele></trkpt>
<trkpt lat="47.600641" lon="12.703220"><ele>595.2</ele></trkpt>
<trkpt lat="47.602025" lon="12.703847"><ele>592.4</ele></trkpt>
<trkpt lat="47.602041" lon="12.703853"><ele>592.1</ele></trkpt>
<trkpt lat="47.602672" lon="12.703874"><ele>585.9</ele></trkpt>
<trkpt lat="47.603061" lon="12.703642"><ele>591.8</ele></trkpt>
<trkpt lat="47.604267" lon="12.704150"><ele>586.8</ele></trkpt>
<trkpt lat="47.604714" lon="12.704828"><ele>581.1</ele></trkpt>
<trkpt lat="47.605306" lon="12.706727"><ele>577.9</ele></trkpt>
<trkpt lat="47.605833" lon="12.707041"><ele>579.9</ele></trkpt>
<trkpt lat="47.606473" lon="12.707022"><ele>572.7</ele></trkpt>
<trkpt lat="47.607101" lon="12.705841"><ele>581.3</ele></trkpt>
<trkpt lat="47.607762" lon="12.705364"><ele>579.6</ele></trkpt>
<trkpt lat="47.608504" lon="12.705454"><ele>572.2</ele></trkpt>
<trkpt lat="47.609598" lon="12.706195"><ele>574.1</ele></trkpt>
<trkpt lat="47.610241" lon="12.706105"><ele>576.0</ele></trkpt>
<trkpt lat="47.611178" lon="12.705588"><ele>575.0</ele></trkpt>
<trkpt lat="47.611427" lon="12.706045"><ele>574.3</ele></trkpt>
<trkpt lat="47.612264" lon="12.706087"><ele>572.9</ele></trkpt>
<trkpt lat="47.613512" lon="12.706773"><ele>565.7</ele></trkpt>
<trkpt lat="47.614248" lon="12.707209"><ele>563.8</ele></trkpt>
<trkpt lat="47.615716" lon="12.707789"><ele>559.8</ele></trkpt>
<trkpt lat="47.616414" lon="12.708084"><ele>560.0</ele></trkpt>
<trkpt lat="47.617606" lon="12.709060"><ele>563.2</ele></trkpt>
<trkpt lat="47.618129" lon="12.709447"><ele>557.8</ele></trkpt>
<trkpt lat="47.619214" lon="12.709839"><ele>577.7</ele></trkpt>
<trkpt lat="47.619905" lon="12.710873"><ele>572.4</ele></trkpt>
<trkpt lat="47.620349" lon="12.712004"><ele>560.0</ele></trkpt>
<trkpt lat="47.620530" lon="12.713777"><ele>559.6</ele></trkpt>
<trkpt lat="47.620668" lon="12.714059"><ele>560.6</ele></trkpt>
<trkpt lat="47.621360" lon="12.714718"><ele>565.5</ele></trkpt>
<trkpt lat="47.622493" lon="12.716179"><ele>556.5</ele></trkpt>
<trkpt lat="47.623391" lon="12.717335"><ele>556.1</ele></trkpt>
<trkpt lat="47.624332" lon="12.718880"><ele>561.8</ele></trkpt>
<trkpt lat="47.625268" lon="12.720407"><ele>556.5</ele></trkpt>
<trkpt lat="47.625287" lon="12.720432"><ele>556.4</ele></trkpt>
<trkpt lat="47.626688" lon="12.720905"><ele>548.9</ele></trkpt>
<trkpt lat="47.626958" lon="12.721049"><ele>549.8</ele></trkpt>
<trkpt lat="47.627990" lon="12.722565"><ele>556.4</ele></trkpt>
<trkpt lat="47.628231" lon="12.722921"><ele>563.1</ele></trkpt>
<trkpt lat="47.629079" lon="12.724688"><ele>558.8</ele></trkpt>
<trkpt lat="47.629965" lon="12.726500"><ele>564.8</ele></trkpt>
<trkpt lat="47.630289" lon="12.727078"><ele>560.0</ele></trkpt>
<trkpt lat="47.630861" lon="12.727709"><ele>556.3</ele></trkpt>
<trkpt lat="47.631800" lon="12.727997"><ele>575.9</ele></trkpt>
<trkpt lat="47.633198" lon="12.727813"><ele>589.6</ele></trkpt>
<trkpt lat="47.633755" lon="12.727968"><ele>563.9</ele></trkpt>
<trkpt lat="47.635254" lon="12.727720"><ele>559.2</ele></trkpt>
<trkpt lat="47.636611" lon="12.727626"><ele>546.3</ele></trkpt>
<trkpt lat="47.636756" lon="12.727602"><ele>546.9</ele></trkpt>
<trkpt lat="47.636905" lon="12.727359"><ele>553.8</ele></trkpt>
<trkpt lat="47.638206" lon="12.727563"><ele>575.7</ele></trkpt>
<trkpt lat="47.639267" lon="12.727463"><ele>554.2</ele></trkpt>
<trkpt lat="47.640244" lon="12.727286"><ele>551.2</ele></trkpt>
<trkpt lat="47.640969" lon="12.726713"><ele>556.5</ele></trkpt>
<trkpt lat="47.641814" lon="12.726421"><ele>550.4</ele></trkpt>
<trkpt lat="47.642021" lon="12.726423"><ele>546.6</ele></trkpt>
<trkpt lat="47.642046" lon="12.727042"><ele>542.5</ele></trkpt>
<trkpt lat="47.642534" lon="12.727170"><ele>542.2</ele></trkpt>
<trkpt lat="47.642736" lon="12.726977"><ele>545.1</ele></trkpt>
<trkpt lat="47.642724" lon="12.726238"><ele>547.7</ele></trkpt>
<trkpt lat="47.642816" lon="12.726245"><ele>548.9</ele></trkpt>
<trkpt lat="47.643683" lon="12.726945"><ele>557.8</ele></trkpt>
<trkpt lat="47.644568" lon="12.728718"><ele>568.6</ele></trkpt>
<trkpt lat="47.644820" lon="12.729098"><ele>568.2</ele></trkpt>
<trkpt lat="47.645791" lon="12.729889"><ele>550.9</ele></trkpt>
<trkpt lat="47.647176" lon="12.729757"><ele>542.1</ele></trkpt>
<trkpt lat="47.647639" lon="12.729696"><ele>539.2</ele></trkpt>
<trkpt lat="47.648343" lon="12.729808"><ele>542.7</ele></trkpt>
<trkpt lat="47.649676" lon="12.730426"><ele>541.5</ele></trkpt>
<trkpt lat="47.649895" lon="12.730493"><ele>540.0</ele></trkpt>
<trkpt lat="47.649845" lon="12.731026"><ele>539.2</ele></trkpt>
<trkpt lat="47.650027" lon="12.731573"><ele>537.4</ele></trkpt>
<trkpt lat="47.651177" lon="12.732361"><ele>537.3</ele></trkpt>
<trkpt lat="47.652147" lon="12.733338"><ele>537.7</ele></trkpt>
<trkpt lat="47.652524" lon="12.732485"><ele>535.8</ele></trkpt>
<trkpt lat="47.653554" lon="12.734022"><ele>535.4</ele></trkpt>
<trkpt lat="47.653798" lon="12.734037"><ele>536.5</ele></trkpt>
<trkpt lat="47.654168" lon="12.733685"><ele>538.0</ele></trkpt>
<trkpt lat="47.654664" lon="12.734157"><ele>536.3</ele></trkpt>
<trkpt lat="47.655534" lon="12.734528"><ele>536.9</ele></trkpt>
<trkpt lat="47.657020" lon="12.734403"><ele>541.3</ele></trkpt>
<trkpt lat="47.657180" lon="12.734426"><ele>541.2</ele></trkpt>
<trkpt lat="47.657963" lon="12.734917"><ele>542.0</ele></trkpt>
<trkpt lat="47.658696" lon="12.736350"><ele>536.3</ele></trkpt>
<trkpt lat="47.658995" lon="12.738349"><ele>532.9</ele></trkpt>
<trkpt lat="47.659262" lon="12.739794"><ele>534.3</ele></trkpt>
<trkpt lat="47.659591" lon="12.740392"><ele>535.8</ele></trkpt>
<trkpt lat="47.660781" lon="12.741628"><ele>537.1</ele></trkpt>
<trkpt lat="47.661056" lon="12.742052"><ele>536.7</ele></trkpt>
<trkpt lat="47.661408" lon="12.743790"><ele>540.1</ele></trkpt>
<trkpt lat="47.661933" lon="12.744920"><ele>541.9</ele></trkpt>
<trkpt lat="47.662230" lon="12.746017"><ele>537.6</ele></trkpt>
<trkpt lat="47.663360" lon="12.747237"><ele>548.0</ele></trkpt>
<trkpt lat="47.663538" lon="12.747563"><ele>551.1</ele></trkpt>
<trkpt lat="47.664143" lon="12.749539"><ele>550.8</ele></trkpt>
<trkpt lat="47.664764" lon="12.751539"><ele>555.8</ele></trkpt>
<trkpt lat="47.664764" lon="12.751540"><ele>555.8</ele></trkpt>
<trkpt lat="47.664972" lon="12.752642"><ele>557.2</ele></trkpt>
<trkpt lat="47.665428" lon="12.753251"><ele>556.3</ele></trkpt>
<trkpt lat="47.666142" lon="12.753501"><ele>563.4</ele></trkpt>
<trkpt lat="47.666362" lon="12.753826"><ele>565.1</ele></trkpt>
<trkpt lat="47.666572" lon="12.753638"><ele>568.4</ele></trkpt>
<trkpt lat="47.667845" lon="12.754341"><ele>572.1</ele></trkpt>
<trkpt lat="47.667967" lon="12.754425"><ele>571.7</ele></trkpt>
<trkpt lat="47.668382" lon="12.754361"><ele>573.6</ele></trkpt>
<trkpt lat="47.668228" lon="12.754837"><ele>580.0</ele></trkpt>
<trkpt lat="47.667318" lon="12.754658"><ele>566.6</ele></trkpt>
<trkpt lat="47.667104" lon="12.754810"><ele>563.7</ele></trkpt>
<trkpt lat="47.666912" lon="12.756049"><ele>565.4</ele></trkpt>
<trkpt lat="47.666994" lon="12.756927"><ele>567.1</ele></trkpt>
<trkpt lat="47.666753" lon="12.757663"><ele>553.6</ele></trkpt>
<trkpt lat="47.667373" lon="12.758319"><ele>556.9</ele></trkpt>
<trkpt lat="47.667549" lon="12.758867"><ele>563.4</ele></trkpt>
<trkpt lat="47.667614" lon="12.760841"><ele>552.4</ele></trkpt>
<trkpt lat="47.667380" lon="12.762963"><ele>533.4</ele></trkpt>
<trkpt lat="47.667331" lon="12.763449"><ele>531.6</ele></trkpt>
<trkpt lat="47.667595" lon="12.765125"><ele>537.9</ele></trkpt>
<trkpt lat="47.667441" lon="12.766845"><ele>535.0</ele></trkpt>
<trkpt lat="47.667632" lon="12.768824"><ele>535.3</ele></trkpt>
<trkpt lat="47.667617" lon="12.770038"><ele>523.0</ele></trkpt>
<trkpt lat="47.668181" lon="12.771339"><ele>522.8</ele></trkpt>
<trkpt lat="47.668002" lon="12.771662"><ele>519.5</ele></trkpt>
<trkpt lat="47.668049" lon="12.772005"><ele>516.7</ele></trkpt>
<trkpt lat="47.668535" lon="12.772666"><ele>520.5</ele></trkpt>
<trkpt lat="47.669761" lon="12.773748"><ele>533.5</ele></trkpt>
<trkpt lat="47.669830" lon="12.773812"><ele>535.3</ele></trkpt>
<trkpt lat="47.670298" lon="12.774696"><ele>538.3</ele></trkpt>
<trkpt lat="47.670798" lon="12.776271"><ele>528.9</ele></trkpt>
<trkpt lat="47.671735" lon="12.777215"><ele>534.2</ele></trkpt>
<trkpt lat="47.672021" lon="12.778154"><ele>524.8</ele></trkpt>
<trkpt lat="47.672233" lon="12.778282"><ele>527.5</ele></trkpt>
<trkpt lat="47.672932" lon="12.779520"><ele>530.0</ele></trkpt>
<trkpt lat="47.673567" lon="12.780243"><ele>533.3</ele></trkpt>
<trkpt lat="47.674862" lon="12.781204"><ele>534.3</ele></trkpt>
<trkpt lat="47.676094" lon="12.782308"><ele>541.6</ele></trkpt>
<trkpt lat="47.676714" lon="12.782753"><ele>544.0</ele></trkpt>
<trkpt lat="47.677656" lon="12.784213"><ele>527.9</ele></trkpt>
<trkpt lat="47.678578" lon="12.785682"><ele>523.9</ele></trkpt>
<trkpt lat="47.678736" lon="12.785893"><ele>526.0</ele></trkpt>
<trkpt lat="47.678773" lon="12.786259"><ele>521.5</ele></trkpt>
<trkpt lat="47.679468" lon="12.786979"><ele>522.8</ele></trkpt>
<trkpt lat="47.680336" lon="12.787393"><ele>533.5</ele></trkpt>
<trkpt lat="47.680950" lon="12.787988"><ele>538.2</ele></trkpt>
<trkpt lat="47.682023" lon="12.789523"><ele>525.9</ele></trkpt>
<trkpt lat="47.683003" lon="12.791036"><ele>525.8</ele></trkpt>
<trkpt lat="47.683104" lon="12.791170"><ele>525.0</ele></trkpt>
<trkpt lat="47.684219" lon="12.792431"><ele>524.8</ele></trkpt>
<trkpt lat="47.684601" lon="12.792761"><ele>527.6</ele></trkpt>
<trkpt lat="47.685748" lon="12.794210"><ele>526.0</ele></trkpt>
<trkpt lat="47.686813" lon="12.795598"><ele>513.7</ele></trkpt>
<trkpt lat="47.687405" lon="12.796341"><ele>512.4</ele></trkpt>
<trkpt lat="47.687725" lon="12.796415"><ele>512.0</ele></trkpt>
<trkpt lat="47.687974" lon="12.796894"><ele>513.9</ele></trkpt>
<trkpt lat="47.688012" lon="12.796642"><ele>514.6</ele></trkpt>
<trkpt lat="47.689084" lon="12.797025"><ele>535.4</ele></trkpt>
<trkpt lat="47.689450" lon="12.797688"><ele>533.9</ele></trkpt>
<trkpt lat="47.689638" lon="12.798725"><ele>524.9</ele></trkpt>
<trkpt lat="47.690178" lon="12.799660"><ele>520.0</ele></trkpt>
<trkpt lat="47.691175" lon="12.800711"><ele>519.9</ele></trkpt>
<trkpt lat="47.692373" lon="12.800735"><ele>525.4</ele></trkpt>
<trkpt lat="47.693044" lon="12.801137"><ele>527.8</ele></trkpt>
<trkpt lat="47.693781" lon="12.801908"><ele>519.8</ele></trkpt>
<trkpt lat="47.693869" lon="12.802404"><ele>515.9</ele></trkpt>
<trkpt lat="47.694877" lon="12.802804"><ele>523.3</ele></trkpt>
<trkpt lat="47.696254" lon="12.802369"><ele>546.0</ele></trkpt>
<trkpt lat="47.697571" lon="12.801502"><ele>530.9</ele></trkpt>
<trkpt lat="47.698359" lon="12.801052"><ele>535.3</ele></trkpt>
<trkpt lat="47.699725" lon="12.800983"><ele>564.2</ele></trkpt>
<trkpt lat="47.701248" lon="12.800844"><ele>574.5</ele></trkpt>
<trkpt lat="47.701779" lon="12.800901"><ele>578.8</ele></trkpt>
<trkpt lat="47.702965" lon="12.801829"><ele>602.1</ele></trkpt>
<trkpt lat="47.703957" lon="12.802728"><ele>614.0</ele></trkpt>
<trkpt lat="47.704307" lon="12.804469"><ele>625.0</ele></trkpt>
<trkpt lat="47.705071" lon="12.805350"><ele>631.2</ele></trkpt>
<trkpt lat="47.705128" lon="12.805905"><ele>626.9</ele></trkpt>
<trkpt lat="47.704989" lon="12.806247"><ele>621.4</ele></trkpt>
<trkpt lat="47.704728" lon="12.806185"><ele>617.9</ele></trkpt>
<trkpt lat="47.704652" lon="12.805503"><ele>617.8</ele></trkpt>
<trkpt lat="47.704760" lon="12.803409"><ele>640.8</ele></trkpt>
<trkpt lat="47.704811" lon="12.802443"><ele>640.2</ele></trkpt>
<trkpt lat="47.704742" lon="12.800969"><ele>625.4</ele></trkpt>
<trkpt lat="47.704869" lon="12.800486"><ele>626.2</ele></trkpt>
<trkpt lat="47.705967" lon="12.799432"><ele>638.1</ele></trkpt>
<trkpt lat="47.706785" lon="12.797727"><ele>634.1</ele></trkpt>
<trkpt lat="47.707096" lon="12.797108"><ele>644.7</ele></trkpt>
<trkpt lat="47.707777" lon="12.796156"><ele>628.5</ele></trkpt>
<trkpt lat="47.708342" lon="12.795677"><ele>650.0</ele></trkpt>
<trkpt lat="47.709086" lon="12.793988"><ele>634.0</ele></trkpt>
<trkpt lat="47.709428" lon="12.793405"><ele>626.9</ele></trkpt>
<trkpt lat="47.710733" lon="12.792556"><ele>643.8</ele></trkpt>
<trkpt lat="47.711280" lon="12.792198"><ele>642.1</ele></trkpt>
<trkpt lat="47.711650" lon="12.791678"><ele>628.9</ele></trkpt>
<trkpt lat="47.711581" lon="12.789625"><ele>642.0</ele></trkpt>
<trkpt lat="47.711582" lon="12.789505"><ele>641.6</ele></trkpt>
<trkpt lat="47.711987" lon="12.787572"><ele>636.5</ele></trkpt>
<trkpt lat="47.712002" lon="12.787367"><ele>633.9</ele></trkpt>
<trkpt lat="47.711844" lon="12.785220"><ele>635.2</ele></trkpt>
<trkpt lat="47.711789" lon="12.784888"><ele>635.4</ele></trkpt>
<trkpt lat="47.711662" lon="12.784850"><ele>629.0</ele></trkpt>
<trkpt lat="47.711731" lon="12.785546"><ele>621.4</ele></trkpt>
<trkpt lat="47.712184" lon="12.785927"><ele>641.8</ele></trkpt>
<trkpt lat="47.712451" lon="12.786448"><ele>648.0</ele></trkpt>
<trkpt lat="47.711980" lon="12.786793"><ele>621.2</ele></trkpt>
<trkpt lat="47.711987" lon="12.787572"><ele>636.5</ele></trkpt>
<trkpt lat="47.711582" lon="12.789505"><ele>641.6</ele></trkpt>
<trkpt lat="47.711687" lon="12.791503"><ele>629.7</ele></trkpt>
<trkpt lat="47.711650" lon="12.791678"><ele>628.9</ele></trkpt>
<trkpt lat="47.711280" lon="12.792198"><ele>642.1</ele></trkpt>
<trkpt lat="47.709885" lon="12.793110"><ele>634.4</ele></trkpt>
<trkpt lat="47.709428" lon="12.793405"><ele>626.9</ele></trkpt>
<trkpt lat="47.708598" lon="12.795015"><ele>633.7</ele></trkpt>
<trkpt lat="47.708342" lon="12.795677"><ele>650.0</ele></trkpt>
<trkpt lat="47.707777" lon="12.796156"><ele>628.5</ele></trkpt>
<trkpt lat="47.707096" lon="12.797108"><ele>644.7</ele></trkpt>
<trkpt lat="47.706238" lon="12.798861"><ele>627.8</ele></trkpt>
<trkpt lat="47.705967" lon="12.799432"><ele>638.1</ele></trkpt>
<trkpt lat="47.704869" lon="12.800486"><ele>626.2</ele></trkpt>
<trkpt lat="47.704742" lon="12.800969"><ele>625.4</ele></trkpt>
<trkpt lat="47.704808" lon="12.802550"><ele>640.5</ele></trkpt>
<trkpt lat="47.704690" lon="12.804576"><ele>626.2</ele></trkpt>
<trkpt lat="47.704578" lon="12.806559"><ele>622.5</ele></trkpt>
<trkpt lat="47.704582" lon="12.806686"><ele>623.1</ele></trkpt>
<trkpt lat="47.705447" lon="12.808381"><ele>623.0</ele></trkpt>
<trkpt lat="47.705729" lon="12.808798"><ele>625.5</ele></trkpt>
<trkpt lat="47.705622" lon="12.808973"><ele>625.3</ele></trkpt>
<trkpt lat="47.705887" lon="12.809693"><ele>633.9</ele></trkpt>
<trkpt lat="47.706927" lon="12.810964"><ele>632.3</ele></trkpt>
<trkpt lat="47.707436" lon="12.811318"><ele>641.4</ele></trkpt>
<trkpt lat="47.708072" lon="12.810901"><ele>621.3</ele></trkpt>
<trkpt lat="47.709118" lon="12.811468"><ele>591.8</ele></trkpt>
<trkpt lat="47.709858" lon="12.812557"><ele>583.6</ele></trkpt>
<trkpt lat="47.710431" lon="12.814579"><ele>576.0</ele></trkpt>
<trkpt lat="47.710467" lon="12.814651"><ele>575.7</ele></trkpt>
<trkpt lat="47.711476" lon="12.815268"><ele>561.7</ele></trkpt>
<trkpt lat="47.712341" lon="12.816429"><ele>553.2</ele></trkpt>
<trkpt lat="47.713673" lon="12.817014"><ele>548.2</ele></trkpt>
<trkpt lat="47.714839" lon="12.817642"><ele>541.6</ele></trkpt>
<trkpt lat="47.715800" lon="12.819029"><ele>547.8</ele></trkpt>
<trkpt lat="47.716519" lon="12.818411"><ele>539.6</ele></trkpt>
<trkpt lat="47.716878" lon="12.818538"><ele>544.1</ele></trkpt>
<trkpt lat="47.717769" lon="12.819950"><ele>537.1</ele></trkpt>
<trkpt lat="47.718839" lon="12.820777"><ele>545.0</ele></trkpt>
<trkpt lat="47.719722" lon="12.822549"><ele>542.3</ele></trkpt>
<trkpt lat="47.720591" lon="12.824286"><ele>539.1</ele></trkpt>
<trkpt lat="47.720713" lon="12.824546"><ele>542.5</ele></trkpt>
<trkpt lat="47.720825" lon="12.825396"><ele>541.8</ele></trkpt>
<trkpt lat="47.721364" lon="12.827287"><ele>546.5</ele></trkpt>
<trkpt lat="47.721650" lon="12.828079"><ele>551.3</ele></trkpt>
<trkpt lat="47.721753" lon="12.829195"><ele>553.7</ele></trkpt>
<trkpt lat="47.722209" lon="12.830555"><ele>557.5</ele></trkpt>
<trkpt lat="47.722274" lon="12.832630"><ele>564.5</ele></trkpt>
<trkpt lat="47.722402" lon="12.834043"><ele>574.8</ele></trkpt>
<trkpt lat="47.722339" lon="12.835235"><ele>587.9</ele></trkpt>
<trkpt lat="47.722531" lon="12.837305"><ele>585.0</ele></trkpt>
<trkpt lat="47.722588" lon="12.838466"><ele>578.0</ele></trkpt>
<trkpt lat="47.723062" lon="12.840555"><ele>565.3</ele></trkpt>
<trkpt lat="47.722483" lon="12.840627"><ele>560.8</ele></trkpt>
<trkpt lat="47.721967" lon="12.842540"><ele>551.9</ele></trkpt>
<trkpt lat="47.721921" lon="12.842714"><ele>551.4</ele></trkpt>
<trkpt lat="47.721985" lon="12.843842"><ele>544.3</ele></trkpt>
<trkpt lat="47.722383" lon="12.845922"><ele>543.0</ele></trkpt>
<trkpt lat="47.722677" lon="12.847760"><ele>517.1</ele></trkpt>
<trkpt lat="47.722200" lon="12.848053"><ele>509.8</ele></trkpt>
<trkpt lat="47.721602" lon="12.847570"><ele>509.2</ele></trkpt>
<trkpt lat="47.721829" lon="12.848486"><ele>491.9</ele></trkpt>
<trkpt lat="47.721778" lon="12.849296"><ele>483.1</ele></trkpt>
<trkpt lat="47.720540" lon="12.850484"><ele>470.5</ele></trkpt>
<trkpt lat="47.720318" lon="12.850781"><ele>471.2</ele></trkpt>
<trkpt lat="47.720241" lon="12.852846"><ele>466.0</ele></trkpt>
<trkpt lat="47.720185" lon="12.854434"><ele>466.7</ele></trkpt>
<trkpt lat="47.720254" lon="12.856268"><ele>466.5</ele></trkpt>
<trkpt lat="47.720455" lon="12.858451"><ele>464.6</ele></trkpt>
<trkpt lat="47.720475" lon="12.858605"><ele>465.0</ele></trkpt>
<trkpt lat="47.720882" lon="12.860575"><ele>467.7</ele></trkpt>
<trkpt lat="47.720887" lon="12.860601"><ele>467.6</ele></trkpt>
<trkpt lat="47.721519" lon="12.862630"><ele>467.2</ele></trkpt>
<trkpt lat="47.722175" lon="12.864214"><ele>469.8</ele></trkpt>
<trkpt lat="47.722518" lon="12.865713"><ele>470.2</ele></trkpt>
<trkpt lat="47.722949" lon="12.865504"><ele>472.2</ele></trkpt>
<trkpt lat="47.723516" lon="12.864805"><ele>467.3</ele></trkpt>
<trkpt lat="47.724872" lon="12.864867"><ele>465.9</ele></trkpt>
<trkpt lat="47.726376" lon="12.864822"><ele>467.7</ele></trkpt>
<trkpt lat="47.727445" lon="12.864903"><ele>464.7</ele></trkpt>
<trkpt lat="47.728715" lon="12.865783"><ele>466.0</ele></trkpt>
<trkpt lat="47.729667" lon="12.866389"><ele>465.0</ele></trkpt>
<trkpt lat="47.730844" lon="12.867690"><ele>462.1</ele></trkpt>
<trkpt lat="47.731428" lon="12.868452"><ele>468.2</ele></trkpt>
<trkpt lat="47.731885" lon="12.868602"><ele>466.3</ele></trkpt>
<trkpt lat="47.732234" lon="12.869304"><ele>463.2</ele></trkpt>
<trkpt lat="47.732626" lon="12.869655"><ele>464.9</ele></trkpt>
<trkpt lat="47.731846" lon="12.871179"><ele>472.2</ele></trkpt>
<trkpt lat="47.731029" lon="12.871677"><ele>465.3</ele></trkpt>
<trkpt lat="47.731273" lon="12.871543"><ele>467.2</ele></trkpt>
<trkpt lat="47.732017" lon="12.873368"><ele>463.5</ele></trkpt>
<trkpt lat="47.732782" lon="12.875231"><ele>466.0</ele></trkpt>
<trkpt lat="47.733431" lon="12.876835"><ele>462.9</ele></trkpt>
<trkpt lat="47.732762" lon="12.877764"><ele>465.9</ele></trkpt>
<trkpt lat="47.731783" lon="12.878258"><ele>464.3</ele></trkpt>
<trkpt lat="47.730442" lon="12.879279"><ele>469.2</ele></trkpt>
<trkpt lat="47.730113" lon="12.879533"><ele>468.9</ele></trkpt>
<trkpt lat="47.729632" lon="12.879561"><ele>467.7</ele></trkpt>
<trkpt lat="47.728984" lon="12.880019"><ele>470.3</ele></trkpt>
<trkpt lat="47.729690" lon="12.881168"><ele>467.4</ele></trkpt>
<trkpt lat="47.728766" lon="12.882934"><ele>468.2</ele></trkpt>
<trkpt lat="47.728118" lon="12.884187"><ele>469.7</ele></trkpt>
<trkpt lat="47.727687" lon="12.883896"><ele>471.3</ele></trkpt>
<trkpt lat="47.727494" lon="12.883113"><ele>470.2</ele></trkpt>
<trkpt lat="47.726900" lon="12.883842"><ele>474.7</ele></trkpt>
</trkseg></trk></gpx>