<?xml version="1.0" encoding="UTF-8"?>
<gpx version="1.1" creator="Bad Reichenhall gravel – saját gravel-router (OSM/Overture + SRTM)" xmlns="http://www.topografix.com/GPX/1/1">
<metadata><name>Frillensee–Falkensee–Listsee</name><desc>GENERÁLT NYOMVONAL – A környék klasszikus „hármas tó” köre. A Listsee után a Zwiesel lábánál erdei murvautakon kapaszkodsz fel a rejtett Frillensee-hez, majd Adlgaßon át a Falkensee lápos medencéjéhez gurulsz Inzell szélén. Visszafelé a Weißbach völgyén és a Thumsee-n át érsz haza. Sok árnyékos erdő, kevés forgalom.</desc><copyright author="OpenStreetMap contributors (via Overture Maps)"><license>https://opendatacommons.org/licenses/odbl/</license></copyright><time>2026-10-04T15:58:31Z</time></metadata>
<wpt lat="47.7368" lon="12.845"><name>Listsee</name><type>lake</type></wpt>
<wpt lat="47.7657" lon="12.8173"><name>Frillensee</name><type>lake</type></wpt>
<wpt lat="47.7745" lon="12.7983"><name>Forsthaus Adlgaß</name><type>hut</type></wpt>
<wpt lat="47.7482" lon="12.7664"><name>Falkensee</name><type>lake</type></wpt>
<wpt lat="47.7116" lon="12.785"><name>Mauthäusl</name><type>hut</type></wpt>
<wpt lat="47.7193" lon="12.8219"><name>Thumsee</name><type>lake</type></wpt>
<trk><name>Frillensee–Falkensee–Listsee</name><type>gravel</type><trkseg>
<trkpt lat="47.726900" lon="12.883842"><ele>474.7</ele></trkpt>
<trkpt lat="47.727494" lon="12.883113"><ele>470.2</ele></trkpt>
<trkpt lat="47.727687" lon="12.883896"><ele>471.3</ele></trkpt>
<trkpt lat="47.728118" lon="12.884187"><ele>469.7</ele></trkpt>
<trkpt lat="47.728982" lon="12.882507"><ele>469.3</ele></trkpt>
<trkpt lat="47.729690" lon="12.881168"><ele>467.4</ele></trkpt>
<trkpt lat="47.728984" lon="12.880019"><ele>470.3</ele></trkpt>
<trkpt lat="47.729632" lon="12.879561"><ele>467.7</ele></trkpt>
<trkpt lat="47.730113" lon="12.879533"><ele>468.9</ele></trkpt>
<trkpt lat="47.731401" lon="12.878544"><ele>464.2</ele></trkpt>
<trkpt lat="47.731783" lon="12.878258"><ele>464.3</ele></trkpt>
<trkpt lat="47.732762" lon="12.877764"><ele>465.9</ele></trkpt>
<trkpt lat="47.733431" lon="12.876835"><ele>462.9</ele></trkpt>
<trkpt lat="47.732706" lon="12.875059"><ele>465.7</ele></trkpt>
<trkpt lat="47.732005" lon="12.873339"><ele>463.6</ele></trkpt>
<trkpt lat="47.731300" lon="12.871605"><ele>466.9</ele></trkpt>
<trkpt lat="47.731273" lon="12.871543"><ele>467.2</ele></trkpt>
<trkpt lat="47.731029" lon="12.871677"><ele>465.3</ele></trkpt>
<trkpt lat="47.731799" lon="12.871233"><ele>472.1</ele></trkpt>
<trkpt lat="47.732626" lon="12.869655"><ele>464.9</ele></trkpt>
<trkpt lat="47.732680" lon="12.869573"><ele>466.5</ele></trkpt>
<trkpt lat="47.733314" lon="12.869335"><ele>471.9</ele></trkpt>
<trkpt lat="47.733247" lon="12.869208"><ele>471.6</ele></trkpt>
<trkpt lat="47.734134" lon="12.868524"><ele>474.8</ele></trkpt>
<trkpt lat="47.735119" lon="12.867113"><ele>467.4</ele></trkpt>
<trkpt lat="47.735489" lon="12.866593"><ele>463.1</ele></trkpt>
<trkpt lat="47.736516" lon="12.865885"><ele>470.9</ele></trkpt>
<trkpt lat="47.736039" lon="12.865837"><ele>470.7</ele></trkpt>
<trkpt lat="47.734786" lon="12.864673"><ele>470.5</ele></trkpt>
<trkpt lat="47.733547" lon="12.863583"><ele>485.3</ele></trkpt>
<trkpt lat="47.733326" lon="12.863305"><ele>485.9</ele></trkpt>
<trkpt lat="47.733323" lon="12.862367"><ele>484.9</ele></trkpt>
<trkpt lat="47.733830" lon="12.861803"><ele>482.6</ele></trkpt>
<trkpt lat="47.734168" lon="12.861067"><ele>486.0</ele></trkpt>
<trkpt lat="47.734371" lon="12.859841"><ele>495.2</ele></trkpt>
<trkpt lat="47.734911" lon="12.858719"><ele>507.5</ele></trkpt>
<trkpt lat="47.735093" lon="12.857430"><ele>510.8</ele></trkpt>
<trkpt lat="47.734867" lon="12.856236"><ele>518.0</ele></trkpt>
<trkpt lat="47.734828" lon="12.854193"><ele>536.0</ele></trkpt>
<trkpt lat="47.734726" lon="12.852451"><ele>540.8</ele></trkpt>
<trkpt lat="47.735110" lon="12.850895"><ele>549.2</ele></trkpt>
<trkpt lat="47.734858" lon="12.849754"><ele>555.6</ele></trkpt>
<trkpt lat="47.735017" lon="12.849040"><ele>561.2</ele></trkpt>
<trkpt lat="47.734331" lon="12.848571"><ele>552.7</ele></trkpt>
<trkpt lat="47.734095" lon="12.848866"><ele>547.9</ele></trkpt>
<trkpt lat="47.734080" lon="12.849344"><ele>541.6</ele></trkpt>
<trkpt lat="47.734437" lon="12.850958"><ele>532.3</ele></trkpt>
<trkpt lat="47.734238" lon="12.852644"><ele>518.9</ele></trkpt>
<trkpt lat="47.733924" lon="12.852350"><ele>505.0</ele></trkpt>
<trkpt lat="47.733767" lon="12.850828"><ele>507.4</ele></trkpt>
<trkpt lat="47.732982" lon="12.850684"><ele>501.3</ele></trkpt>
<trkpt lat="47.732636" lon="12.851053"><ele>496.4</ele></trkpt>
<trkpt lat="47.731857" lon="12.851278"><ele>486.0</ele></trkpt>
<trkpt lat="47.731502" lon="12.851869"><ele>483.7</ele></trkpt>
<trkpt lat="47.731792" lon="12.852525"><ele>470.8</ele></trkpt>
<trkpt lat="47.731704" lon="12.852727"><ele>469.3</ele></trkpt>
<trkpt lat="47.730973" lon="12.853163"><ele>465.8</ele></trkpt>
<trkpt lat="47.729998" lon="12.851634"><ele>469.3</ele></trkpt>
<trkpt lat="47.729810" lon="12.851335"><ele>470.3</ele></trkpt>
<trkpt lat="47.729055" lon="12.851826"><ele>467.3</ele></trkpt>
<trkpt lat="47.728608" lon="12.852402"><ele>479.2</ele></trkpt>
<trkpt lat="47.728563" lon="12.850649"><ele>484.9</ele></trkpt>
<trkpt lat="47.727851" lon="12.849854"><ele>500.7</ele></trkpt>
<trkpt lat="47.727567" lon="12.848922"><ele>503.8</ele></trkpt>
<trkpt lat="47.726963" lon="12.848242"><ele>511.7</ele></trkpt>
<trkpt lat="47.726861" lon="12.847300"><ele>508.4</ele></trkpt>
<trkpt lat="47.726334" lon="12.846386"><ele>510.0</ele></trkpt>
<trkpt lat="47.725971" lon="12.846326"><ele>518.9</ele></trkpt>
<trkpt lat="47.725611" lon="12.846763"><ele>522.9</ele></trkpt>
<trkpt lat="47.725491" lon="12.847174"><ele>522.9</ele></trkpt>
<trkpt lat="47.725537" lon="12.848171"><ele>513.1</ele></trkpt>
<trkpt lat="47.725156" lon="12.848656"><ele>504.2</ele></trkpt>
<trkpt lat="47.724018" lon="12.848010"><ele>519.8</ele></trkpt>
<trkpt lat="47.723289" lon="12.847437"><ele>533.6</ele></trkpt>
<trkpt lat="47.722599" lon="12.846518"><ele>541.8</ele></trkpt>
<trkpt lat="47.722422" lon="12.846518"><ele>539.2</ele></trkpt>
<trkpt lat="47.722108" lon="12.844354"><ele>540.8</ele></trkpt>
<trkpt lat="47.721921" lon="12.842714"><ele>551.4</ele></trkpt>
<trkpt lat="47.722417" lon="12.840812"><ele>557.7</ele></trkpt>
<trkpt lat="47.722483" lon="12.840627"><ele>560.8</ele></trkpt>
<trkpt lat="47.723062" lon="12.840555"><ele>565.3</ele></trkpt>
<trkpt lat="47.722588" lon="12.838471"><ele>578.0</ele></trkpt>
<trkpt lat="47.722588" lon="12.838466"><ele>578.0</ele></trkpt>
<trkpt lat="47.722426" lon="12.836475"><ele>591.8</ele></trkpt>
<trkpt lat="47.722339" lon="12.835235"><ele>587.9</ele></trkpt>
<trkpt lat="47.722402" lon="12.834043"><ele>574.8</ele></trkpt>
<trkpt lat="47.722228" lon="12.832035"><ele>557.6</ele></trkpt>
<trkpt lat="47.722209" lon="12.830555"><ele>557.5</ele></trkpt>
<trkpt lat="47.721753" lon="12.829195"><ele>553.7</ele></trkpt>
<trkpt lat="47.721650" lon="12.828079"><ele>551.3</ele></trkpt>
<trkpt lat="47.721101" lon="12.826237"><ele>551.7</ele></trkpt>
<trkpt lat="47.720825" lon="12.825396"><ele>541.8</ele></trkpt>
<trkpt lat="47.720691" lon="12.824478"><ele>541.9</ele></trkpt>
<trkpt lat="47.719861" lon="12.822847"><ele>538.6</ele></trkpt>
<trkpt lat="47.719033" lon="12.821116"><ele>541.5</ele></trkpt>
<trkpt lat="47.718839" lon="12.820777"><ele>545.0</ele></trkpt>
<trkpt lat="47.717769" lon="12.819950"><ele>537.1</ele></trkpt>
<trkpt lat="47.716787" lon="12.818442"><ele>544.0</ele></trkpt>
<trkpt lat="47.716456" lon="12.818445"><ele>538.5</ele></trkpt>
<trkpt lat="47.715800" lon="12.819029"><ele>547.8</ele></trkpt>
<trkpt lat="47.715185" lon="12.817989"><ele>544.9</ele></trkpt>
<trkpt lat="47.714679" lon="12.817519"><ele>541.6</ele></trkpt>
<trkpt lat="47.713328" lon="12.816863"><ele>545.0</ele></trkpt>
<trkpt lat="47.712341" lon="12.816429"><ele>553.2</ele></trkpt>
<trkpt lat="47.711476" lon="12.815268"><ele>561.7</ele></trkpt>
<trkpt lat="47.710466" lon="12.814650"><ele>575.7</ele></trkpt>
<trkpt lat="47.709874" lon="12.812619"><ele>583.4</ele></trkpt>
<trkpt lat="47.709858" lon="12.812557"><ele>583.6</ele></trkpt>
<trkpt lat="47.709118" lon="12.811468"><ele>591.8</ele></trkpt>
<trkpt lat="47.708072" lon="12.810901"><ele>621.3</ele></trkpt>
<trkpt lat="47.707436" lon="12.811318"><ele>641.4</ele></trkpt>
<trkpt lat="47.706927" lon="12.810964"><ele>632.3</ele></trkpt>
<trkpt lat="47.705887" lon="12.809693"><ele>633.9</ele></trkpt>
<trkpt lat="47.705622" lon="12.808973"><ele>625.3</ele></trkpt>
<trkpt lat="47.705728" lon="12.808798"><ele>625.5</ele></trkpt>
<trkpt lat="47.704979" lon="12.807462"><ele>626.1</ele></trkpt>
<trkpt lat="47.704969" lon="12.806510"><ele>622.7</ele></trkpt>
<trkpt lat="47.704681" lon="12.806035"><ele>616.5</ele></trkpt>
<trkpt lat="47.704727" lon="12.803951"><ele>634.8</ele></trkpt>
<trkpt lat="47.704780" lon="12.801858"><ele>634.5</ele></trkpt>
<trkpt lat="47.704801" lon="12.800660"><ele>625.8</ele></trkpt>
<trkpt lat="47.705117" lon="12.800127"><ele>627.6</ele></trkpt>
<trkpt lat="47.705967" lon="12.799432"><ele>638.1</ele></trkpt>
<trkpt lat="47.706785" lon="12.797727"><ele>634.1</ele></trkpt>
<trkpt lat="47.707096" lon="12.797108"><ele>644.7</ele></trkpt>
<trkpt lat="47.707777" lon="12.796156"><ele>628.5</ele></trkpt>
<trkpt lat="47.708342" lon="12.795677"><ele>650.0</ele></trkpt>
<trkpt lat="47.709086" lon="12.793988"><ele>634.0</ele></trkpt>
<trkpt lat="47.709428" lon="12.793405"><ele>626.9</ele></trkpt>
<trkpt lat="47.710733" lon="12.792556"><ele>643.8</ele></trkpt>
<trkpt lat="47.711280" lon="12.792198"><ele>642.1</ele></trkpt>
<trkpt lat="47.711615" lon="12.791781"><ele>630.9</ele></trkpt>
<trkpt lat="47.711704" lon="12.791239"><ele>631.6</ele></trkpt>
<trkpt lat="47.711582" lon="12.789505"><ele>641.6</ele></trkpt>
<trkpt lat="47.711987" lon="12.787572"><ele>636.5</ele></trkpt>
<trkpt lat="47.712002" lon="12.787367"><ele>633.9</ele></trkpt>
<trkpt lat="47.711932" lon="12.785607"><ele>632.5</ele></trkpt>
<trkpt lat="47.711789" lon="12.784888"><ele>635.4</ele></trkpt>
<trkpt lat="47.711662" lon="12.784850"><ele>629.0</ele></trkpt>
<trkpt lat="47.711730" lon="12.784238"><ele>632.7</ele></trkpt>
<trkpt lat="47.711509" lon="12.784500"><ele>623.1</ele></trkpt>
<trkpt lat="47.711505" lon="12.784192"><ele>620.4</ele></trkpt>
<trkpt lat="47.711736" lon="12.783590"><ele>622.2</ele></trkpt>
<trkpt lat="47.711965" lon="12.781578"><ele>608.9</ele></trkpt>
<trkpt lat="47.712353" lon="12.780276"><ele>601.4</ele></trkpt>
<trkpt lat="47.712972" lon="12.779489"><ele>606.1</ele></trkpt>
<trkpt lat="47.713110" lon="12.778145"><ele>605.3</ele></trkpt>
<trkpt lat="47.713399" lon="12.777166"><ele>606.9</ele></trkpt>
<trkpt lat="47.714713" lon="12.776176"><ele>606.1</ele></trkpt>
<trkpt lat="47.715479" lon="12.775512"><ele>606.5</ele></trkpt>
<trkpt lat="47.716300" lon="12.774465"><ele>608.4</ele></trkpt>
<trkpt lat="47.717369" lon="12.774300"><ele>611.3</ele></trkpt>
<trkpt lat="47.717513" lon="12.774657"><ele>613.7</ele></trkpt>
<trkpt lat="47.718104" lon="12.774159"><ele>611.6</ele></trkpt>
<trkpt lat="47.718944" lon="12.772496"><ele>610.0</ele></trkpt>
<trkpt lat="47.719060" lon="12.772290"><ele>609.7</ele></trkpt>
<trkpt lat="47.719554" lon="12.771939"><ele>611.0</ele></trkpt>
<trkpt lat="47.720206" lon="12.770391"><ele>610.3</ele></trkpt>
<trkpt lat="47.721174" lon="12.768935"><ele>614.8</ele></trkpt>
<trkpt lat="47.721494" lon="12.768445"><ele>616.1</ele></trkpt>
<trkpt lat="47.722382" lon="12.766749"><ele>619.6</ele></trkpt>
<trkpt lat="47.722869" lon="12.765861"><ele>622.0</ele></trkpt>
<trkpt lat="47.723581" lon="12.764953"><ele>622.3</ele></trkpt>
<trkpt lat="47.724567" lon="12.764232"><ele>629.1</ele></trkpt>
<trkpt lat="47.725396" lon="12.762676"><ele>630.1</ele></trkpt>
<trkpt lat="47.725654" lon="12.762094"><ele>630.9</ele></trkpt>
<trkpt lat="47.726626" lon="12.760898"><ele>634.0</ele></trkpt>
<trkpt lat="47.727179" lon="12.759702"><ele>638.1</ele></trkpt>
<trkpt lat="47.728168" lon="12.758318"><ele>640.4</ele></trkpt>
<trkpt lat="47.728519" lon="12.757955"><ele>645.8</ele></trkpt>
<trkpt lat="47.728833" lon="12.757208"><ele>640.0</ele></trkpt>
<trkpt lat="47.728858" lon="12.757738"><ele>649.1</ele></trkpt>
<trkpt lat="47.728477" lon="12.758903"><ele>660.5</ele></trkpt>
<trkpt lat="47.729217" lon="12.757863"><ele>667.7</ele></trkpt>
<trkpt lat="47.730130" lon="12.757267"><ele>692.3</ele></trkpt>
<trkpt lat="47.729710" lon="12.758686"><ele>705.2</ele></trkpt>
<trkpt lat="47.730335" lon="12.758327"><ele>722.5</ele></trkpt>
<trkpt lat="47.731322" lon="12.756839"><ele>740.0</ele></trkpt>
<trkpt lat="47.731722" lon="12.756084"><ele>726.7</ele></trkpt>
<trkpt lat="47.732231" lon="12.756333"><ele>741.3</ele></trkpt>
<trkpt lat="47.733255" lon="12.756199"><ele>731.6</ele></trkpt>
<trkpt lat="47.734258" lon="12.756578"><ele>738.0</ele></trkpt>
<trkpt lat="47.734955" lon="12.757100"><ele>742.1</ele></trkpt>
<trkpt lat="47.735755" lon="12.756875"><ele>735.2</ele></trkpt>
<trkpt lat="47.737017" lon="12.757137"><ele>738.4</ele></trkpt>
<trkpt lat="47.738175" lon="12.756866"><ele>731.5</ele></trkpt>
<trkpt lat="47.738728" lon="12.757071"><ele>728.1</ele></trkpt>
<trkpt lat="47.739649" lon="12.758092"><ele>734.8</ele></trkpt>
<trkpt lat="47.740532" lon="12.758005"><ele>730.4</ele></trkpt>
<trkpt lat="47.741590" lon="12.759399"><ele>733.7</ele></trkpt>
<trkpt lat="47.741697" lon="12.759532"><ele>734.8</ele></trkpt>
<trkpt lat="47.742891" lon="12.760594"><ele>719.8</ele></trkpt>
<trkpt lat="47.743978" lon="12.761865"><ele>721.3</ele></trkpt>
<trkpt lat="47.744514" lon="12.762302"><ele>725.6</ele></trkpt>
<trkpt lat="47.745298" lon="12.763464"><ele>721.9</ele></trkpt>
<trkpt lat="47.746726" lon="12.764221"><ele>720.6</ele></trkpt>
<trkpt lat="47.748137" lon="12.764767"><ele>720.2</ele></trkpt>
<trkpt lat="47.748897" lon="12.765090"><ele>719.1</ele></trkpt>
<trkpt lat="47.750297" lon="12.765892"><ele>718.2</ele></trkpt>
<trkpt lat="47.751360" lon="12.766490"><ele>716.4</ele></trkpt>
<trkpt lat="47.752454" lon="12.767878"><ele>722.6</ele></trkpt>
<trkpt lat="47.753112" lon="12.768730"><ele>721.4</ele></trkpt>
<trkpt lat="47.753194" lon="12.769392"><ele>716.8</ele></trkpt>
<trkpt lat="47.752854" lon="12.770336"><ele>716.8</ele></trkpt>
<trkpt lat="47.753054" lon="12.771250"><ele>718.5</ele></trkpt>
<trkpt lat="47.753418" lon="12.771867"><ele>717.6</ele></trkpt>
<trkpt lat="47.754725" lon="12.772703"><ele>716.9</ele></trkpt>
<trkpt lat="47.755078" lon="12.772963"><ele>717.3</ele></trkpt>
<trkpt lat="47.755560" lon="12.773014"><ele>711.5</ele></trkpt>
<trkpt lat="47.756573" lon="12.773950"><ele>711.7</ele></trkpt>
<trkpt lat="47.756969" lon="12.774689"><ele>718.5</ele></trkpt>
<trkpt lat="47.757838" lon="12.774791"><ele>713.3</ele></trkpt>
<trkpt lat="47.759125" lon="12.775679"><ele>718.4</ele></trkpt>
<trkpt lat="47.760505" lon="12.774979"><ele>705.5</ele></trkpt>
<trkpt lat="47.761133" lon="12.774633"><ele>709.0</ele></trkpt>
<trkpt lat="47.761995" lon="12.773887"><ele>708.0</ele></trkpt>
<trkpt lat="47.762907" lon="12.773582"><ele>713.7</ele></trkpt>
<trkpt lat="47.763699" lon="12.773602"><ele>719.6</ele></trkpt>
<trkpt lat="47.764360" lon="12.773278"><ele>721.3</ele></trkpt>
<trkpt lat="47.765193" lon="12.771690"><ele>722.4</ele></trkpt>
<trkpt lat="47.765414" lon="12.771348"><ele>724.1</ele></trkpt>
<trkpt lat="47.765634" lon="12.769544"><ele>718.7</ele></trkpt>
<trkpt lat="47.767029" lon="12.769936"><ele>719.0</ele></trkpt>
<trkpt lat="47.767369" lon="12.770014"><ele>718.5</ele></trkpt>
<trkpt lat="47.768172" lon="12.769737"><ele>715.6</ele></trkpt>
<trkpt lat="47.768226" lon="12.771878"><ele>724.0</ele></trkpt>
<trkpt lat="47.768400" lon="12.773917"><ele>724.0</ele></trkpt>
<trkpt lat="47.768389" lon="12.774201"><ele>724.4</ele></trkpt>
<trkpt lat="47.767867" lon="12.776261"><ele>734.1</ele></trkpt>
<trkpt lat="47.767840" lon="12.776559"><ele>734.2</ele></trkpt>
<trkpt lat="47.768212" lon="12.778527"><ele>750.4</ele></trkpt>
<trkpt lat="47.768462" lon="12.779660"><ele>757.8</ele></trkpt>
<trkpt lat="47.768372" lon="12.780305"><ele>760.7</ele></trkpt>
<trkpt lat="47.767997" lon="12.780781"><ele>762.4</ele></trkpt>
<trkpt lat="47.768319" lon="12.782119"><ele>755.1</ele></trkpt>
<trkpt lat="47.768163" lon="12.782910"><ele>755.6</ele></trkpt>
<trkpt lat="47.768570" lon="12.784261"><ele>768.4</ele></trkpt>
<trkpt lat="47.769891" lon="12.784721"><ele>770.8</ele></trkpt>
<trkpt lat="47.771225" lon="12.785097"><ele>780.6</ele></trkpt>
<trkpt lat="47.771446" lon="12.785302"><ele>782.6</ele></trkpt>
<trkpt lat="47.771517" lon="12.785869"><ele>786.7</ele></trkpt>
<trkpt lat="47.771187" lon="12.787922"><ele>792.5</ele></trkpt>
<trkpt lat="47.771187" lon="12.788187"><ele>791.7</ele></trkpt>
<trkpt lat="47.771354" lon="12.789832"><ele>793.7</ele></trkpt>
<trkpt lat="47.771606" lon="12.790341"><ele>790.5</ele></trkpt>
<trkpt lat="47.771487" lon="12.790804"><ele>795.1</ele></trkpt>
<trkpt lat="47.772104" lon="12.792589"><ele>796.9</ele></trkpt>
<trkpt lat="47.772260" lon="12.792851"><ele>795.9</ele></trkpt>
<trkpt lat="47.772556" lon="12.794833"><ele>802.9</ele></trkpt>
<trkpt lat="47.772625" lon="12.795384"><ele>802.4</ele></trkpt>
<trkpt lat="47.772897" lon="12.795673"><ele>799.2</ele></trkpt>
<trkpt lat="47.771822" lon="12.796951"><ele>812.8</ele></trkpt>
<trkpt lat="47.771710" lon="12.797118"><ele>814.4</ele></trkpt>
<trkpt lat="47.770922" lon="12.798904"><ele>825.3</ele></trkpt>
<trkpt lat="47.770309" lon="12.800143"><ele>839.6</ele></trkpt>
<trkpt lat="47.770591" lon="12.801448"><ele>844.7</ele></trkpt>
<trkpt lat="47.771165" lon="12.801360"><ele>848.5</ele></trkpt>
<trkpt lat="47.771591" lon="12.801940"><ele>857.3</ele></trkpt>
<trkpt lat="47.771990" lon="12.803894"><ele>880.1</ele></trkpt>
<trkpt lat="47.771974" lon="12.804626"><ele>888.6</ele></trkpt>
<trkpt lat="47.772485" lon="12.804947"><ele>890.8</ele></trkpt>
<trkpt lat="47.772941" lon="12.804968"><ele>896.2</ele></trkpt>
<trkpt lat="47.773955" lon="12.804018"><ele>897.8</ele></trkpt>
<trkpt lat="47.774469" lon="12.804728"><ele>903.0</ele></trkpt>
<trkpt lat="47.774465" lon="12.805851"><ele>905.8</ele></trkpt>
<trkpt lat="47.774654" lon="12.806869"><ele>908.2</ele></trkpt>
<trkpt lat="47.774535" lon="12.807948"><ele>914.0</ele></trkpt>
<trkpt lat="47.775025" lon="12.808055"><ele>912.8</ele></trkpt>
<trkpt lat="47.775106" lon="12.808270"><ele>911.9</ele></trkpt>
<trkpt lat="47.774704" lon="12.808870"><ele>918.9</ele></trkpt>
<trkpt lat="47.773358" lon="12.809710"><ele>935.0</ele></trkpt>
<trkpt lat="47.773081" lon="12.810136"><ele>934.9</ele></trkpt>
<trkpt lat="47.772904" lon="12.811022"><ele>936.2</ele></trkpt>
<trkpt lat="47.772512" lon="12.811613"><ele>936.8</ele></trkpt>
<trkpt lat="47.771412" lon="12.812001"><ele>935.4</ele></trkpt>
<trkpt lat="47.770459" lon="12.812911"><ele>936.5</ele></trkpt>
<trkpt lat="47.769058" lon="12.813323"><ele>939.8</ele></trkpt>
<trkpt lat="47.768751" lon="12.813491"><ele>940.0</ele></trkpt>
<trkpt lat="47.767590" lon="12.814652"><ele>941.6</ele></trkpt>
<trkpt lat="47.767052" lon="12.815052"><ele>942.5</ele></trkpt>
<trkpt lat="47.765780" lon="12.815664"><ele>940.1</ele></trkpt>
<trkpt lat="47.765648" lon="12.815726"><ele>937.9</ele></trkpt>
<trkpt lat="47.765287" lon="12.816081"><ele>934.4</ele></trkpt>
<trkpt lat="47.765350" lon="12.816348"><ele>930.1</ele></trkpt>
<trkpt lat="47.765286" lon="12.816082"><ele>934.4</ele></trkpt>
<trkpt lat="47.765648" lon="12.815726"><ele>937.9</ele></trkpt>
<trkpt lat="47.766964" lon="12.815104"><ele>942.7</ele></trkpt>
<trkpt lat="47.767052" lon="12.815052"><ele>942.5</ele></trkpt>
<trkpt lat="47.768253" lon="12.813999"><ele>943.9</ele></trkpt>
<trkpt lat="47.768751" lon="12.813491"><ele>940.0</ele></trkpt>
<trkpt lat="47.770162" lon="12.812986"><ele>936.8</ele></trkpt>
<trkpt lat="47.770459" lon="12.812911"><ele>936.5</ele></trkpt>
<trkpt lat="47.771412" lon="12.812001"><ele>935.4</ele></trkpt>
<trkpt lat="47.772512" lon="12.811613"><ele>936.8</ele></trkpt>
<trkpt lat="47.772904" lon="12.811022"><ele>936.2</ele></trkpt>
<trkpt lat="47.773081" lon="12.810136"><ele>934.9</ele></trkpt>
<trkpt lat="47.773358" lon="12.809710"><ele>935.0</ele></trkpt>
<trkpt lat="47.774628" lon="12.808932"><ele>919.7</ele></trkpt>
<trkpt lat="47.774704" lon="12.808870"><ele>918.9</ele></trkpt>
<trkpt lat="47.775106" lon="12.808270"><ele>911.9</ele></trkpt>
<trkpt lat="47.775025" lon="12.808055"><ele>912.8</ele></trkpt>
<trkpt lat="47.774535" lon="12.807948"><ele>914.0</ele></trkpt>
<trkpt lat="47.774657" lon="12.807310"><ele>909.7</ele></trkpt>
<trkpt lat="47.774453" lon="12.805631"><ele>906.6</ele></trkpt>
<trkpt lat="47.774537" lon="12.804953"><ele>902.7</ele></trkpt>
<trkpt lat="47.774045" lon="12.804045"><ele>899.5</ele></trkpt>
<trkpt lat="47.772941" lon="12.804968"><ele>896.2</ele></trkpt>
<trkpt lat="47.772485" lon="12.804947"><ele>890.8</ele></trkpt>
<trkpt lat="47.771949" lon="12.804574"><ele>888.3</ele></trkpt>
<trkpt lat="47.773005" lon="12.803766"><ele>870.2</ele></trkpt>
<trkpt lat="47.773330" lon="12.801610"><ele>834.8</ele></trkpt>
<trkpt lat="47.773413" lon="12.801131"><ele>832.8</ele></trkpt>
<trkpt lat="47.774204" lon="12.799475"><ele>806.7</ele></trkpt>
<trkpt lat="47.774718" lon="12.798433"><ele>809.7</ele></trkpt>
<trkpt lat="47.773918" lon="12.797490"><ele>802.6</ele></trkpt>
<trkpt lat="47.773791" lon="12.796300"><ele>798.0</ele></trkpt>
<trkpt lat="47.773163" lon="12.794460"><ele>793.7</ele></trkpt>
<trkpt lat="47.772527" lon="12.792503"><ele>790.0</ele></trkpt>
<trkpt lat="47.772433" lon="12.792213"><ele>791.0</ele></trkpt>
<trkpt lat="47.771956" lon="12.790261"><ele>785.0</ele></trkpt>
<trkpt lat="47.771806" lon="12.789738"><ele>782.1</ele></trkpt>
<trkpt lat="47.771480" lon="12.790062"><ele>791.5</ele></trkpt>
<trkpt lat="47.771354" lon="12.789832"><ele>793.7</ele></trkpt>
<trkpt lat="47.771187" lon="12.787655"><ele>794.7</ele></trkpt>
<trkpt lat="47.771517" lon="12.785869"><ele>786.7</ele></trkpt>
<trkpt lat="47.771446" lon="12.785302"><ele>782.6</ele></trkpt>
<trkpt lat="47.770075" lon="12.784827"><ele>774.1</ele></trkpt>
<trkpt lat="47.768720" lon="12.784353"><ele>767.0</ele></trkpt>
<trkpt lat="47.768542" lon="12.784231"><ele>768.5</ele></trkpt>
<trkpt lat="47.768163" lon="12.782910"><ele>755.6</ele></trkpt>
<trkpt lat="47.768268" lon="12.781776"><ele>755.6</ele></trkpt>
<trkpt lat="47.768020" lon="12.780827"><ele>762.2</ele></trkpt>
<trkpt lat="47.767752" lon="12.780595"><ele>764.6</ele></trkpt>
<trkpt lat="47.766898" lon="12.780988"><ele>760.7</ele></trkpt>
<trkpt lat="47.766632" lon="12.782573"><ele>783.2</ele></trkpt>
<trkpt lat="47.766855" lon="12.783673"><ele>798.9</ele></trkpt>
<trkpt lat="47.766564" lon="12.783788"><ele>805.3</ele></trkpt>
<trkpt lat="47.765478" lon="12.782477"><ele>795.5</ele></trkpt>
<trkpt lat="47.765193" lon="12.782187"><ele>792.9</ele></trkpt>
<trkpt lat="47.764836" lon="12.781313"><ele>792.2</ele></trkpt>
<trkpt lat="47.763792" lon="12.779877"><ele>779.7</ele></trkpt>
<trkpt lat="47.762482" lon="12.779109"><ele>776.5</ele></trkpt>
<trkpt lat="47.762386" lon="12.779060"><ele>774.9</ele></trkpt>
<trkpt lat="47.761343" lon="12.778810"><ele>770.3</ele></trkpt>
<trkpt lat="47.760579" lon="12.778131"><ele>762.7</ele></trkpt>
<trkpt lat="47.759320" lon="12.777423"><ele>753.2</ele></trkpt>
<trkpt lat="47.758547" lon="12.777046"><ele>756.5</ele></trkpt>
<trkpt lat="47.758197" lon="12.776248"><ele>738.2</ele></trkpt>
<trkpt lat="47.756775" lon="12.775723"><ele>733.9</ele></trkpt>
<trkpt lat="47.756626" lon="12.775638"><ele>731.6</ele></trkpt>
<trkpt lat="47.756539" lon="12.775462"><ele>727.5</ele></trkpt>
<trkpt lat="47.756708" lon="12.774219"><ele>712.1</ele></trkpt>
<trkpt lat="47.756573" lon="12.773950"><ele>711.7</ele></trkpt>
<trkpt lat="47.755745" lon="12.773227"><ele>711.7</ele></trkpt>
<trkpt lat="47.755694" lon="12.772921"><ele>708.8</ele></trkpt>
<trkpt lat="47.755078" lon="12.772963"><ele>717.3</ele></trkpt>
<trkpt lat="47.753712" lon="12.772180"><ele>718.7</ele></trkpt>
<trkpt lat="47.753140" lon="12.771478"><ele>719.1</ele></trkpt>
<trkpt lat="47.752854" lon="12.770336"><ele>716.8</ele></trkpt>
<trkpt lat="47.753194" lon="12.769392"><ele>716.8</ele></trkpt>
<trkpt lat="47.753112" lon="12.768730"><ele>721.4</ele></trkpt>
<trkpt lat="47.751990" lon="12.767208"><ele>718.6</ele></trkpt>
<trkpt lat="47.751360" lon="12.766490"><ele>716.4</ele></trkpt>
<trkpt lat="47.750017" lon="12.765747"><ele>719.9</ele></trkpt>
<trkpt lat="47.748897" lon="12.765090"><ele>719.1</ele></trkpt>
<trkpt lat="47.747558" lon="12.764447"><ele>721.8</ele></trkpt>
<trkpt lat="47.746246" lon="12.763989"><ele>716.7</ele></trkpt>
<trkpt lat="47.745298" lon="12.763464"><ele>721.9</ele></trkpt>
<trkpt lat="47.744514" lon="12.762302"><ele>725.6</ele></trkpt>
<trkpt lat="47.743289" lon="12.761018"><ele>729.3</ele></trkpt>
<trkpt lat="47.742116" lon="12.759904"><ele>734.5</ele></trkpt>
<trkpt lat="47.741697" lon="12.759532"><ele>734.8</ele></trkpt>
<trkpt lat="47.740617" lon="12.758244"><ele>728.8</ele></trkpt>
<trkpt lat="47.740532" lon="12.758005"><ele>730.4</ele></trkpt>
<trkpt lat="47.740039" lon="12.758048"><ele>731.7</ele></trkpt>
<trkpt lat="47.738979" lon="12.756739"><ele>717.9</ele></trkpt>
<trkpt lat="47.738983" lon="12.757365"><ele>733.4</ele></trkpt>
<trkpt lat="47.738175" lon="12.756866"><ele>731.5</ele></trkpt>
<trkpt lat="47.737017" lon="12.757137"><ele>738.4</ele></trkpt>
<trkpt lat="47.735755" lon="12.756875"><ele>735.2</ele></trkpt>
<trkpt lat="47.734955" lon="12.757100"><ele>742.1</ele></trkpt>
<trkpt lat="47.734258" lon="12.756578"><ele>738.0</ele></trkpt>
<trkpt lat="47.733255" lon="12.756199"><ele>731.6</ele></trkpt>
<trkpt lat="47.732231" lon="12.756333"><ele>741.3</ele></trkpt>
<trkpt lat="47.731670" lon="12.756092"><ele>727.2</ele></trkpt>
<trkpt lat="47.731123" lon="12.757235"><ele>743.9</ele></trkpt>
<trkpt lat="47.730370" lon="12.758296"><ele>723.4</ele></trkpt>
<trkpt lat="47.729710" lon="12.758686"><ele>705.2</ele></trkpt>
<trkpt lat="47.730130" lon="12.757267"><ele>692.3</ele></trkpt>
<trkpt lat="47.729217" lon="12.757863"><ele>667.7</ele></trkpt>
<trkpt lat="47.728494" lon="12.758903"><ele>661.3</ele></trkpt>
<trkpt lat="47.728520" lon="12.758475"><ele>653.8</ele></trkpt>
<trkpt lat="47.728858" lon="12.757738"><ele>649.1</ele></trkpt>
<trkpt lat="47.728833" lon="12.757211"><ele>640.0</ele></trkpt>
<trkpt lat="47.728519" lon="12.757955"><ele>645.8</ele></trkpt>
<trkpt lat="47.727576" lon="12.759140"><ele>637.5</ele></trkpt>
<trkpt lat="47.726849" lon="12.760779"><ele>636.0</ele></trkpt>
<trkpt lat="47.726762" lon="12.760928"><ele>635.3</ele></trkpt>
<trkpt lat="47.725847" lon="12.762163"><ele>631.9</ele></trkpt>
<trkpt lat="47.725654" lon="12.762094"><ele>630.9</ele></trkpt>
<trkpt lat="47.725811" lon="12.760321"><ele>630.8</ele></trkpt>
<trkpt lat="47.724805" lon="12.761656"><ele>632.7</ele></trkpt>
<trkpt lat="47.724724" lon="12.761745"><ele>632.7</ele></trkpt>
<trkpt lat="47.724346" lon="12.762534"><ele>628.9</ele></trkpt>
<trkpt lat="47.724035" lon="12.762564"><ele>628.8</ele></trkpt>
<trkpt lat="47.723763" lon="12.762303"><ele>630.0</ele></trkpt>
<trkpt lat="47.722591" lon="12.763527"><ele>624.6</ele></trkpt>
<trkpt lat="47.722006" lon="12.764054"><ele>627.4</ele></trkpt>
<trkpt lat="47.721054" lon="12.765655"><ele>619.4</ele></trkpt>
<trkpt lat="47.720194" lon="12.767269"><ele>616.8</ele></trkpt>
<trkpt lat="47.720068" lon="12.767501"><ele>616.0</ele></trkpt>
<trkpt lat="47.719442" lon="12.768292"><ele>613.1</ele></trkpt>
<trkpt lat="47.719165" lon="12.769823"><ele>612.4</ele></trkpt>
<trkpt lat="47.718519" lon="12.771185"><ele>612.0</ele></trkpt>
<trkpt lat="47.717570" lon="12.772392"><ele>606.3</ele></trkpt>
<trkpt lat="47.716351" lon="12.773502"><ele>604.7</ele></trkpt>
<trkpt lat="47.716318" lon="12.773548"><ele>604.8</ele></trkpt>
<trkpt lat="47.715928" lon="12.774354"><ele>606.6</ele></trkpt>
<trkpt lat="47.716110" lon="12.774660"><ele>607.0</ele></trkpt>
<trkpt lat="47.715975" lon="12.774917"><ele>606.0</ele></trkpt>
<trkpt lat="47.714959" lon="12.775989"><ele>606.8</ele></trkpt>
<trkpt lat="47.713685" lon="12.776826"><ele>609.4</ele></trkpt>
<trkpt lat="47.713536" lon="12.776927"><ele>607.2</ele></trkpt>
<trkpt lat="47.713220" lon="12.777642"><ele>607.3</ele></trkpt>
<trkpt lat="47.713037" lon="12.779279"><ele>606.9</ele></trkpt>
<trkpt lat="47.712302" lon="12.780420"><ele>602.2</ele></trkpt>
<trkpt lat="47.711965" lon="12.781578"><ele>608.9</ele></trkpt>
<trkpt lat="47.711741" lon="12.783558"><ele>621.6</ele></trkpt>
<trkpt lat="47.711736" lon="12.783590"><ele>622.2</ele></trkpt>
<trkpt lat="47.711505" lon="12.784192"><ele>620.4</ele></trkpt>
<trkpt lat="47.711509" lon="12.784500"><ele>623.1</ele></trkpt>
<trkpt lat="47.711730" lon="12.784238"><ele>632.7</ele></trkpt>
<trkpt lat="47.711712" lon="12.785500"><ele>621.1</ele></trkpt>
<trkpt lat="47.712388" lon="12.786184"><ele>646.7</ele></trkpt>
<trkpt lat="47.712451" lon="12.786448"><ele>648.0</ele></trkpt>
<trkpt lat="47.711980" lon="12.786793"><ele>621.2</ele></trkpt>
<trkpt lat="47.711987" lon="12.787572"><ele>636.5</ele></trkpt>
<trkpt lat="47.711582" lon="12.789505"><ele>641.6</ele></trkpt>
<trkpt lat="47.711704" lon="12.791239"><ele>631.6</ele></trkpt>
<trkpt lat="47.711577" lon="12.791866"><ele>632.7</ele></trkpt>
<trkpt lat="47.710380" lon="12.792792"><ele>641.9</ele></trkpt>
<trkpt lat="47.709428" lon="12.793405"><ele>626.9</ele></trkpt>
<trkpt lat="47.708598" lon="12.795015"><ele>633.7</ele></trkpt>
<trkpt lat="47.708342" lon="12.795677"><ele>650.0</ele></trkpt>
<trkpt lat="47.707777" lon="12.796156"><ele>628.5</ele></trkpt>
<trkpt lat="47.707096" lon="12.797108"><ele>644.7</ele></trkpt>
<trkpt lat="47.706238" lon="12.798861"><ele>627.8</ele></trkpt>
<trkpt lat="47.705967" lon="12.799432"><ele>638.1</ele></trkpt>
<trkpt lat="47.705117" lon="12.800127"><ele>627.6</ele></trkpt>
<trkpt lat="47.704801" lon="12.800660"><ele>625.8</ele></trkpt>
<trkpt lat="47.704796" lon="12.802816"><ele>640.4</ele></trkpt>
<trkpt lat="47.704674" lon="12.804841"><ele>623.9</ele></trkpt>
<trkpt lat="47.704575" lon="12.806623"><ele>622.8</ele></trkpt>
<trkpt lat="47.705447" lon="12.808381"><ele>623.0</ele></trkpt>
<trkpt lat="47.705566" lon="12.808565"><ele>623.3</ele></trkpt>
<trkpt lat="47.705981" lon="12.809070"><ele>624.0</ele></trkpt>
<trkpt lat="47.706427" lon="12.809285"><ele>623.3</ele></trkpt>
<trkpt lat="47.707833" lon="12.808991"><ele>646.0</ele></trkpt>
<trkpt lat="47.708551" lon="12.808979"><ele>626.0</ele></trkpt>
<trkpt lat="47.709833" lon="12.809976"><ele>597.1</ele></trkpt>
<trkpt lat="47.710780" lon="12.810476"><ele>605.5</ele></trkpt>
<trkpt lat="47.711546" lon="12.811746"><ele>591.5</ele></trkpt>
<trkpt lat="47.712533" lon="12.812863"><ele>587.6</ele></trkpt>
<trkpt lat="47.713113" lon="12.814081"><ele>575.2</ele></trkpt>
<trkpt lat="47.714115" lon="12.815596"><ele>566.2</ele></trkpt>
<trkpt lat="47.714343" lon="12.815928"><ele>562.1</ele></trkpt>
<trkpt lat="47.715328" lon="12.817056"><ele>551.3</ele></trkpt>
<trkpt lat="47.716008" lon="12.818828"><ele>540.1</ele></trkpt>
<trkpt lat="47.716055" lon="12.818937"><ele>540.0</ele></trkpt>
<trkpt lat="47.716456" lon="12.818445"><ele>538.5</ele></trkpt>
<trkpt lat="47.716742" lon="12.818410"><ele>543.4</ele></trkpt>
<trkpt lat="47.717769" lon="12.819950"><ele>537.1</ele></trkpt>
<trkpt lat="47.718766" lon="12.820668"><ele>545.5</ele></trkpt>
<trkpt lat="47.719625" lon="12.822323"><ele>543.0</ele></trkpt>
<trkpt lat="47.720425" lon="12.823980"><ele>537.2</ele></trkpt>
<trkpt lat="47.720736" lon="12.824627"><ele>543.2</ele></trkpt>
<trkpt lat="47.720825" lon="12.825396"><ele>541.8</ele></trkpt>
<trkpt lat="47.721364" lon="12.827287"><ele>546.5</ele></trkpt>
<trkpt lat="47.721650" lon="12.828079"><ele>551.3</ele></trkpt>
<trkpt lat="47.721753" lon="12.829195"><ele>553.7</ele></trkpt>
<trkpt lat="47.722209" lon="12.830555"><ele>557.5</ele></trkpt>
<trkpt lat="47.722228" lon="12.832035"><ele>557.6</ele></trkpt>
<trkpt lat="47.721273" lon="12.831990"><ele>544.3</ele></trkpt>
<trkpt lat="47.720664" lon="12.832466"><ele>555.0</ele></trkpt>
<trkpt lat="47.719767" lon="12.831164"><ele>542.3</ele></trkpt>
<trkpt lat="47.719317" lon="12.830874"><ele>534.5</ele></trkpt>
<trkpt lat="47.718426" lon="12.831642"><ele>539.2</ele></trkpt>
<trkpt lat="47.718315" lon="12.833769"><ele>538.0</ele></trkpt>
<trkpt lat="47.718244" lon="12.835781"><ele>549.2</ele></trkpt>
<trkpt lat="47.718253" lon="12.836588"><ele>533.5</ele></trkpt>
<trkpt lat="47.717739" lon="12.838622"><ele>516.9</ele></trkpt>
<trkpt lat="47.717711" lon="12.838940"><ele>517.0</ele></trkpt>
<trkpt lat="47.717740" lon="12.840867"><ele>530.7</ele></trkpt>
<trkpt lat="47.717916" lon="12.841863"><ele>522.7</ele></trkpt>
<trkpt lat="47.718458" lon="12.843440"><ele>512.7</ele></trkpt>
<trkpt lat="47.718710" lon="12.844736"><ele>499.7</ele></trkpt>
<trkpt lat="47.719780" lon="12.845955"><ele>487.0</ele></trkpt>
<trkpt lat="47.720098" lon="12.848124"><ele>485.4</ele></trkpt>
<trkpt lat="47.720370" lon="12.849342"><ele>476.1</ele></trkpt>
<trkpt lat="47.720442" lon="12.850551"><ele>471.3</ele></trkpt>
<trkpt lat="47.720318" lon="12.850781"><ele>471.2</ele></trkpt>
<trkpt lat="47.720241" lon="12.852846"><ele>466.0</ele></trkpt>
<trkpt lat="47.720192" lon="12.854928"><ele>466.8</ele></trkpt>
<trkpt lat="47.720192" lon="12.854975"><ele>466.7</ele></trkpt>
<trkpt lat="47.720328" lon="12.857006"><ele>465.6</ele></trkpt>
<trkpt lat="47.720388" lon="12.857973"><ele>464.6</ele></trkpt>
<trkpt lat="47.720667" lon="12.859535"><ele>466.9</ele></trkpt>
<trkpt lat="47.720268" lon="12.861072"><ele>468.0</ele></trkpt>
<trkpt lat="47.719572" lon="12.861019"><ele>467.9</ele></trkpt>
<trkpt lat="47.719595" lon="12.863165"><ele>465.5</ele></trkpt>
<trkpt lat="47.719662" lon="12.864923"><ele>474.0</ele></trkpt>
<trkpt lat="47.719842" lon="12.866435"><ele>472.9</ele></trkpt>
<trkpt lat="47.719247" lon="12.867595"><ele>472.5</ele></trkpt>
<trkpt lat="47.718629" lon="12.869590"><ele>472.0</ele></trkpt>
<trkpt lat="47.718134" lon="12.870953"><ele>471.4</ele></trkpt>
<trkpt lat="47.718762" lon="12.872895"><ele>471.2</ele></trkpt>
<trkpt lat="47.718795" lon="12.872987"><ele>472.0</ele></trkpt>
<trkpt lat="47.718701" lon="12.873208"><ele>472.2</ele></trkpt>
<trkpt lat="47.718862" lon="12.873988"><ele>473.5</ele></trkpt>
<trkpt lat="47.719013" lon="12.874041"><ele>473.5</ele></trkpt>
<trkpt lat="47.719071" lon="12.874906"><ele>474.0</ele></trkpt>
<trkpt lat="47.720440" lon="12.875590"><ele>474.1</ele></trkpt>
<trkpt lat="47.720980" lon="12.875902"><ele>474.1</ele></trkpt>
<trkpt lat="47.722309" lon="12.876868"><ele>475.3</ele></trkpt>
<trkpt lat="47.722643" lon="12.877188"><ele>474.5</ele></trkpt>
<trkpt lat="47.722405" lon="12.877908"><ele>475.0</ele></trkpt>
<trkpt lat="47.723462" lon="12.879193"><ele>472.6</ele></trkpt>
<trkpt lat="47.724406" lon="12.880228"><ele>469.2</ele></trkpt>
<trkpt lat="47.724408" lon="12.880823"><ele>471.3</ele></trkpt>
<trkpt lat="47.724935" lon="12.881320"><ele>473.9</ele></trkpt>
<trkpt lat="47.724541" lon="12.882248"><ele>476.1</ele></trkpt>
<trkpt lat="47.724996" lon="12.883195"><ele>481.5</ele></trkpt>
<trkpt lat="47.725662" lon="12.883798"><ele>485.2</ele></trkpt>
<trkpt lat="47.726118" lon="12.883872"><ele>478.7</ele></trkpt>
<trkpt lat="47.726415" lon="12.884346"><ele>480.9</ele></trkpt>
<trkpt lat="47.726618" lon="12.884372"><ele>478.2</ele></trkpt>
<trkpt lat="47.726900" lon="12.883842"><ele>474.7</ele></trkpt>
</trkseg></trk></gpx>