<?xml version="1.0" encoding="UTF-8"?>
<gpx version="1.1" creator="Bad Reichenhall gravel – saját gravel-router (OSM/Overture + SRTM)" xmlns="http://www.topografix.com/GPX/1/1">
<metadata><name>Haunsberg és a Salzach</name><desc>GENERÁLT NYOMVONAL – Freilassingtól a Salzach osztrák partján, Bergheimen és Antheringen át a Haunsberg erdős gerincére kapaszkodsz (Kaiserbuche), majd Oberndorfba – a „Csendes éj” kápolnájához – ereszkedsz, és a Salzach-gáton gurulsz vissza. Könnyű-közepes, vonattal vagy autóval is jól elérhető.</desc><copyright author="OpenStreetMap contributors (via Overture Maps)"><license>https://opendatacommons.org/licenses/odbl/</license></copyright><time>2026-10-04T16:52:46Z</time></metadata>
<wpt lat="47.8366" lon="12.9771"><name>Freilassing Bahnhof</name><type>station</type></wpt>
<wpt lat="47.8526" lon="13.0029"><name>Saalachspitz</name><type>view</type></wpt>
<wpt lat="47.8396" lon="13.0207"><name>Bergheim</name><type>town</type></wpt>
<wpt lat="47.8795" lon="13.001"><name>Anthering</name><type>town</type></wpt>
<wpt lat="47.9266" lon="13.0087"><name>Kaiserbuche (Haunsberg)</name><type>view</type></wpt>
<wpt lat="47.9419" lon="12.9439"><name>Oberndorf – Stille-Nacht-kápolna</name><type>history</type></wpt>
<trk><name>Haunsberg és a Salzach</name><type>gravel</type><trkseg>
<trkpt lat="47.836444" lon="12.976874"><ele>421.6</ele></trkpt>
<trkpt lat="47.835941" lon="12.978591"><ele>419.4</ele></trkpt>
<trkpt lat="47.835804" lon="12.978848"><ele>419.0</ele></trkpt>
<trkpt lat="47.835806" lon="12.979651"><ele>418.9</ele></trkpt>
<trkpt lat="47.835158" lon="12.981316"><ele>419.2</ele></trkpt>
<trkpt lat="47.835742" lon="12.982356"><ele>416.5</ele></trkpt>
<trkpt lat="47.835090" lon="12.983557"><ele>416.1</ele></trkpt>
<trkpt lat="47.834578" lon="12.985473"><ele>413.8</ele></trkpt>
<trkpt lat="47.834477" lon="12.985731"><ele>414.6</ele></trkpt>
<trkpt lat="47.833496" lon="12.987257"><ele>418.4</ele></trkpt>
<trkpt lat="47.832949" lon="12.988142"><ele>417.0</ele></trkpt>
<trkpt lat="47.833481" lon="12.989977"><ele>416.1</ele></trkpt>
<trkpt lat="47.833524" lon="12.990182"><ele>416.6</ele></trkpt>
<trkpt lat="47.834327" lon="12.991597"><ele>415.9</ele></trkpt>
<trkpt lat="47.835184" lon="12.992339"><ele>412.6</ele></trkpt>
<trkpt lat="47.835230" lon="12.993117"><ele>412.0</ele></trkpt>
<trkpt lat="47.836011" lon="12.994228"><ele>414.4</ele></trkpt>
<trkpt lat="47.835037" lon="12.995628"><ele>411.1</ele></trkpt>
<trkpt lat="47.834122" lon="12.996923"><ele>414.0</ele></trkpt>
<trkpt lat="47.833835" lon="12.996886"><ele>414.2</ele></trkpt>
<trkpt lat="47.833676" lon="12.997638"><ele>414.8</ele></trkpt>
<trkpt lat="47.832616" lon="12.999155"><ele>415.6</ele></trkpt>
<trkpt lat="47.831845" lon="13.000242"><ele>419.9</ele></trkpt>
<trkpt lat="47.831966" lon="13.000426"><ele>419.5</ele></trkpt>
<trkpt lat="47.830910" lon="13.001780"><ele>422.0</ele></trkpt>
<trkpt lat="47.830524" lon="13.002200"><ele>421.9</ele></trkpt>
<trkpt lat="47.830407" lon="13.002602"><ele>421.2</ele></trkpt>
<trkpt lat="47.830155" lon="13.002575"><ele>421.8</ele></trkpt>
<trkpt lat="47.829590" lon="13.003413"><ele>423.2</ele></trkpt>
<trkpt lat="47.828906" lon="13.005189"><ele>425.0</ele></trkpt>
<trkpt lat="47.828649" lon="13.006044"><ele>423.4</ele></trkpt>
<trkpt lat="47.828261" lon="13.007998"><ele>419.7</ele></trkpt>
<trkpt lat="47.828352" lon="13.008375"><ele>417.6</ele></trkpt>
<trkpt lat="47.827495" lon="13.010099"><ele>418.7</ele></trkpt>
<trkpt lat="47.827008" lon="13.011076"><ele>417.1</ele></trkpt>
<trkpt lat="47.827267" lon="13.011081"><ele>416.8</ele></trkpt>
<trkpt lat="47.827918" lon="13.013115"><ele>410.9</ele></trkpt>
<trkpt lat="47.828565" lon="13.014921"><ele>410.8</ele></trkpt>
<trkpt lat="47.829099" lon="13.016392"><ele>413.0</ele></trkpt>
<trkpt lat="47.828264" lon="13.017349"><ele>413.8</ele></trkpt>
<trkpt lat="47.828020" lon="13.018270"><ele>413.4</ele></trkpt>
<trkpt lat="47.828017" lon="13.019329"><ele>414.6</ele></trkpt>
<trkpt lat="47.828575" lon="13.021233"><ele>415.0</ele></trkpt>
<trkpt lat="47.829021" lon="13.022726"><ele>413.1</ele></trkpt>
<trkpt lat="47.828832" lon="13.022930"><ele>414.0</ele></trkpt>
<trkpt lat="47.829628" lon="13.024740"><ele>412.3</ele></trkpt>
<trkpt lat="47.830303" lon="13.026537"><ele>411.9</ele></trkpt>
<trkpt lat="47.830686" lon="13.027581"><ele>409.6</ele></trkpt>
<trkpt lat="47.829415" lon="13.028581"><ele>413.1</ele></trkpt>
<trkpt lat="47.828192" lon="13.029465"><ele>410.9</ele></trkpt>
<trkpt lat="47.827906" lon="13.029642"><ele>410.0</ele></trkpt>
<trkpt lat="47.828224" lon="13.031060"><ele>412.5</ele></trkpt>
<trkpt lat="47.829554" lon="13.030062"><ele>411.4</ele></trkpt>
<trkpt lat="47.830756" lon="13.029119"><ele>411.8</ele></trkpt>
<trkpt lat="47.831938" lon="13.028126"><ele>408.5</ele></trkpt>
<trkpt lat="47.833023" lon="13.027145"><ele>409.6</ele></trkpt>
<trkpt lat="47.834150" lon="13.025990"><ele>407.4</ele></trkpt>
<trkpt lat="47.835355" lon="13.024638"><ele>410.2</ele></trkpt>
<trkpt lat="47.836527" lon="13.023324"><ele>410.4</ele></trkpt>
<trkpt lat="47.837638" lon="13.022090"><ele>408.5</ele></trkpt>
<trkpt lat="47.838217" lon="13.021451"><ele>410.8</ele></trkpt>
<trkpt lat="47.839521" lon="13.020698"><ele>412.9</ele></trkpt>
<trkpt lat="47.839630" lon="13.020615"><ele>412.5</ele></trkpt>
<trkpt lat="47.839696" lon="13.020789"><ele>412.9</ele></trkpt>
<trkpt lat="47.840187" lon="13.020566"><ele>411.7</ele></trkpt>
<trkpt lat="47.841177" lon="13.019224"><ele>412.2</ele></trkpt>
<trkpt lat="47.841229" lon="13.019174"><ele>412.4</ele></trkpt>
<trkpt lat="47.841356" lon="13.019236"><ele>412.9</ele></trkpt>
<trkpt lat="47.841768" lon="13.018757"><ele>412.7</ele></trkpt>
<trkpt lat="47.842763" lon="13.018706"><ele>412.1</ele></trkpt>
<trkpt lat="47.843041" lon="13.018134"><ele>411.0</ele></trkpt>
<trkpt lat="47.843631" lon="13.017638"><ele>410.5</ele></trkpt>
<trkpt lat="47.844220" lon="13.018687"><ele>410.3</ele></trkpt>
<trkpt lat="47.844832" lon="13.017936"><ele>411.0</ele></trkpt>
<trkpt lat="47.845615" lon="13.019437"><ele>409.0</ele></trkpt>
<trkpt lat="47.845978" lon="13.019561"><ele>409.2</ele></trkpt>
<trkpt lat="47.845940" lon="13.020317"><ele>411.5</ele></trkpt>
<trkpt lat="47.847320" lon="13.020147"><ele>409.3</ele></trkpt>
<trkpt lat="47.847502" lon="13.020146"><ele>409.0</ele></trkpt>
<trkpt lat="47.848470" lon="13.019147"><ele>410.5</ele></trkpt>
<trkpt lat="47.849445" lon="13.017729"><ele>410.8</ele></trkpt>
<trkpt lat="47.849512" lon="13.017666"><ele>410.4</ele></trkpt>
<trkpt lat="47.850953" lon="13.016957"><ele>408.8</ele></trkpt>
<trkpt lat="47.851173" lon="13.016867"><ele>409.7</ele></trkpt>
<trkpt lat="47.852025" lon="13.015289"><ele>408.3</ele></trkpt>
<trkpt lat="47.852078" lon="13.015175"><ele>408.5</ele></trkpt>
<trkpt lat="47.852733" lon="13.014864"><ele>411.2</ele></trkpt>
<trkpt lat="47.853688" lon="13.013706"><ele>415.8</ele></trkpt>
<trkpt lat="47.854374" lon="13.013561"><ele>419.1</ele></trkpt>
<trkpt lat="47.855470" lon="13.014184"><ele>418.6</ele></trkpt>
<trkpt lat="47.856894" lon="13.013506"><ele>420.1</ele></trkpt>
<trkpt lat="47.857142" lon="13.013421"><ele>419.1</ele></trkpt>
<trkpt lat="47.858472" lon="13.013086"><ele>418.8</ele></trkpt>
<trkpt lat="47.859394" lon="13.012954"><ele>418.1</ele></trkpt>
<trkpt lat="47.860770" lon="13.012332"><ele>418.1</ele></trkpt>
<trkpt lat="47.861017" lon="13.012173"><ele>418.1</ele></trkpt>
<trkpt lat="47.862455" lon="13.011795"><ele>416.5</ele></trkpt>
<trkpt lat="47.863908" lon="13.011239"><ele>414.0</ele></trkpt>
<trkpt lat="47.864702" lon="13.011082"><ele>414.0</ele></trkpt>
<trkpt lat="47.864664" lon="13.010286"><ele>414.0</ele></trkpt>
<trkpt lat="47.866053" lon="13.010070"><ele>410.2</ele></trkpt>
<trkpt lat="47.866802" lon="13.010065"><ele>409.4</ele></trkpt>
<trkpt lat="47.866889" lon="13.009651"><ele>410.0</ele></trkpt>
<trkpt lat="47.867119" lon="13.009651"><ele>410.0</ele></trkpt>
<trkpt lat="47.867306" lon="13.009288"><ele>410.0</ele></trkpt>
<trkpt lat="47.868643" lon="13.008542"><ele>408.8</ele></trkpt>
<trkpt lat="47.870082" lon="13.008510"><ele>409.6</ele></trkpt>
<trkpt lat="47.870898" lon="13.008489"><ele>408.5</ele></trkpt>
<trkpt lat="47.872346" lon="13.008187"><ele>409.5</ele></trkpt>
<trkpt lat="47.872713" lon="13.008138"><ele>409.1</ele></trkpt>
<trkpt lat="47.873189" lon="13.009646"><ele>412.0</ele></trkpt>
<trkpt lat="47.874065" lon="13.011292"><ele>412.9</ele></trkpt>
<trkpt lat="47.874254" lon="13.011434"><ele>413.5</ele></trkpt>
<trkpt lat="47.875608" lon="13.010697"><ele>412.1</ele></trkpt>
<trkpt lat="47.876815" lon="13.010011"><ele>415.0</ele></trkpt>
<trkpt lat="47.877441" lon="13.010372"><ele>415.7</ele></trkpt>
<trkpt lat="47.878393" lon="13.010397"><ele>417.8</ele></trkpt>
<trkpt lat="47.879688" lon="13.011267"><ele>424.8</ele></trkpt>
<trkpt lat="47.879746" lon="13.011326"><ele>425.0</ele></trkpt>
<trkpt lat="47.880869" lon="13.010327"><ele>418.0</ele></trkpt>
<trkpt lat="47.881314" lon="13.010093"><ele>417.6</ele></trkpt>
<trkpt lat="47.882145" lon="13.008528"><ele>413.4</ele></trkpt>
<trkpt lat="47.883007" lon="13.007174"><ele>412.1</ele></trkpt>
<trkpt lat="47.884061" lon="13.005838"><ele>412.6</ele></trkpt>
<trkpt lat="47.884416" lon="13.005317"><ele>414.9</ele></trkpt>
<trkpt lat="47.885421" lon="13.006846"><ele>414.0</ele></trkpt>
<trkpt lat="47.885527" lon="13.007006"><ele>415.1</ele></trkpt>
<trkpt lat="47.886419" lon="13.006005"><ele>414.0</ele></trkpt>
<trkpt lat="47.887834" lon="13.005991"><ele>415.8</ele></trkpt>
<trkpt lat="47.888065" lon="13.005994"><ele>416.6</ele></trkpt>
<trkpt lat="47.889107" lon="13.005602"><ele>423.4</ele></trkpt>
<trkpt lat="47.889947" lon="13.005731"><ele>428.7</ele></trkpt>
<trkpt lat="47.891312" lon="13.005519"><ele>444.6</ele></trkpt>
<trkpt lat="47.891466" lon="13.005508"><ele>444.3</ele></trkpt>
<trkpt lat="47.892340" lon="13.005944"><ele>441.2</ele></trkpt>
<trkpt lat="47.893012" lon="13.006702"><ele>440.6</ele></trkpt>
<trkpt lat="47.893500" lon="13.006705"><ele>436.9</ele></trkpt>
<trkpt lat="47.893719" lon="13.006449"><ele>436.5</ele></trkpt>
<trkpt lat="47.893521" lon="13.005532"><ele>440.6</ele></trkpt>
<trkpt lat="47.893720" lon="13.004899"><ele>432.2</ele></trkpt>
<trkpt lat="47.894569" lon="13.005925"><ele>435.6</ele></trkpt>
<trkpt lat="47.895870" lon="13.006839"><ele>442.4</ele></trkpt>
<trkpt lat="47.896106" lon="13.007005"><ele>444.9</ele></trkpt>
<trkpt lat="47.896281" lon="13.006931"><ele>446.9</ele></trkpt>
<trkpt lat="47.896858" lon="13.005800"><ele>454.8</ele></trkpt>
<trkpt lat="47.897552" lon="13.007210"><ele>471.2</ele></trkpt>
<trkpt lat="47.898145" lon="13.007824"><ele>481.2</ele></trkpt>
<trkpt lat="47.898695" lon="13.008261"><ele>491.0</ele></trkpt>
<trkpt lat="47.900134" lon="13.008085"><ele>510.2</ele></trkpt>
<trkpt lat="47.900154" lon="13.008090"><ele>510.2</ele></trkpt>
<trkpt lat="47.900581" lon="13.009229"><ele>516.3</ele></trkpt>
<trkpt lat="47.901870" lon="13.010099"><ele>528.5</ele></trkpt>
<trkpt lat="47.902200" lon="13.010003"><ele>533.6</ele></trkpt>
<trkpt lat="47.902928" lon="13.008993"><ele>538.1</ele></trkpt>
<trkpt lat="47.904230" lon="13.009281"><ele>547.1</ele></trkpt>
<trkpt lat="47.905347" lon="13.010654"><ele>553.4</ele></trkpt>
<trkpt lat="47.906221" lon="13.011605"><ele>562.5</ele></trkpt>
<trkpt lat="47.906674" lon="13.013306"><ele>571.0</ele></trkpt>
<trkpt lat="47.907023" lon="13.013868"><ele>574.2</ele></trkpt>
<trkpt lat="47.907271" lon="13.013765"><ele>574.9</ele></trkpt>
<trkpt lat="47.908115" lon="13.012093"><ele>584.6</ele></trkpt>
<trkpt lat="47.908233" lon="13.011932"><ele>586.7</ele></trkpt>
<trkpt lat="47.909079" lon="13.011169"><ele>600.5</ele></trkpt>
<trkpt lat="47.909392" lon="13.011158"><ele>605.7</ele></trkpt>
<trkpt lat="47.910004" lon="13.011614"><ele>615.3</ele></trkpt>
<trkpt lat="47.910354" lon="13.011541"><ele>620.3</ele></trkpt>
<trkpt lat="47.910447" lon="13.010715"><ele>625.1</ele></trkpt>
<trkpt lat="47.909888" lon="13.009068"><ele>627.6</ele></trkpt>
<trkpt lat="47.910099" lon="13.008820"><ele>630.5</ele></trkpt>
<trkpt lat="47.910797" lon="13.008945"><ele>640.0</ele></trkpt>
<trkpt lat="47.911618" lon="13.009653"><ele>647.3</ele></trkpt>
<trkpt lat="47.911978" lon="13.010293"><ele>653.5</ele></trkpt>
<trkpt lat="47.912551" lon="13.010700"><ele>658.1</ele></trkpt>
<trkpt lat="47.913480" lon="13.012317"><ele>660.7</ele></trkpt>
<trkpt lat="47.913582" lon="13.012419"><ele>661.0</ele></trkpt>
<trkpt lat="47.914769" lon="13.012545"><ele>666.7</ele></trkpt>
<trkpt lat="47.916004" lon="13.013110"><ele>676.6</ele></trkpt>
<trkpt lat="47.917311" lon="13.014001"><ele>686.4</ele></trkpt>
<trkpt lat="47.918469" lon="13.014903"><ele>688.5</ele></trkpt>
<trkpt lat="47.919611" lon="13.016210"><ele>676.6</ele></trkpt>
<trkpt lat="47.920415" lon="13.017108"><ele>687.2</ele></trkpt>
<trkpt lat="47.921294" lon="13.017527"><ele>689.6</ele></trkpt>
<trkpt lat="47.922242" lon="13.017568"><ele>689.1</ele></trkpt>
<trkpt lat="47.922629" lon="13.016874"><ele>689.7</ele></trkpt>
<trkpt lat="47.923043" lon="13.016587"><ele>689.3</ele></trkpt>
<trkpt lat="47.923315" lon="13.016744"><ele>690.9</ele></trkpt>
<trkpt lat="47.923595" lon="13.017348"><ele>693.8</ele></trkpt>
<trkpt lat="47.924048" lon="13.017289"><ele>696.8</ele></trkpt>
<trkpt lat="47.925328" lon="13.016480"><ele>700.7</ele></trkpt>
<trkpt lat="47.925339" lon="13.016471"><ele>700.7</ele></trkpt>
<trkpt lat="47.925661" lon="13.015762"><ele>701.4</ele></trkpt>
<trkpt lat="47.926128" lon="13.015794"><ele>695.4</ele></trkpt>
<trkpt lat="47.926738" lon="13.015133"><ele>695.7</ele></trkpt>
<trkpt lat="47.927305" lon="13.014845"><ele>696.0</ele></trkpt>
<trkpt lat="47.928699" lon="13.015052"><ele>695.8</ele></trkpt>
<trkpt lat="47.930079" lon="13.015147"><ele>706.5</ele></trkpt>
<trkpt lat="47.931074" lon="13.015195"><ele>710.9</ele></trkpt>
<trkpt lat="47.932389" lon="13.015848"><ele>710.4</ele></trkpt>
<trkpt lat="47.932680" lon="13.015903"><ele>710.2</ele></trkpt>
<trkpt lat="47.934039" lon="13.015674"><ele>717.6</ele></trkpt>
<trkpt lat="47.935351" lon="13.016156"><ele>721.4</ele></trkpt>
<trkpt lat="47.936782" lon="13.015844"><ele>726.9</ele></trkpt>
<trkpt lat="47.936814" lon="13.015836"><ele>727.0</ele></trkpt>
<trkpt lat="47.936858" lon="13.014487"><ele>725.4</ele></trkpt>
<trkpt lat="47.936099" lon="13.013768"><ele>720.2</ele></trkpt>
<trkpt lat="47.935466" lon="13.011903"><ele>711.1</ele></trkpt>
<trkpt lat="47.935319" lon="13.011383"><ele>704.9</ele></trkpt>
<trkpt lat="47.934226" lon="13.010107"><ele>694.7</ele></trkpt>
<trkpt lat="47.933466" lon="13.009236"><ele>692.1</ele></trkpt>
<trkpt lat="47.933710" lon="13.008900"><ele>687.4</ele></trkpt>
<trkpt lat="47.933730" lon="13.008481"><ele>683.4</ele></trkpt>
<trkpt lat="47.933089" lon="13.006510"><ele>673.0</ele></trkpt>
<trkpt lat="47.932956" lon="13.006042"><ele>670.0</ele></trkpt>
<trkpt lat="47.932097" lon="13.004345"><ele>663.3</ele></trkpt>
<trkpt lat="47.931154" lon="13.002865"><ele>661.2</ele></trkpt>
<trkpt lat="47.930798" lon="13.002230"><ele>656.2</ele></trkpt>
<trkpt lat="47.930410" lon="13.000227"><ele>644.3</ele></trkpt>
<trkpt lat="47.930366" lon="12.999787"><ele>639.3</ele></trkpt>
<trkpt lat="47.930665" lon="12.998581"><ele>628.9</ele></trkpt>
<trkpt lat="47.929801" lon="12.998136"><ele>621.1</ele></trkpt>
<trkpt lat="47.929443" lon="12.995966"><ele>610.0</ele></trkpt>
<trkpt lat="47.929288" lon="12.995331"><ele>604.9</ele></trkpt>
<trkpt lat="47.928543" lon="12.993463"><ele>590.5</ele></trkpt>
<trkpt lat="47.928001" lon="12.991999"><ele>579.3</ele></trkpt>
<trkpt lat="47.927736" lon="12.991758"><ele>580.1</ele></trkpt>
<trkpt lat="47.927101" lon="12.992402"><ele>580.7</ele></trkpt>
<trkpt lat="47.926698" lon="12.992232"><ele>575.3</ele></trkpt>
<trkpt lat="47.926521" lon="12.991798"><ele>576.8</ele></trkpt>
<trkpt lat="47.926251" lon="12.989744"><ele>571.7</ele></trkpt>
<trkpt lat="47.925853" lon="12.989295"><ele>567.0</ele></trkpt>
<trkpt lat="47.925654" lon="12.987449"><ele>540.1</ele></trkpt>
<trkpt lat="47.925777" lon="12.985997"><ele>532.7</ele></trkpt>
<trkpt lat="47.925696" lon="12.985436"><ele>522.7</ele></trkpt>
<trkpt lat="47.925817" lon="12.985176"><ele>518.5</ele></trkpt>
<trkpt lat="47.927109" lon="12.984551"><ele>504.6</ele></trkpt>
<trkpt lat="47.927381" lon="12.984475"><ele>491.1</ele></trkpt>
<trkpt lat="47.928779" lon="12.984576"><ele>461.7</ele></trkpt>
<trkpt lat="47.928967" lon="12.984560"><ele>460.2</ele></trkpt>
<trkpt lat="47.930023" lon="12.985686"><ele>450.3</ele></trkpt>
<trkpt lat="47.931248" lon="12.984956"><ele>435.4</ele></trkpt>
<trkpt lat="47.930152" lon="12.983448"><ele>433.1</ele></trkpt>
<trkpt lat="47.929521" lon="12.982782"><ele>435.9</ele></trkpt>
<trkpt lat="47.928178" lon="12.981757"><ele>444.4</ele></trkpt>
<trkpt lat="47.927928" lon="12.981548"><ele>443.4</ele></trkpt>
<trkpt lat="47.927500" lon="12.980645"><ele>442.6</ele></trkpt>
<trkpt lat="47.926796" lon="12.978661"><ele>438.0</ele></trkpt>
<trkpt lat="47.926150" lon="12.976842"><ele>427.6</ele></trkpt>
<trkpt lat="47.925514" lon="12.975005"><ele>423.7</ele></trkpt>
<trkpt lat="47.925101" lon="12.973792"><ele>419.1</ele></trkpt>
<trkpt lat="47.925006" lon="12.972649"><ele>414.7</ele></trkpt>
<trkpt lat="47.925296" lon="12.970739"><ele>406.1</ele></trkpt>
<trkpt lat="47.925095" lon="12.969506"><ele>400.0</ele></trkpt>
<trkpt lat="47.925188" lon="12.969269"><ele>398.1</ele></trkpt>
<trkpt lat="47.926010" lon="12.968876"><ele>397.6</ele></trkpt>
<trkpt lat="47.927340" lon="12.968833"><ele>396.0</ele></trkpt>
<trkpt lat="47.928048" lon="12.968752"><ele>397.0</ele></trkpt>
<trkpt lat="47.928969" lon="12.968262"><ele>400.6</ele></trkpt>
<trkpt lat="47.930213" lon="12.967134"><ele>399.0</ele></trkpt>
<trkpt lat="47.930521" lon="12.966769"><ele>399.6</ele></trkpt>
<trkpt lat="47.931490" lon="12.965352"><ele>402.6</ele></trkpt>
<trkpt lat="47.932445" lon="12.963863"><ele>400.5</ele></trkpt>
<trkpt lat="47.932772" lon="12.962940"><ele>398.6</ele></trkpt>
<trkpt lat="47.932865" lon="12.962112"><ele>397.6</ele></trkpt>
<trkpt lat="47.932813" lon="12.961449"><ele>396.4</ele></trkpt>
<trkpt lat="47.932376" lon="12.960396"><ele>393.3</ele></trkpt>
<trkpt lat="47.932741" lon="12.959713"><ele>392.9</ele></trkpt>
<trkpt lat="47.932637" lon="12.958320"><ele>391.5</ele></trkpt>
<trkpt lat="47.932816" lon="12.956135"><ele>396.9</ele></trkpt>
<trkpt lat="47.933017" lon="12.954363"><ele>396.0</ele></trkpt>
<trkpt lat="47.932748" lon="12.953510"><ele>394.8</ele></trkpt>
<trkpt lat="47.932777" lon="12.953122"><ele>395.0</ele></trkpt>
<trkpt lat="47.932872" lon="12.952488"><ele>395.3</ele></trkpt>
<trkpt lat="47.933233" lon="12.952434"><ele>397.9</ele></trkpt>
<trkpt lat="47.933347" lon="12.951081"><ele>405.3</ele></trkpt>
<trkpt lat="47.933179" lon="12.948941"><ele>407.4</ele></trkpt>
<trkpt lat="47.933075" lon="12.948091"><ele>407.1</ele></trkpt>
<trkpt lat="47.933164" lon="12.947540"><ele>405.1</ele></trkpt>
<trkpt lat="47.934230" lon="12.946190"><ele>402.6</ele></trkpt>
<trkpt lat="47.935600" lon="12.945403"><ele>402.2</ele></trkpt>
<trkpt lat="47.936596" lon="12.944856"><ele>402.7</ele></trkpt>
<trkpt lat="47.937804" lon="12.943651"><ele>401.1</ele></trkpt>
<trkpt lat="47.938709" lon="12.942788"><ele>401.4</ele></trkpt>
<trkpt lat="47.939675" lon="12.942632"><ele>403.6</ele></trkpt>
<trkpt lat="47.939684" lon="12.940536"><ele>401.9</ele></trkpt>
<trkpt lat="47.939700" lon="12.938310"><ele>394.6</ele></trkpt>
<trkpt lat="47.939695" lon="12.936577"><ele>410.5</ele></trkpt>
<trkpt lat="47.939854" lon="12.936197"><ele>410.4</ele></trkpt>
<trkpt lat="47.939753" lon="12.935111"><ele>406.8</ele></trkpt>
<trkpt lat="47.939158" lon="12.933179"><ele>403.0</ele></trkpt>
<trkpt lat="47.939146" lon="12.933134"><ele>403.1</ele></trkpt>
<trkpt lat="47.937891" lon="12.934336"><ele>405.0</ele></trkpt>
<trkpt lat="47.937781" lon="12.934142"><ele>405.0</ele></trkpt>
<trkpt lat="47.937561" lon="12.934427"><ele>405.8</ele></trkpt>
<trkpt lat="47.936791" lon="12.933848"><ele>409.3</ele></trkpt>
<trkpt lat="47.935360" lon="12.934022"><ele>422.0</ele></trkpt>
<trkpt lat="47.933876" lon="12.933989"><ele>422.4</ele></trkpt>
<trkpt lat="47.933733" lon="12.933987"><ele>423.3</ele></trkpt>
<trkpt lat="47.933637" lon="12.933481"><ele>422.9</ele></trkpt>
<trkpt lat="47.932516" lon="12.933477"><ele>423.1</ele></trkpt>
<trkpt lat="47.932621" lon="12.932684"><ele>423.8</ele></trkpt>
<trkpt lat="47.931703" lon="12.931956"><ele>425.0</ele></trkpt>
<trkpt lat="47.930811" lon="12.931766"><ele>426.8</ele></trkpt>
<trkpt lat="47.929677" lon="12.931933"><ele>428.9</ele></trkpt>
<trkpt lat="47.929202" lon="12.930015"><ele>427.1</ele></trkpt>
<trkpt lat="47.929172" lon="12.929927"><ele>427.3</ele></trkpt>
<trkpt lat="47.929222" lon="12.928769"><ele>428.1</ele></trkpt>
<trkpt lat="47.929051" lon="12.928762"><ele>429.1</ele></trkpt>
<trkpt lat="47.928859" lon="12.928111"><ele>431.3</ele></trkpt>
<trkpt lat="47.929001" lon="12.928019"><ele>430.7</ele></trkpt>
<trkpt lat="47.928751" lon="12.927092"><ele>435.2</ele></trkpt>
<trkpt lat="47.929473" lon="12.926694"><ele>434.0</ele></trkpt>
<trkpt lat="47.929132" lon="12.926186"><ele>433.2</ele></trkpt>
<trkpt lat="47.928698" lon="12.925871"><ele>435.2</ele></trkpt>
<trkpt lat="47.927729" lon="12.925772"><ele>440.6</ele></trkpt>
<trkpt lat="47.926494" lon="12.924917"><ele>434.8</ele></trkpt>
<trkpt lat="47.925307" lon="12.923835"><ele>436.8</ele></trkpt>
<trkpt lat="47.924491" lon="12.923158"><ele>436.9</ele></trkpt>
<trkpt lat="47.923130" lon="12.922451"><ele>441.2</ele></trkpt>
<trkpt lat="47.921939" lon="12.921836"><ele>449.8</ele></trkpt>
<trkpt lat="47.920746" lon="12.920684"><ele>452.3</ele></trkpt>
<trkpt lat="47.919588" lon="12.919460"><ele>457.0</ele></trkpt>
<trkpt lat="47.919470" lon="12.919361"><ele>457.5</ele></trkpt>
<trkpt lat="47.918443" lon="12.920020"><ele>460.5</ele></trkpt>
<trkpt lat="47.918071" lon="12.920028"><ele>460.9</ele></trkpt>
<trkpt lat="47.918162" lon="12.919443"><ele>462.0</ele></trkpt>
<trkpt lat="47.917297" lon="12.919389"><ele>463.8</ele></trkpt>
<trkpt lat="47.916813" lon="12.918117"><ele>451.4</ele></trkpt>
<trkpt lat="47.915619" lon="12.916971"><ele>445.2</ele></trkpt>
<trkpt lat="47.914527" lon="12.915729"><ele>439.3</ele></trkpt>
<trkpt lat="47.913547" lon="12.914753"><ele>441.3</ele></trkpt>
<trkpt lat="47.912425" lon="12.914423"><ele>439.4</ele></trkpt>
<trkpt lat="47.911013" lon="12.914668"><ele>432.7</ele></trkpt>
<trkpt lat="47.910787" lon="12.914695"><ele>432.8</ele></trkpt>
<trkpt lat="47.909751" lon="12.914590"><ele>433.5</ele></trkpt>
<trkpt lat="47.908323" lon="12.913915"><ele>427.4</ele></trkpt>
<trkpt lat="47.906940" lon="12.913066"><ele>435.0</ele></trkpt>
<trkpt lat="47.905959" lon="12.912698"><ele>430.9</ele></trkpt>
<trkpt lat="47.904586" lon="12.912535"><ele>433.7</ele></trkpt>
<trkpt lat="47.904431" lon="12.912527"><ele>434.1</ele></trkpt>
<trkpt lat="47.902989" lon="12.912797"><ele>435.5</ele></trkpt>
<trkpt lat="47.901630" lon="12.913470"><ele>436.8</ele></trkpt>
<trkpt lat="47.900469" lon="12.914489"><ele>440.2</ele></trkpt>
<trkpt lat="47.900349" lon="12.914607"><ele>441.0</ele></trkpt>
<trkpt lat="47.899273" lon="12.916001"><ele>449.0</ele></trkpt>
<trkpt lat="47.898328" lon="12.917413"><ele>450.7</ele></trkpt>
<trkpt lat="47.897804" lon="12.918139"><ele>449.1</ele></trkpt>
<trkpt lat="47.896560" lon="12.919434"><ele>454.0</ele></trkpt>
<trkpt lat="47.896335" lon="12.919645"><ele>453.3</ele></trkpt>
<trkpt lat="47.895077" lon="12.920483"><ele>454.1</ele></trkpt>
<trkpt lat="47.893742" lon="12.921278"><ele>457.5</ele></trkpt>
<trkpt lat="47.892423" lon="12.922238"><ele>461.3</ele></trkpt>
<trkpt lat="47.891770" lon="12.922661"><ele>463.4</ele></trkpt>
<trkpt lat="47.890883" lon="12.922909"><ele>465.1</ele></trkpt>
<trkpt lat="47.889694" lon="12.922724"><ele>466.9</ele></trkpt>
<trkpt lat="47.888590" lon="12.922261"><ele>458.1</ele></trkpt>
<trkpt lat="47.887472" lon="12.922333"><ele>453.1</ele></trkpt>
<trkpt lat="47.886741" lon="12.922726"><ele>454.1</ele></trkpt>
<trkpt lat="47.885571" lon="12.923878"><ele>455.9</ele></trkpt>
<trkpt lat="47.885294" lon="12.924157"><ele>457.9</ele></trkpt>
<trkpt lat="47.884148" lon="12.924877"><ele>460.5</ele></trkpt>
<trkpt lat="47.882801" lon="12.925259"><ele>456.4</ele></trkpt>
<trkpt lat="47.882198" lon="12.925464"><ele>456.7</ele></trkpt>
<trkpt lat="47.880797" lon="12.926147"><ele>453.0</ele></trkpt>
<trkpt lat="47.879543" lon="12.926626"><ele>443.1</ele></trkpt>
<trkpt lat="47.878173" lon="12.926924"><ele>446.8</ele></trkpt>
<trkpt lat="47.876740" lon="12.927108"><ele>452.5</ele></trkpt>
<trkpt lat="47.875305" lon="12.927271"><ele>450.7</ele></trkpt>
<trkpt lat="47.875236" lon="12.927279"><ele>450.4</ele></trkpt>
<trkpt lat="47.873795" lon="12.927604"><ele>447.9</ele></trkpt>
<trkpt lat="47.872909" lon="12.927870"><ele>446.1</ele></trkpt>
<trkpt lat="47.871690" lon="12.928431"><ele>440.1</ele></trkpt>
<trkpt lat="47.870500" lon="12.929527"><ele>440.0</ele></trkpt>
<trkpt lat="47.870260" lon="12.929249"><ele>440.1</ele></trkpt>
<trkpt lat="47.868911" lon="12.929828"><ele>443.3</ele></trkpt>
<trkpt lat="47.868266" lon="12.930252"><ele>441.0</ele></trkpt>
<trkpt lat="47.866859" lon="12.930485"><ele>443.4</ele></trkpt>
<trkpt lat="47.866176" lon="12.930648"><ele>443.7</ele></trkpt>
<trkpt lat="47.864894" lon="12.931554"><ele>439.0</ele></trkpt>
<trkpt lat="47.864584" lon="12.931741"><ele>438.7</ele></trkpt>
<trkpt lat="47.864452" lon="12.932237"><ele>436.9</ele></trkpt>
<trkpt lat="47.863795" lon="12.932548"><ele>435.8</ele></trkpt>
<trkpt lat="47.863841" lon="12.932796"><ele>434.9</ele></trkpt>
<trkpt lat="47.862521" lon="12.933839"><ele>436.2</ele></trkpt>
<trkpt lat="47.861364" lon="12.934921"><ele>437.3</ele></trkpt>
<trkpt lat="47.860725" lon="12.935406"><ele>442.1</ele></trkpt>
<trkpt lat="47.859355" lon="12.936032"><ele>447.2</ele></trkpt>
<trkpt lat="47.859060" lon="12.936119"><ele>449.0</ele></trkpt>
<trkpt lat="47.857698" lon="12.936227"><ele>447.6</ele></trkpt>
<trkpt lat="47.857640" lon="12.936229"><ele>447.5</ele></trkpt>
<trkpt lat="47.856675" lon="12.936039"><ele>436.0</ele></trkpt>
<trkpt lat="47.855424" lon="12.936992"><ele>434.4</ele></trkpt>
<trkpt lat="47.854110" lon="12.938064"><ele>431.0</ele></trkpt>
<trkpt lat="47.853035" lon="12.938858"><ele>445.1</ele></trkpt>
<trkpt lat="47.851929" lon="12.940141"><ele>445.3</ele></trkpt>
<trkpt lat="47.850885" lon="12.941435"><ele>439.2</ele></trkpt>
<trkpt lat="47.849806" lon="12.942910"><ele>439.8</ele></trkpt>
<trkpt lat="47.849143" lon="12.943734"><ele>433.4</ele></trkpt>
<trkpt lat="47.848620" lon="12.944172"><ele>432.0</ele></trkpt>
<trkpt lat="47.847283" lon="12.944637"><ele>425.9</ele></trkpt>
<trkpt lat="47.846706" lon="12.945218"><ele>423.9</ele></trkpt>
<trkpt lat="47.845953" lon="12.947010"><ele>424.2</ele></trkpt>
<trkpt lat="47.845735" lon="12.947509"><ele>423.6</ele></trkpt>
<trkpt lat="47.844670" lon="12.949042"><ele>422.2</ele></trkpt>
<trkpt lat="47.843835" lon="12.950291"><ele>421.4</ele></trkpt>
<trkpt lat="47.843705" lon="12.952308"><ele>423.8</ele></trkpt>
<trkpt lat="47.843679" lon="12.953373"><ele>423.8</ele></trkpt>
<trkpt lat="47.843553" lon="12.953372"><ele>424.2</ele></trkpt>
<trkpt lat="47.843413" lon="12.955453"><ele>422.7</ele></trkpt>
<trkpt lat="47.843407" lon="12.955508"><ele>422.7</ele></trkpt>
<trkpt lat="47.843633" lon="12.957469"><ele>425.0</ele></trkpt>
<trkpt lat="47.843887" lon="12.958563"><ele>422.0</ele></trkpt>
<trkpt lat="47.843984" lon="12.960051"><ele>423.0</ele></trkpt>
<trkpt lat="47.843755" lon="12.962159"><ele>423.8</ele></trkpt>
<trkpt lat="47.843728" lon="12.962981"><ele>422.7</ele></trkpt>
<trkpt lat="47.843367" lon="12.965007"><ele>424.0</ele></trkpt>
<trkpt lat="47.843269" lon="12.965888"><ele>422.8</ele></trkpt>
<trkpt lat="47.843261" lon="12.968134"><ele>425.5</ele></trkpt>
<trkpt lat="47.843242" lon="12.969475"><ele>423.0</ele></trkpt>
<trkpt lat="47.842929" lon="12.971567"><ele>421.5</ele></trkpt>
<trkpt lat="47.842794" lon="12.972475"><ele>423.9</ele></trkpt>
<trkpt lat="47.842312" lon="12.972335"><ele>424.1</ele></trkpt>
<trkpt lat="47.841442" lon="12.973057"><ele>420.2</ele></trkpt>
<trkpt lat="47.841146" lon="12.975131"><ele>421.4</ele></trkpt>
<trkpt lat="47.840888" lon="12.977232"><ele>421.2</ele></trkpt>
<trkpt lat="47.840813" lon="12.977883"><ele>420.9</ele></trkpt>
<trkpt lat="47.839426" lon="12.977436"><ele>422.8</ele></trkpt>
<trkpt lat="47.838468" lon="12.977061"><ele>421.2</ele></trkpt>
<trkpt lat="47.838289" lon="12.978282"><ele>421.8</ele></trkpt>
<trkpt lat="47.837418" lon="12.979355"><ele>420.4</ele></trkpt>
<trkpt lat="47.837547" lon="12.978893"><ele>419.0</ele></trkpt>
<trkpt lat="47.836192" lon="12.978183"><ele>420.3</ele></trkpt>
<trkpt lat="47.836116" lon="12.978139"><ele>420.0</ele></trkpt>
<trkpt lat="47.836309" lon="12.976986"><ele>422.0</ele></trkpt>
<trkpt lat="47.836444" lon="12.976874"><ele>421.6</ele></trkpt>
</trkseg></trk></gpx>