<?xml version="1.0" encoding="UTF-8"?>
<gpx version="1.1" creator="Bad Reichenhall gravel – saját gravel-router (OSM/Overture + SRTM)" xmlns="http://www.topografix.com/GPX/1/1">
<metadata><name>Wiestal–Strubklamm–Hintersee (Flachgau)</name><desc>GENERÁLT NYOMVONAL – Halleinből a Wiestal víztározója és a Strubklamm sziklaszurdoka mentén kapaszkodsz fel Faistenauba, majd a Flachgau kevéssé ismert, gyönyörű Hintersee-jéhez. Visszafelé Gaißau felé, az Osterhorn-csoport erdei útjain és a Spumberg alatt gurulsz le Halleinbe.</desc><copyright author="OpenStreetMap contributors (via Overture Maps)"><license>https://opendatacommons.org/licenses/odbl/</license></copyright><time>2026-10-03T20:34:43Z</time></metadata>
<wpt lat="47.6849" lon="13.0992"><name>Hallein Bahnhof</name><type>station</type></wpt>
<wpt lat="47.7177" lon="13.1352"><name>Wiestal</name><type>lake</type></wpt>
<wpt lat="47.7496" lon="13.1709"><name>Wiestalstausee</name><type>lake</type></wpt>
<wpt lat="47.7822" lon="13.1793"><name>Strubklamm</name><type>gorge</type></wpt>
<wpt lat="47.775" lon="13.228"><name>Faistenau</name><type>town</type></wpt>
<wpt lat="47.7488" lon="13.2476"><name>Hintersee</name><type>lake</type></wpt>
<wpt lat="47.7032" lon="13.2163"><name>Gaißau</name><type>town</type></wpt>
<trk><name>Wiestal–Strubklamm–Hintersee (Flachgau)</name><type>gravel</type><trkseg>
<trkpt lat="47.684897" lon="13.099196"><ele>443.8</ele></trkpt>
<trkpt lat="47.685210" lon="13.099795"><ele>444.3</ele></trkpt>
<trkpt lat="47.684807" lon="13.100380"><ele>444.0</ele></trkpt>
<trkpt lat="47.684725" lon="13.101253"><ele>446.0</ele></trkpt>
<trkpt lat="47.685834" lon="13.102389"><ele>446.2</ele></trkpt>
<trkpt lat="47.686967" lon="13.103538"><ele>447.2</ele></trkpt>
<trkpt lat="47.687362" lon="13.104032"><ele>447.8</ele></trkpt>
<trkpt lat="47.688089" lon="13.105441"><ele>447.9</ele></trkpt>
<trkpt lat="47.689110" lon="13.106836"><ele>448.1</ele></trkpt>
<trkpt lat="47.689117" lon="13.106845"><ele>448.1</ele></trkpt>
<trkpt lat="47.690444" lon="13.107740"><ele>451.3</ele></trkpt>
<trkpt lat="47.690504" lon="13.107791"><ele>451.2</ele></trkpt>
<trkpt lat="47.691477" lon="13.109190"><ele>454.4</ele></trkpt>
<trkpt lat="47.691746" lon="13.109523"><ele>457.7</ele></trkpt>
<trkpt lat="47.693048" lon="13.110129"><ele>464.4</ele></trkpt>
<trkpt lat="47.693141" lon="13.110167"><ele>464.2</ele></trkpt>
<trkpt lat="47.694266" lon="13.111337"><ele>462.6</ele></trkpt>
<trkpt lat="47.694621" lon="13.111571"><ele>463.6</ele></trkpt>
<trkpt lat="47.696047" lon="13.111452"><ele>460.0</ele></trkpt>
<trkpt lat="47.696483" lon="13.111335"><ele>463.3</ele></trkpt>
<trkpt lat="47.697793" lon="13.110554"><ele>457.2</ele></trkpt>
<trkpt lat="47.698085" lon="13.110445"><ele>458.4</ele></trkpt>
<trkpt lat="47.699297" lon="13.111034"><ele>459.2</ele></trkpt>
<trkpt lat="47.700365" lon="13.111696"><ele>471.2</ele></trkpt>
<trkpt lat="47.700762" lon="13.112497"><ele>476.2</ele></trkpt>
<trkpt lat="47.700871" lon="13.113670"><ele>470.5</ele></trkpt>
<trkpt lat="47.700647" lon="13.114574"><ele>474.8</ele></trkpt>
<trkpt lat="47.699892" lon="13.115754"><ele>468.6</ele></trkpt>
<trkpt lat="47.700272" lon="13.115659"><ele>467.3</ele></trkpt>
<trkpt lat="47.700160" lon="13.117172"><ele>467.5</ele></trkpt>
<trkpt lat="47.700504" lon="13.118162"><ele>467.2</ele></trkpt>
<trkpt lat="47.701338" lon="13.118034"><ele>464.6</ele></trkpt>
<trkpt lat="47.702603" lon="13.118698"><ele>466.8</ele></trkpt>
<trkpt lat="47.702835" lon="13.118918"><ele>465.2</ele></trkpt>
<trkpt lat="47.703822" lon="13.118666"><ele>467.2</ele></trkpt>
<trkpt lat="47.705152" lon="13.119433"><ele>466.9</ele></trkpt>
<trkpt lat="47.706019" lon="13.119680"><ele>464.2</ele></trkpt>
<trkpt lat="47.706991" lon="13.120408"><ele>462.0</ele></trkpt>
<trkpt lat="47.707113" lon="13.121537"><ele>461.4</ele></trkpt>
<trkpt lat="47.706819" lon="13.123628"><ele>464.5</ele></trkpt>
<trkpt lat="47.706695" lon="13.124194"><ele>464.9</ele></trkpt>
<trkpt lat="47.706875" lon="13.125474"><ele>471.0</ele></trkpt>
<trkpt lat="47.706752" lon="13.127533"><ele>480.2</ele></trkpt>
<trkpt lat="47.706760" lon="13.128362"><ele>484.3</ele></trkpt>
<trkpt lat="47.707261" lon="13.130106"><ele>470.3</ele></trkpt>
<trkpt lat="47.707970" lon="13.131247"><ele>469.6</ele></trkpt>
<trkpt lat="47.708842" lon="13.129723"><ele>468.7</ele></trkpt>
<trkpt lat="47.709696" lon="13.128558"><ele>477.5</ele></trkpt>
<trkpt lat="47.710131" lon="13.128942"><ele>480.3</ele></trkpt>
<trkpt lat="47.711444" lon="13.129487"><ele>483.7</ele></trkpt>
<trkpt lat="47.712231" lon="13.129439"><ele>478.2</ele></trkpt>
<trkpt lat="47.712511" lon="13.129744"><ele>474.9</ele></trkpt>
<trkpt lat="47.712690" lon="13.130355"><ele>472.0</ele></trkpt>
<trkpt lat="47.712368" lon="13.131677"><ele>471.0</ele></trkpt>
<trkpt lat="47.712961" lon="13.132996"><ele>469.3</ele></trkpt>
<trkpt lat="47.714088" lon="13.134143"><ele>467.9</ele></trkpt>
<trkpt lat="47.714344" lon="13.134292"><ele>469.6</ele></trkpt>
<trkpt lat="47.714441" lon="13.134870"><ele>472.0</ele></trkpt>
<trkpt lat="47.715254" lon="13.135028"><ele>473.6</ele></trkpt>
<trkpt lat="47.715801" lon="13.134802"><ele>478.0</ele></trkpt>
<trkpt lat="47.716180" lon="13.133851"><ele>499.6</ele></trkpt>
<trkpt lat="47.716696" lon="13.133430"><ele>486.2</ele></trkpt>
<trkpt lat="47.717894" lon="13.134367"><ele>485.0</ele></trkpt>
<trkpt lat="47.717964" lon="13.134412"><ele>483.7</ele></trkpt>
<trkpt lat="47.719051" lon="13.134816"><ele>496.9</ele></trkpt>
<trkpt lat="47.718610" lon="13.134116"><ele>493.1</ele></trkpt>
<trkpt lat="47.718464" lon="13.133509"><ele>502.1</ele></trkpt>
<trkpt lat="47.718544" lon="13.133141"><ele>507.4</ele></trkpt>
<trkpt lat="47.719405" lon="13.131987"><ele>534.2</ele></trkpt>
<trkpt lat="47.720728" lon="13.131094"><ele>544.3</ele></trkpt>
<trkpt lat="47.721505" lon="13.130592"><ele>538.1</ele></trkpt>
<trkpt lat="47.722175" lon="13.130372"><ele>544.5</ele></trkpt>
<trkpt lat="47.722381" lon="13.130468"><ele>544.4</ele></trkpt>
<trkpt lat="47.722721" lon="13.131277"><ele>543.6</ele></trkpt>
<trkpt lat="47.723191" lon="13.131837"><ele>545.1</ele></trkpt>
<trkpt lat="47.723555" lon="13.129818"><ele>542.3</ele></trkpt>
<trkpt lat="47.723604" lon="13.129558"><ele>543.0</ele></trkpt>
<trkpt lat="47.724477" lon="13.129765"><ele>549.3</ele></trkpt>
<trkpt lat="47.725822" lon="13.130658"><ele>564.6</ele></trkpt>
<trkpt lat="47.726685" lon="13.131088"><ele>572.6</ele></trkpt>
<trkpt lat="47.726876" lon="13.131708"><ele>586.0</ele></trkpt>
<trkpt lat="47.726533" lon="13.133715"><ele>595.0</ele></trkpt>
<trkpt lat="47.726517" lon="13.133837"><ele>598.7</ele></trkpt>
<trkpt lat="47.725844" lon="13.135571"><ele>608.0</ele></trkpt>
<trkpt lat="47.725705" lon="13.135998"><ele>612.6</ele></trkpt>
<trkpt lat="47.725715" lon="13.136454"><ele>616.8</ele></trkpt>
<trkpt lat="47.726575" lon="13.138118"><ele>628.7</ele></trkpt>
<trkpt lat="47.727471" lon="13.139747"><ele>628.0</ele></trkpt>
<trkpt lat="47.727854" lon="13.140372"><ele>629.6</ele></trkpt>
<trkpt lat="47.729174" lon="13.141190"><ele>628.2</ele></trkpt>
<trkpt lat="47.730467" lon="13.142036"><ele>643.9</ele></trkpt>
<trkpt lat="47.730687" lon="13.142224"><ele>647.0</ele></trkpt>
<trkpt lat="47.731448" lon="13.143341"><ele>637.2</ele></trkpt>
<trkpt lat="47.732585" lon="13.144618"><ele>626.0</ele></trkpt>
<trkpt lat="47.733051" lon="13.145117"><ele>613.6</ele></trkpt>
<trkpt lat="47.733206" lon="13.147114"><ele>594.9</ele></trkpt>
<trkpt lat="47.733254" lon="13.147486"><ele>595.1</ele></trkpt>
<trkpt lat="47.733937" lon="13.148367"><ele>598.7</ele></trkpt>
<trkpt lat="47.734516" lon="13.150179"><ele>584.9</ele></trkpt>
<trkpt lat="47.734577" lon="13.150363"><ele>585.3</ele></trkpt>
<trkpt lat="47.734395" lon="13.151026"><ele>585.4</ele></trkpt>
<trkpt lat="47.734546" lon="13.152092"><ele>565.1</ele></trkpt>
<trkpt lat="47.734899" lon="13.152205"><ele>562.8</ele></trkpt>
<trkpt lat="47.734988" lon="13.152550"><ele>556.3</ele></trkpt>
<trkpt lat="47.734668" lon="13.153790"><ele>570.6</ele></trkpt>
<trkpt lat="47.735179" lon="13.155523"><ele>575.7</ele></trkpt>
<trkpt lat="47.736258" lon="13.156707"><ele>583.3</ele></trkpt>
<trkpt lat="47.737383" lon="13.157595"><ele>562.3</ele></trkpt>
<trkpt lat="47.737917" lon="13.159347"><ele>575.3</ele></trkpt>
<trkpt lat="47.738295" lon="13.160040"><ele>582.5</ele></trkpt>
<trkpt lat="47.738705" lon="13.162054"><ele>594.8</ele></trkpt>
<trkpt lat="47.739005" lon="13.163173"><ele>596.9</ele></trkpt>
<trkpt lat="47.740043" lon="13.164630"><ele>581.9</ele></trkpt>
<trkpt lat="47.740673" lon="13.165698"><ele>578.9</ele></trkpt>
<trkpt lat="47.741195" lon="13.167765"><ele>577.0</ele></trkpt>
<trkpt lat="47.741796" lon="13.169768"><ele>573.7</ele></trkpt>
<trkpt lat="47.742181" lon="13.170537"><ele>579.2</ele></trkpt>
<trkpt lat="47.742540" lon="13.170642"><ele>576.7</ele></trkpt>
<trkpt lat="47.743086" lon="13.170363"><ele>571.7</ele></trkpt>
<trkpt lat="47.743480" lon="13.170423"><ele>570.5</ele></trkpt>
<trkpt lat="47.744240" lon="13.171018"><ele>574.2</ele></trkpt>
<trkpt lat="47.745139" lon="13.171405"><ele>573.9</ele></trkpt>
<trkpt lat="47.746199" lon="13.172588"><ele>579.8</ele></trkpt>
<trkpt lat="47.747528" lon="13.172911"><ele>570.9</ele></trkpt>
<trkpt lat="47.748888" lon="13.173188"><ele>574.3</ele></trkpt>
<trkpt lat="47.749063" lon="13.173227"><ele>571.7</ele></trkpt>
<trkpt lat="47.750137" lon="13.174368"><ele>579.3</ele></trkpt>
<trkpt lat="47.751520" lon="13.174806"><ele>578.6</ele></trkpt>
<trkpt lat="47.752618" lon="13.175274"><ele>569.6</ele></trkpt>
<trkpt lat="47.752829" lon="13.175565"><ele>566.3</ele></trkpt>
<trkpt lat="47.752778" lon="13.177060"><ele>577.2</ele></trkpt>
<trkpt lat="47.753380" lon="13.177893"><ele>577.2</ele></trkpt>
<trkpt lat="47.754749" lon="13.178621"><ele>578.1</ele></trkpt>
<trkpt lat="47.755630" lon="13.178954"><ele>576.1</ele></trkpt>
<trkpt lat="47.756355" lon="13.179498"><ele>574.0</ele></trkpt>
<trkpt lat="47.757627" lon="13.179884"><ele>572.6</ele></trkpt>
<trkpt lat="47.757945" lon="13.179939"><ele>569.3</ele></trkpt>
<trkpt lat="47.758341" lon="13.180429"><ele>570.5</ele></trkpt>
<trkpt lat="47.759679" lon="13.181111"><ele>579.5</ele></trkpt>
<trkpt lat="47.760489" lon="13.181695"><ele>567.1</ele></trkpt>
<trkpt lat="47.760784" lon="13.181638"><ele>563.5</ele></trkpt>
<trkpt lat="47.761947" lon="13.180537"><ele>562.2</ele></trkpt>
<trkpt lat="47.762371" lon="13.180182"><ele>565.3</ele></trkpt>
<trkpt lat="47.763731" lon="13.179919"><ele>565.9</ele></trkpt>
<trkpt lat="47.764797" lon="13.178472"><ele>565.2</ele></trkpt>
<trkpt lat="47.765613" lon="13.178060"><ele>566.8</ele></trkpt>
<trkpt lat="47.766347" lon="13.178387"><ele>565.9</ele></trkpt>
<trkpt lat="47.767534" lon="13.179643"><ele>571.1</ele></trkpt>
<trkpt lat="47.768710" lon="13.180885"><ele>571.4</ele></trkpt>
<trkpt lat="47.769049" lon="13.181181"><ele>571.3</ele></trkpt>
<trkpt lat="47.770026" lon="13.180640"><ele>571.6</ele></trkpt>
<trkpt lat="47.771167" lon="13.180341"><ele>578.1</ele></trkpt>
<trkpt lat="47.771963" lon="13.179729"><ele>577.1</ele></trkpt>
<trkpt lat="47.773321" lon="13.179471"><ele>582.6</ele></trkpt>
<trkpt lat="47.774224" lon="13.179226"><ele>584.6</ele></trkpt>
<trkpt lat="47.774342" lon="13.179401"><ele>582.2</ele></trkpt>
<trkpt lat="47.774299" lon="13.179753"><ele>581.2</ele></trkpt>
<trkpt lat="47.773822" lon="13.180532"><ele>579.2</ele></trkpt>
<trkpt lat="47.774035" lon="13.180984"><ele>576.2</ele></trkpt>
<trkpt lat="47.774804" lon="13.180686"><ele>571.5</ele></trkpt>
<trkpt lat="47.775275" lon="13.181007"><ele>574.6</ele></trkpt>
<trkpt lat="47.775309" lon="13.180595"><ele>573.0</ele></trkpt>
<trkpt lat="47.775449" lon="13.180603"><ele>572.4</ele></trkpt>
<trkpt lat="47.776788" lon="13.181127"><ele>576.4</ele></trkpt>
<trkpt lat="47.777234" lon="13.181242"><ele>577.9</ele></trkpt>
<trkpt lat="47.778731" lon="13.181220"><ele>588.2</ele></trkpt>
<trkpt lat="47.779957" lon="13.181351"><ele>594.6</ele></trkpt>
<trkpt lat="47.780880" lon="13.180971"><ele>593.3</ele></trkpt>
<trkpt lat="47.782100" lon="13.179812"><ele>594.8</ele></trkpt>
<trkpt lat="47.782416" lon="13.179408"><ele>594.0</ele></trkpt>
<trkpt lat="47.783680" lon="13.178867"><ele>592.0</ele></trkpt>
<trkpt lat="47.785075" lon="13.178559"><ele>598.9</ele></trkpt>
<trkpt lat="47.786055" lon="13.178384"><ele>602.9</ele></trkpt>
<trkpt lat="47.786192" lon="13.179021"><ele>603.9</ele></trkpt>
<trkpt lat="47.786331" lon="13.179113"><ele>605.2</ele></trkpt>
<trkpt lat="47.787504" lon="13.178800"><ele>603.8</ele></trkpt>
<trkpt lat="47.788308" lon="13.178005"><ele>601.7</ele></trkpt>
<trkpt lat="47.788981" lon="13.176941"><ele>599.3</ele></trkpt>
<trkpt lat="47.790167" lon="13.175724"><ele>606.6</ele></trkpt>
<trkpt lat="47.790823" lon="13.175170"><ele>606.4</ele></trkpt>
<trkpt lat="47.792096" lon="13.175118"><ele>608.7</ele></trkpt>
<trkpt lat="47.793392" lon="13.175673"><ele>609.0</ele></trkpt>
<trkpt lat="47.793599" lon="13.176683"><ele>609.5</ele></trkpt>
<trkpt lat="47.793559" lon="13.177375"><ele>614.8</ele></trkpt>
<trkpt lat="47.792841" lon="13.179270"><ele>618.4</ele></trkpt>
<trkpt lat="47.792165" lon="13.181045"><ele>629.7</ele></trkpt>
<trkpt lat="47.791746" lon="13.182309"><ele>633.5</ele></trkpt>
<trkpt lat="47.791540" lon="13.184045"><ele>636.2</ele></trkpt>
<trkpt lat="47.790683" lon="13.185660"><ele>638.1</ele></trkpt>
<trkpt lat="47.789991" lon="13.187063"><ele>645.2</ele></trkpt>
<trkpt lat="47.789045" lon="13.188518"><ele>655.2</ele></trkpt>
<trkpt lat="47.788777" lon="13.188865"><ele>661.0</ele></trkpt>
<trkpt lat="47.788846" lon="13.190139"><ele>667.8</ele></trkpt>
<trkpt lat="47.788513" lon="13.192113"><ele>666.9</ele></trkpt>
<trkpt lat="47.788454" lon="13.192256"><ele>666.4</ele></trkpt>
<trkpt lat="47.787539" lon="13.193334"><ele>675.1</ele></trkpt>
<trkpt lat="47.786394" lon="13.193938"><ele>688.9</ele></trkpt>
<trkpt lat="47.785342" lon="13.195370"><ele>697.0</ele></trkpt>
<trkpt lat="47.784999" lon="13.195901"><ele>701.8</ele></trkpt>
<trkpt lat="47.784505" lon="13.197297"><ele>711.2</ele></trkpt>
<trkpt lat="47.784824" lon="13.198249"><ele>705.5</ele></trkpt>
<trkpt lat="47.784707" lon="13.198299"><ele>709.1</ele></trkpt>
<trkpt lat="47.784394" lon="13.197732"><ele>713.1</ele></trkpt>
<trkpt lat="47.784272" lon="13.197826"><ele>718.6</ele></trkpt>
<trkpt lat="47.784458" lon="13.198379"><ele>715.4</ele></trkpt>
<trkpt lat="47.784228" lon="13.198983"><ele>722.6</ele></trkpt>
<trkpt lat="47.784359" lon="13.200857"><ele>714.9</ele></trkpt>
<trkpt lat="47.784208" lon="13.202047"><ele>713.8</ele></trkpt>
<trkpt lat="47.784033" lon="13.202455"><ele>710.7</ele></trkpt>
<trkpt lat="47.783826" lon="13.202494"><ele>716.8</ele></trkpt>
<trkpt lat="47.783341" lon="13.201800"><ele>724.3</ele></trkpt>
<trkpt lat="47.783375" lon="13.202419"><ele>728.4</ele></trkpt>
<trkpt lat="47.783569" lon="13.202896"><ele>725.8</ele></trkpt>
<trkpt lat="47.783318" lon="13.204068"><ele>723.8</ele></trkpt>
<trkpt lat="47.782370" lon="13.205529"><ele>748.9</ele></trkpt>
<trkpt lat="47.781317" lon="13.206931"><ele>736.6</ele></trkpt>
<trkpt lat="47.781224" lon="13.207139"><ele>732.0</ele></trkpt>
<trkpt lat="47.780817" lon="13.209066"><ele>720.0</ele></trkpt>
<trkpt lat="47.780553" lon="13.210878"><ele>717.2</ele></trkpt>
<trkpt lat="47.779805" lon="13.211705"><ele>713.2</ele></trkpt>
<trkpt lat="47.778993" lon="13.212084"><ele>710.2</ele></trkpt>
<trkpt lat="47.778410" lon="13.212893"><ele>702.2</ele></trkpt>
<trkpt lat="47.777053" lon="13.213401"><ele>694.7</ele></trkpt>
<trkpt lat="47.776758" lon="13.213625"><ele>686.3</ele></trkpt>
<trkpt lat="47.776653" lon="13.214140"><ele>686.2</ele></trkpt>
<trkpt lat="47.775943" lon="13.215222"><ele>681.0</ele></trkpt>
<trkpt lat="47.775863" lon="13.217340"><ele>685.8</ele></trkpt>
<trkpt lat="47.775821" lon="13.218303"><ele>689.9</ele></trkpt>
<trkpt lat="47.775174" lon="13.220139"><ele>676.2</ele></trkpt>
<trkpt lat="47.775160" lon="13.220177"><ele>676.2</ele></trkpt>
<trkpt lat="47.776143" lon="13.221495"><ele>692.4</ele></trkpt>
<trkpt lat="47.776506" lon="13.222632"><ele>695.5</ele></trkpt>
<trkpt lat="47.776244" lon="13.223740"><ele>702.4</ele></trkpt>
<trkpt lat="47.777077" lon="13.224071"><ele>719.4</ele></trkpt>
<trkpt lat="47.777871" lon="13.225301"><ele>741.0</ele></trkpt>
<trkpt lat="47.777699" lon="13.227337"><ele>744.6</ele></trkpt>
<trkpt lat="47.777700" lon="13.227358"><ele>744.7</ele></trkpt>
<trkpt lat="47.778223" lon="13.228986"><ele>756.3</ele></trkpt>
<trkpt lat="47.777519" lon="13.228972"><ele>757.1</ele></trkpt>
<trkpt lat="47.777296" lon="13.229209"><ele>759.8</ele></trkpt>
<trkpt lat="47.777195" lon="13.229662"><ele>764.4</ele></trkpt>
<trkpt lat="47.776209" lon="13.229321"><ele>766.7</ele></trkpt>
<trkpt lat="47.776325" lon="13.228705"><ele>765.8</ele></trkpt>
<trkpt lat="47.775943" lon="13.228343"><ele>765.6</ele></trkpt>
<trkpt lat="47.775827" lon="13.227893"><ele>766.0</ele></trkpt>
<trkpt lat="47.775292" lon="13.227716"><ele>761.7</ele></trkpt>
<trkpt lat="47.775593" lon="13.227823"><ele>764.6</ele></trkpt>
<trkpt lat="47.775009" lon="13.229327"><ele>771.9</ele></trkpt>
<trkpt lat="47.775200" lon="13.229946"><ele>775.9</ele></trkpt>
<trkpt lat="47.774672" lon="13.230883"><ele>777.4</ele></trkpt>
<trkpt lat="47.774361" lon="13.230551"><ele>778.6</ele></trkpt>
<trkpt lat="47.773428" lon="13.232139"><ele>784.2</ele></trkpt>
<trkpt lat="47.772550" lon="13.233818"><ele>788.8</ele></trkpt>
<trkpt lat="47.772019" lon="13.234776"><ele>781.7</ele></trkpt>
<trkpt lat="47.771622" lon="13.236722"><ele>782.1</ele></trkpt>
<trkpt lat="47.771624" lon="13.236793"><ele>781.2</ele></trkpt>
<trkpt lat="47.771944" lon="13.237792"><ele>767.7</ele></trkpt>
<trkpt lat="47.772255" lon="13.239967"><ele>758.3</ele></trkpt>
<trkpt lat="47.772285" lon="13.240161"><ele>757.5</ele></trkpt>
<trkpt lat="47.772574" lon="13.240935"><ele>759.0</ele></trkpt>
<trkpt lat="47.772288" lon="13.242106"><ele>758.0</ele></trkpt>
<trkpt lat="47.771061" lon="13.241241"><ele>756.1</ele></trkpt>
<trkpt lat="47.769816" lon="13.240948"><ele>757.0</ele></trkpt>
<trkpt lat="47.769081" lon="13.241264"><ele>752.9</ele></trkpt>
<trkpt lat="47.768057" lon="13.240551"><ele>764.0</ele></trkpt>
<trkpt lat="47.766568" lon="13.240510"><ele>762.4</ele></trkpt>
<trkpt lat="47.766551" lon="13.240509"><ele>762.7</ele></trkpt>
<trkpt lat="47.765261" lon="13.239883"><ele>736.1</ele></trkpt>
<trkpt lat="47.764322" lon="13.239502"><ele>730.9</ele></trkpt>
<trkpt lat="47.763193" lon="13.239396"><ele>733.2</ele></trkpt>
<trkpt lat="47.762439" lon="13.240153"><ele>711.6</ele></trkpt>
<trkpt lat="47.761223" lon="13.239635"><ele>718.5</ele></trkpt>
<trkpt lat="47.760922" lon="13.240435"><ele>709.9</ele></trkpt>
<trkpt lat="47.759543" lon="13.241162"><ele>706.6</ele></trkpt>
<trkpt lat="47.758550" lon="13.241851"><ele>701.3</ele></trkpt>
<trkpt lat="47.757404" lon="13.242972"><ele>703.4</ele></trkpt>
<trkpt lat="47.757087" lon="13.243261"><ele>707.2</ele></trkpt>
<trkpt lat="47.756036" lon="13.244562"><ele>718.4</ele></trkpt>
<trkpt lat="47.756005" lon="13.244601"><ele>718.3</ele></trkpt>
<trkpt lat="47.755084" lon="13.246017"><ele>706.0</ele></trkpt>
<trkpt lat="47.754465" lon="13.247140"><ele>702.9</ele></trkpt>
<trkpt lat="47.753669" lon="13.247718"><ele>691.3</ele></trkpt>
<trkpt lat="47.753349" lon="13.248688"><ele>704.1</ele></trkpt>
<trkpt lat="47.752630" lon="13.249673"><ele>705.2</ele></trkpt>
<trkpt lat="47.752237" lon="13.249935"><ele>700.2</ele></trkpt>
<trkpt lat="47.752125" lon="13.250828"><ele>707.2</ele></trkpt>
<trkpt lat="47.751215" lon="13.252344"><ele>706.0</ele></trkpt>
<trkpt lat="47.750564" lon="13.252573"><ele>701.2</ele></trkpt>
<trkpt lat="47.749690" lon="13.252467"><ele>693.5</ele></trkpt>
<trkpt lat="47.749066" lon="13.252983"><ele>694.5</ele></trkpt>
<trkpt lat="47.748890" lon="13.252538"><ele>694.0</ele></trkpt>
<trkpt lat="47.749308" lon="13.253604"><ele>701.9</ele></trkpt>
<trkpt lat="47.748013" lon="13.254677"><ele>702.1</ele></trkpt>
<trkpt lat="47.747651" lon="13.254830"><ele>700.1</ele></trkpt>
<trkpt lat="47.747175" lon="13.255485"><ele>696.6</ele></trkpt>
<trkpt lat="47.745776" lon="13.256172"><ele>698.1</ele></trkpt>
<trkpt lat="47.744896" lon="13.256742"><ele>701.1</ele></trkpt>
<trkpt lat="47.743406" lon="13.257101"><ele>699.6</ele></trkpt>
<trkpt lat="47.741950" lon="13.257327"><ele>695.5</ele></trkpt>
<trkpt lat="47.741194" lon="13.257459"><ele>698.1</ele></trkpt>
<trkpt lat="47.740391" lon="13.257800"><ele>704.5</ele></trkpt>
<trkpt lat="47.739229" lon="13.258912"><ele>708.8</ele></trkpt>
<trkpt lat="47.738057" lon="13.260209"><ele>713.5</ele></trkpt>
<trkpt lat="47.738031" lon="13.260243"><ele>713.3</ele></trkpt>
<trkpt lat="47.737107" lon="13.261797"><ele>709.0</ele></trkpt>
<trkpt lat="47.736464" lon="13.262920"><ele>706.0</ele></trkpt>
<trkpt lat="47.735731" lon="13.263810"><ele>712.0</ele></trkpt>
<trkpt lat="47.734510" lon="13.264778"><ele>704.8</ele></trkpt>
<trkpt lat="47.733196" lon="13.265658"><ele>705.8</ele></trkpt>
<trkpt lat="47.732457" lon="13.266145"><ele>707.1</ele></trkpt>
<trkpt lat="47.732262" lon="13.266591"><ele>713.4</ele></trkpt>
<trkpt lat="47.732037" lon="13.266423"><ele>715.0</ele></trkpt>
<trkpt lat="47.731500" lon="13.266585"><ele>718.2</ele></trkpt>
<trkpt lat="47.730536" lon="13.267943"><ele>712.4</ele></trkpt>
<trkpt lat="47.729489" lon="13.269560"><ele>719.7</ele></trkpt>
<trkpt lat="47.729352" lon="13.269773"><ele>719.1</ele></trkpt>
<trkpt lat="47.728299" lon="13.271039"><ele>719.8</ele></trkpt>
<trkpt lat="47.727258" lon="13.272235"><ele>719.3</ele></trkpt>
<trkpt lat="47.726272" lon="13.273618"><ele>726.8</ele></trkpt>
<trkpt lat="47.725172" lon="13.275171"><ele>727.4</ele></trkpt>
<trkpt lat="47.724109" lon="13.276679"><ele>728.1</ele></trkpt>
<trkpt lat="47.723768" lon="13.277141"><ele>733.1</ele></trkpt>
<trkpt lat="47.722556" lon="13.278499"><ele>732.6</ele></trkpt>
<trkpt lat="47.721478" lon="13.279759"><ele>732.7</ele></trkpt>
<trkpt lat="47.721115" lon="13.280094"><ele>731.7</ele></trkpt>
<trkpt lat="47.720053" lon="13.281692"><ele>733.8</ele></trkpt>
<trkpt lat="47.719768" lon="13.282220"><ele>731.5</ele></trkpt>
<trkpt lat="47.719606" lon="13.282064"><ele>729.9</ele></trkpt>
<trkpt lat="47.718451" lon="13.283184"><ele>745.4</ele></trkpt>
<trkpt lat="47.718451" lon="13.283184"><ele>745.4</ele></trkpt>
<trkpt lat="47.717044" lon="13.283334"><ele>774.9</ele></trkpt>
<trkpt lat="47.716946" lon="13.283316"><ele>776.9</ele></trkpt>
<trkpt lat="47.715632" lon="13.282725"><ele>809.5</ele></trkpt>
<trkpt lat="47.714345" lon="13.281978"><ele>842.1</ele></trkpt>
<trkpt lat="47.713999" lon="13.281730"><ele>857.7</ele></trkpt>
<trkpt lat="47.712506" lon="13.282102"><ele>892.3</ele></trkpt>
<trkpt lat="47.712280" lon="13.282182"><ele>892.3</ele></trkpt>
<trkpt lat="47.711782" lon="13.282024"><ele>895.7</ele></trkpt>
<trkpt lat="47.711275" lon="13.281104"><ele>935.4</ele></trkpt>
<trkpt lat="47.710290" lon="13.280530"><ele>947.8</ele></trkpt>
<trkpt lat="47.709851" lon="13.278646"><ele>988.1</ele></trkpt>
<trkpt lat="47.709553" lon="13.277507"><ele>1004.7</ele></trkpt>
<trkpt lat="47.709221" lon="13.276703"><ele>1024.4</ele></trkpt>
<trkpt lat="47.708916" lon="13.277026"><ele>1015.6</ele></trkpt>
<trkpt lat="47.707545" lon="13.276950"><ele>1025.9</ele></trkpt>
<trkpt lat="47.707433" lon="13.276934"><ele>1026.6</ele></trkpt>
<trkpt lat="47.706572" lon="13.276036"><ele>1036.6</ele></trkpt>
<trkpt lat="47.705646" lon="13.274471"><ele>1038.1</ele></trkpt>
<trkpt lat="47.704676" lon="13.273053"><ele>1047.2</ele></trkpt>
<trkpt lat="47.704328" lon="13.272494"><ele>1049.6</ele></trkpt>
<trkpt lat="47.703830" lon="13.271273"><ele>1054.3</ele></trkpt>
<trkpt lat="47.704086" lon="13.270201"><ele>1070.3</ele></trkpt>
<trkpt lat="47.703526" lon="13.269846"><ele>1074.7</ele></trkpt>
<trkpt lat="47.703798" lon="13.268640"><ele>1086.5</ele></trkpt>
<trkpt lat="47.703334" lon="13.268319"><ele>1086.4</ele></trkpt>
<trkpt lat="47.703027" lon="13.267757"><ele>1090.5</ele></trkpt>
<trkpt lat="47.702723" lon="13.265647"><ele>1109.7</ele></trkpt>
<trkpt lat="47.702447" lon="13.264176"><ele>1116.7</ele></trkpt>
<trkpt lat="47.702100" lon="13.263817"><ele>1117.8</ele></trkpt>
<trkpt lat="47.700954" lon="13.263995"><ele>1119.3</ele></trkpt>
<trkpt lat="47.701126" lon="13.263198"><ele>1134.1</ele></trkpt>
<trkpt lat="47.701585" lon="13.263151"><ele>1135.7</ele></trkpt>
<trkpt lat="47.701173" lon="13.262677"><ele>1149.0</ele></trkpt>
<trkpt lat="47.700132" lon="13.263448"><ele>1149.2</ele></trkpt>
<trkpt lat="47.699385" lon="13.263116"><ele>1151.3</ele></trkpt>
<trkpt lat="47.698668" lon="13.262360"><ele>1171.6</ele></trkpt>
<trkpt lat="47.697900" lon="13.260977"><ele>1176.6</ele></trkpt>
<trkpt lat="47.697859" lon="13.258839"><ele>1190.5</ele></trkpt>
<trkpt lat="47.697867" lon="13.258562"><ele>1194.9</ele></trkpt>
<trkpt lat="47.697147" lon="13.256911"><ele>1211.9</ele></trkpt>
<trkpt lat="47.697145" lon="13.256588"><ele>1228.3</ele></trkpt>
<trkpt lat="47.697444" lon="13.256737"><ele>1235.1</ele></trkpt>
<trkpt lat="47.697143" lon="13.255566"><ele>1254.6</ele></trkpt>
<trkpt lat="47.696377" lon="13.254874"><ele>1257.9</ele></trkpt>
<trkpt lat="47.695928" lon="13.253464"><ele>1254.0</ele></trkpt>
<trkpt lat="47.695381" lon="13.252859"><ele>1245.0</ele></trkpt>
<trkpt lat="47.696205" lon="13.252931"><ele>1240.2</ele></trkpt>
<trkpt lat="47.696486" lon="13.252151"><ele>1218.8</ele></trkpt>
<trkpt lat="47.697130" lon="13.251468"><ele>1221.3</ele></trkpt>
<trkpt lat="47.697970" lon="13.249872"><ele>1212.0</ele></trkpt>
<trkpt lat="47.698389" lon="13.249625"><ele>1215.2</ele></trkpt>
<trkpt lat="47.698426" lon="13.249390"><ele>1216.3</ele></trkpt>
<trkpt lat="47.697935" lon="13.248110"><ele>1200.3</ele></trkpt>
<trkpt lat="47.698236" lon="13.246515"><ele>1187.8</ele></trkpt>
<trkpt lat="47.698556" lon="13.246292"><ele>1183.6</ele></trkpt>
<trkpt lat="47.698951" lon="13.246405"><ele>1195.6</ele></trkpt>
<trkpt lat="47.699136" lon="13.246157"><ele>1196.7</ele></trkpt>
<trkpt lat="47.699233" lon="13.245346"><ele>1177.1</ele></trkpt>
<trkpt lat="47.699779" lon="13.244988"><ele>1183.6</ele></trkpt>
<trkpt lat="47.701069" lon="13.245486"><ele>1181.5</ele></trkpt>
<trkpt lat="47.701989" lon="13.244858"><ele>1163.6</ele></trkpt>
<trkpt lat="47.702499" lon="13.244188"><ele>1161.4</ele></trkpt>
<trkpt lat="47.702854" lon="13.242803"><ele>1146.4</ele></trkpt>
<trkpt lat="47.702722" lon="13.242170"><ele>1131.3</ele></trkpt>
<trkpt lat="47.702952" lon="13.241751"><ele>1126.7</ele></trkpt>
<trkpt lat="47.703457" lon="13.241463"><ele>1126.6</ele></trkpt>
<trkpt lat="47.704164" lon="13.240229"><ele>1114.4</ele></trkpt>
<trkpt lat="47.703693" lon="13.239823"><ele>1103.7</ele></trkpt>
<trkpt lat="47.703892" lon="13.239527"><ele>1101.7</ele></trkpt>
<trkpt lat="47.702963" lon="13.238679"><ele>1078.8</ele></trkpt>
<trkpt lat="47.702742" lon="13.236696"><ele>1070.0</ele></trkpt>
<trkpt lat="47.702655" lon="13.235019"><ele>1046.9</ele></trkpt>
<trkpt lat="47.702933" lon="13.233672"><ele>1038.7</ele></trkpt>
<trkpt lat="47.702853" lon="13.232698"><ele>1025.1</ele></trkpt>
<trkpt lat="47.702391" lon="13.233284"><ele>1022.5</ele></trkpt>
<trkpt lat="47.702635" lon="13.232406"><ele>1019.4</ele></trkpt>
<trkpt lat="47.701887" lon="13.231047"><ele>1003.6</ele></trkpt>
<trkpt lat="47.701642" lon="13.229986"><ele>987.1</ele></trkpt>
<trkpt lat="47.702006" lon="13.228811"><ele>976.6</ele></trkpt>
<trkpt lat="47.702459" lon="13.228442"><ele>982.2</ele></trkpt>
<trkpt lat="47.702236" lon="13.227703"><ele>966.5</ele></trkpt>
<trkpt lat="47.702343" lon="13.226496"><ele>955.7</ele></trkpt>
<trkpt lat="47.703283" lon="13.224891"><ele>956.6</ele></trkpt>
<trkpt lat="47.703696" lon="13.224149"><ele>943.8</ele></trkpt>
<trkpt lat="47.703685" lon="13.223949"><ele>939.2</ele></trkpt>
<trkpt lat="47.702563" lon="13.224866"><ele>922.0</ele></trkpt>
<trkpt lat="47.702862" lon="13.224022"><ele>912.5</ele></trkpt>
<trkpt lat="47.702784" lon="13.223137"><ele>904.1</ele></trkpt>
<trkpt lat="47.702911" lon="13.222386"><ele>897.8</ele></trkpt>
<trkpt lat="47.703452" lon="13.221304"><ele>889.4</ele></trkpt>
<trkpt lat="47.704130" lon="13.221465"><ele>895.3</ele></trkpt>
<trkpt lat="47.704301" lon="13.221216"><ele>892.8</ele></trkpt>
<trkpt lat="47.704247" lon="13.220968"><ele>893.6</ele></trkpt>
<trkpt lat="47.703009" lon="13.220014"><ele>871.4</ele></trkpt>
<trkpt lat="47.702857" lon="13.219919"><ele>869.1</ele></trkpt>
<trkpt lat="47.702599" lon="13.219302"><ele>866.7</ele></trkpt>
<trkpt lat="47.702655" lon="13.217149"><ele>859.5</ele></trkpt>
<trkpt lat="47.702660" lon="13.216643"><ele>856.5</ele></trkpt>
<trkpt lat="47.703049" lon="13.216200"><ele>856.3</ele></trkpt>
<trkpt lat="47.702660" lon="13.216643"><ele>856.5</ele></trkpt>
<trkpt lat="47.702430" lon="13.214677"><ele>841.7</ele></trkpt>
<trkpt lat="47.702379" lon="13.214189"><ele>840.8</ele></trkpt>
<trkpt lat="47.702383" lon="13.212747"><ele>839.1</ele></trkpt>
<trkpt lat="47.702550" lon="13.212049"><ele>834.0</ele></trkpt>
<trkpt lat="47.703286" lon="13.210242"><ele>813.2</ele></trkpt>
<trkpt lat="47.703987" lon="13.208754"><ele>804.1</ele></trkpt>
<trkpt lat="47.705068" lon="13.207235"><ele>797.6</ele></trkpt>
<trkpt lat="47.706017" lon="13.205784"><ele>785.5</ele></trkpt>
<trkpt lat="47.706940" lon="13.204287"><ele>773.3</ele></trkpt>
<trkpt lat="47.707162" lon="13.203966"><ele>770.4</ele></trkpt>
<trkpt lat="47.707579" lon="13.202402"><ele>751.7</ele></trkpt>
<trkpt lat="47.708450" lon="13.200846"><ele>744.3</ele></trkpt>
<trkpt lat="47.708561" lon="13.200594"><ele>742.5</ele></trkpt>
<trkpt lat="47.708795" lon="13.198613"><ele>725.6</ele></trkpt>
<trkpt lat="47.708854" lon="13.198440"><ele>724.3</ele></trkpt>
<trkpt lat="47.709542" lon="13.197846"><ele>720.1</ele></trkpt>
<trkpt lat="47.710589" lon="13.196451"><ele>710.5</ele></trkpt>
<trkpt lat="47.711213" lon="13.195580"><ele>708.5</ele></trkpt>
<trkpt lat="47.711327" lon="13.195210"><ele>703.9</ele></trkpt>
<trkpt lat="47.710872" lon="13.194710"><ele>703.6</ele></trkpt>
<trkpt lat="47.710818" lon="13.194109"><ele>707.8</ele></trkpt>
<trkpt lat="47.711490" lon="13.192907"><ele>719.8</ele></trkpt>
<trkpt lat="47.711797" lon="13.191962"><ele>730.3</ele></trkpt>
<trkpt lat="47.712651" lon="13.191190"><ele>735.4</ele></trkpt>
<trkpt lat="47.713368" lon="13.189878"><ele>745.3</ele></trkpt>
<trkpt lat="47.714229" lon="13.189036"><ele>757.6</ele></trkpt>
<trkpt lat="47.715136" lon="13.187307"><ele>777.0</ele></trkpt>
<trkpt lat="47.715427" lon="13.186819"><ele>777.5</ele></trkpt>
<trkpt lat="47.715457" lon="13.186508"><ele>779.8</ele></trkpt>
<trkpt lat="47.715268" lon="13.186411"><ele>783.9</ele></trkpt>
<trkpt lat="47.714730" lon="13.187033"><ele>784.6</ele></trkpt>
<trkpt lat="47.715030" lon="13.186037"><ele>790.0</ele></trkpt>
<trkpt lat="47.713940" lon="13.186196"><ele>808.3</ele></trkpt>
<trkpt lat="47.714537" lon="13.185349"><ele>818.5</ele></trkpt>
<trkpt lat="47.714621" lon="13.184661"><ele>848.7</ele></trkpt>
<trkpt lat="47.715304" lon="13.183921"><ele>849.3</ele></trkpt>
<trkpt lat="47.716000" lon="13.182612"><ele>868.5</ele></trkpt>
<trkpt lat="47.716695" lon="13.182070"><ele>876.2</ele></trkpt>
<trkpt lat="47.718097" lon="13.181535"><ele>902.4</ele></trkpt>
<trkpt lat="47.718680" lon="13.180986"><ele>917.2</ele></trkpt>
<trkpt lat="47.717951" lon="13.181235"><ele>916.1</ele></trkpt>
<trkpt lat="47.716579" lon="13.181032"><ele>920.9</ele></trkpt>
<trkpt lat="47.716406" lon="13.181042"><ele>922.1</ele></trkpt>
<trkpt lat="47.715725" lon="13.179325"><ele>930.0</ele></trkpt>
<trkpt lat="47.715691" lon="13.179309"><ele>930.5</ele></trkpt>
<trkpt lat="47.715322" lon="13.177376"><ele>925.4</ele></trkpt>
<trkpt lat="47.714531" lon="13.175597"><ele>915.2</ele></trkpt>
<trkpt lat="47.714330" lon="13.175208"><ele>915.1</ele></trkpt>
<trkpt lat="47.713291" lon="13.173897"><ele>900.8</ele></trkpt>
<trkpt lat="47.713281" lon="13.173887"><ele>900.6</ele></trkpt>
<trkpt lat="47.711995" lon="13.173139"><ele>895.5</ele></trkpt>
<trkpt lat="47.711554" lon="13.172712"><ele>896.6</ele></trkpt>
<trkpt lat="47.711230" lon="13.171546"><ele>893.3</ele></trkpt>
<trkpt lat="47.711396" lon="13.169299"><ele>879.6</ele></trkpt>
<trkpt lat="47.711414" lon="13.169005"><ele>879.2</ele></trkpt>
<trkpt lat="47.711131" lon="13.169245"><ele>878.8</ele></trkpt>
<trkpt lat="47.710922" lon="13.167544"><ele>883.0</ele></trkpt>
<trkpt lat="47.710623" lon="13.166845"><ele>882.8</ele></trkpt>
<trkpt lat="47.709311" lon="13.166342"><ele>863.9</ele></trkpt>
<trkpt lat="47.708388" lon="13.166749"><ele>845.8</ele></trkpt>
<trkpt lat="47.707036" lon="13.166552"><ele>821.7</ele></trkpt>
<trkpt lat="47.706989" lon="13.166534"><ele>820.5</ele></trkpt>
<trkpt lat="47.705903" lon="13.165639"><ele>801.4</ele></trkpt>
<trkpt lat="47.704959" lon="13.163975"><ele>763.3</ele></trkpt>
<trkpt lat="47.704872" lon="13.163861"><ele>762.6</ele></trkpt>
<trkpt lat="47.704309" lon="13.163568"><ele>766.0</ele></trkpt>
<trkpt lat="47.704332" lon="13.163327"><ele>760.3</ele></trkpt>
<trkpt lat="47.703460" lon="13.162728"><ele>751.4</ele></trkpt>
<trkpt lat="47.702870" lon="13.163054"><ele>754.0</ele></trkpt>
<trkpt lat="47.702713" lon="13.163547"><ele>754.6</ele></trkpt>
<trkpt lat="47.702349" lon="13.163946"><ele>754.6</ele></trkpt>
<trkpt lat="47.701901" lon="13.163539"><ele>743.8</ele></trkpt>
<trkpt lat="47.700600" lon="13.163631"><ele>742.5</ele></trkpt>
<trkpt lat="47.700343" lon="13.163072"><ele>723.0</ele></trkpt>
<trkpt lat="47.699972" lon="13.163006"><ele>717.7</ele></trkpt>
<trkpt lat="47.700088" lon="13.162535"><ele>716.1</ele></trkpt>
<trkpt lat="47.699605" lon="13.161549"><ele>707.4</ele></trkpt>
<trkpt lat="47.698744" lon="13.161584"><ele>705.5</ele></trkpt>
<trkpt lat="47.697858" lon="13.161960"><ele>696.1</ele></trkpt>
<trkpt lat="47.697179" lon="13.162531"><ele>709.7</ele></trkpt>
<trkpt lat="47.696356" lon="13.161654"><ele>706.5</ele></trkpt>
<trkpt lat="47.695559" lon="13.161269"><ele>696.7</ele></trkpt>
<trkpt lat="47.694848" lon="13.160322"><ele>688.1</ele></trkpt>
<trkpt lat="47.693648" lon="13.159138"><ele>673.2</ele></trkpt>
<trkpt lat="47.693414" lon="13.158949"><ele>672.1</ele></trkpt>
<trkpt lat="47.692103" lon="13.158485"><ele>662.0</ele></trkpt>
<trkpt lat="47.692059" lon="13.158466"><ele>661.4</ele></trkpt>
<trkpt lat="47.691549" lon="13.159142"><ele>654.2</ele></trkpt>
<trkpt lat="47.690145" lon="13.159417"><ele>631.1</ele></trkpt>
<trkpt lat="47.688809" lon="13.159744"><ele>621.2</ele></trkpt>
<trkpt lat="47.688619" lon="13.159824"><ele>617.3</ele></trkpt>
<trkpt lat="47.688435" lon="13.159720"><ele>613.5</ele></trkpt>
<trkpt lat="47.688448" lon="13.157988"><ele>602.0</ele></trkpt>
<trkpt lat="47.689500" lon="13.156748"><ele>582.7</ele></trkpt>
<trkpt lat="47.689542" lon="13.155280"><ele>574.7</ele></trkpt>
<trkpt lat="47.690298" lon="13.153788"><ele>564.5</ele></trkpt>
<trkpt lat="47.690377" lon="13.153330"><ele>563.8</ele></trkpt>
<trkpt lat="47.690195" lon="13.152762"><ele>563.5</ele></trkpt>
<trkpt lat="47.689986" lon="13.152684"><ele>562.6</ele></trkpt>
<trkpt lat="47.689097" lon="13.151375"><ele>559.3</ele></trkpt>
<trkpt lat="47.688884" lon="13.150503"><ele>541.2</ele></trkpt>
<trkpt lat="47.688796" lon="13.151376"><ele>553.8</ele></trkpt>
<trkpt lat="47.689307" lon="13.151899"><ele>563.0</ele></trkpt>
<trkpt lat="47.688796" lon="13.151376"><ele>553.8</ele></trkpt>
<trkpt lat="47.688884" lon="13.150502"><ele>541.2</ele></trkpt>
<trkpt lat="47.688455" lon="13.149420"><ele>530.2</ele></trkpt>
<trkpt lat="47.688648" lon="13.148079"><ele>526.3</ele></trkpt>
<trkpt lat="47.687964" lon="13.148386"><ele>515.1</ele></trkpt>
<trkpt lat="47.688128" lon="13.146742"><ele>504.5</ele></trkpt>
<trkpt lat="47.687980" lon="13.146729"><ele>501.0</ele></trkpt>
<trkpt lat="47.687734" lon="13.145989"><ele>493.5</ele></trkpt>
<trkpt lat="47.687751" lon="13.145179"><ele>492.5</ele></trkpt>
<trkpt lat="47.687387" lon="13.144990"><ele>491.4</ele></trkpt>
<trkpt lat="47.686801" lon="13.143105"><ele>491.2</ele></trkpt>
<trkpt lat="47.686750" lon="13.142855"><ele>490.5</ele></trkpt>
<trkpt lat="47.686588" lon="13.141088"><ele>487.0</ele></trkpt>
<trkpt lat="47.686703" lon="13.140422"><ele>487.8</ele></trkpt>
<trkpt lat="47.686959" lon="13.139980"><ele>485.8</ele></trkpt>
<trkpt lat="47.686465" lon="13.137912"><ele>479.4</ele></trkpt>
<trkpt lat="47.686331" lon="13.137388"><ele>480.1</ele></trkpt>
<trkpt lat="47.685517" lon="13.136310"><ele>478.3</ele></trkpt>
<trkpt lat="47.685363" lon="13.135529"><ele>481.3</ele></trkpt>
<trkpt lat="47.684911" lon="13.135184"><ele>480.6</ele></trkpt>
<trkpt lat="47.684737" lon="13.134179"><ele>500.3</ele></trkpt>
<trkpt lat="47.685044" lon="13.132519"><ele>518.6</ele></trkpt>
<trkpt lat="47.685819" lon="13.130666"><ele>527.4</ele></trkpt>
<trkpt lat="47.686008" lon="13.130169"><ele>532.7</ele></trkpt>
<trkpt lat="47.686579" lon="13.129445"><ele>544.3</ele></trkpt>
<trkpt lat="47.686056" lon="13.129027"><ele>549.3</ele></trkpt>
<trkpt lat="47.686251" lon="13.127583"><ele>532.0</ele></trkpt>
<trkpt lat="47.687164" lon="13.126358"><ele>520.3</ele></trkpt>
<trkpt lat="47.686838" lon="13.125971"><ele>518.4</ele></trkpt>
<trkpt lat="47.686776" lon="13.125583"><ele>514.3</ele></trkpt>
<trkpt lat="47.686226" lon="13.125106"><ele>510.3</ele></trkpt>
<trkpt lat="47.686458" lon="13.124656"><ele>502.7</ele></trkpt>
<trkpt lat="47.687336" lon="13.124053"><ele>498.2</ele></trkpt>
<trkpt lat="47.687464" lon="13.123626"><ele>499.7</ele></trkpt>
<trkpt lat="47.687524" lon="13.122600"><ele>496.9</ele></trkpt>
<trkpt lat="47.686297" lon="13.121360"><ele>481.2</ele></trkpt>
<trkpt lat="47.686122" lon="13.121189"><ele>485.0</ele></trkpt>
<trkpt lat="47.686153" lon="13.120435"><ele>489.6</ele></trkpt>
<trkpt lat="47.685851" lon="13.119832"><ele>494.4</ele></trkpt>
<trkpt lat="47.685908" lon="13.118407"><ele>461.0</ele></trkpt>
<trkpt lat="47.686304" lon="13.118144"><ele>457.5</ele></trkpt>
<trkpt lat="47.686964" lon="13.117158"><ele>449.2</ele></trkpt>
<trkpt lat="47.686253" lon="13.115980"><ele>448.8</ele></trkpt>
<trkpt lat="47.685405" lon="13.115231"><ele>446.6</ele></trkpt>
<trkpt lat="47.685770" lon="13.114230"><ele>447.4</ele></trkpt>
<trkpt lat="47.685937" lon="13.112814"><ele>445.1</ele></trkpt>
<trkpt lat="47.686386" lon="13.110661"><ele>448.0</ele></trkpt>
<trkpt lat="47.686715" lon="13.109193"><ele>445.0</ele></trkpt>
<trkpt lat="47.686537" lon="13.107752"><ele>446.0</ele></trkpt>
<trkpt lat="47.685720" lon="13.106104"><ele>445.0</ele></trkpt>
<trkpt lat="47.685607" lon="13.105678"><ele>446.4</ele></trkpt>
<trkpt lat="47.686068" lon="13.105011"><ele>447.3</ele></trkpt>
<trkpt lat="47.685865" lon="13.104634"><ele>448.9</ele></trkpt>
<trkpt lat="47.686822" lon="13.103382"><ele>447.8</ele></trkpt>
<trkpt lat="47.686928" lon="13.102940"><ele>448.0</ele></trkpt>
<trkpt lat="47.686821" lon="13.101225"><ele>445.4</ele></trkpt>
<trkpt lat="47.687359" lon="13.101196"><ele>443.4</ele></trkpt>
<trkpt lat="47.687585" lon="13.099906"><ele>444.6</ele></trkpt>
<trkpt lat="47.687255" lon="13.098219"><ele>444.1</ele></trkpt>
<trkpt lat="47.686233" lon="13.096943"><ele>442.0</ele></trkpt>
<trkpt lat="47.685759" lon="13.095950"><ele>443.5</ele></trkpt>
<trkpt lat="47.684863" lon="13.097199"><ele>445.0</ele></trkpt>
<trkpt lat="47.685167" lon="13.097746"><ele>442.4</ele></trkpt>
<trkpt lat="47.684624" lon="13.098540"><ele>444.1</ele></trkpt>
<trkpt lat="47.684941" lon="13.098962"><ele>443.3</ele></trkpt>
<trkpt lat="47.684896" lon="13.099196"><ele>443.8</ele></trkpt>
</trkseg></trk></gpx>