<?xml version="1.0" encoding="UTF-8"?>
<gpx version="1.1" creator="Bad Reichenhall gravel – saját gravel-router (OSM/Overture + SRTM)" xmlns="http://www.topografix.com/GPX/1/1">
<metadata><name>Hirschbichl-hágó–Lofer nagy kör</name><desc>GENERÁLT NYOMVONAL – A nagy királyetap: Hallthurmon és Bischofswiesenen át Ramsauba, a Hintersee mellett a Klausbachtal nemzeti parki murvaútján fel a Hirschbichl-hágóra (1183 m), le Weißbach bei Loferbe a Seisenbergklamm mellett, majd a Saalach völgyén Loferen, Unkenen és Melleck-en át vissza. Hosszú, de a táj mindent visz.</desc><copyright author="OpenStreetMap contributors (via Overture Maps)"><license>https://opendatacommons.org/licenses/odbl/</license></copyright><time>2026-10-05T17:09:48Z</time></metadata>
<wpt lat="47.6966" lon="12.9354"><name>Hallthurm</name><type>pass</type></wpt>
<wpt lat="47.652" lon="12.9604"><name>Bischofswiesen</name><type>town</type></wpt>
<wpt lat="47.6068" lon="12.9026"><name>Ramsau</name><type>town</type></wpt>
<wpt lat="47.6067" lon="12.8541"><name>Hintersee (Ramsau)</name><type>lake</type></wpt>
<wpt lat="47.6051" lon="12.8583"><name>Klausbachtal</name><type>gorge</type></wpt>
<wpt lat="47.5528" lon="12.7947"><name>Hirschbichl-hágó</name><type>pass</type></wpt>
<wpt lat="47.5224" lon="12.751"><name>Seisenbergklamm</name><type>gorge</type></wpt>
<wpt lat="47.5868" lon="12.695"><name>Lofer</name><type>town</type></wpt>
<wpt lat="47.6443" lon="12.7189"><name>Unken</name><type>town</type></wpt>
<wpt lat="47.672" lon="12.7581"><name>Melleck</name><type>town</type></wpt>
<wpt lat="47.7086" lon="12.8573"><name>Saalachsee</name><type>lake</type></wpt>
<trk><name>Hirschbichl-hágó–Lofer nagy kör</name><type>gravel</type><trkseg>
<trkpt lat="47.726900" lon="12.883842"><ele>474.7</ele></trkpt>
<trkpt lat="47.726551" lon="12.884389"><ele>479.4</ele></trkpt>
<trkpt lat="47.726118" lon="12.883872"><ele>478.7</ele></trkpt>
<trkpt lat="47.725788" lon="12.883935"><ele>485.1</ele></trkpt>
<trkpt lat="47.725966" lon="12.885604"><ele>497.4</ele></trkpt>
<trkpt lat="47.725168" lon="12.886404"><ele>509.7</ele></trkpt>
<trkpt lat="47.723889" lon="12.886863"><ele>525.7</ele></trkpt>
<trkpt lat="47.723461" lon="12.887252"><ele>529.1</ele></trkpt>
<trkpt lat="47.722997" lon="12.889164"><ele>529.4</ele></trkpt>
<trkpt lat="47.722294" lon="12.890050"><ele>529.4</ele></trkpt>
<trkpt lat="47.722153" lon="12.892240"><ele>522.0</ele></trkpt>
<trkpt lat="47.722106" lon="12.893191"><ele>523.3</ele></trkpt>
<trkpt lat="47.721729" lon="12.895182"><ele>530.2</ele></trkpt>
<trkpt lat="47.721621" lon="12.896038"><ele>531.5</ele></trkpt>
<trkpt lat="47.721730" lon="12.897264"><ele>534.5</ele></trkpt>
<trkpt lat="47.722229" lon="12.899246"><ele>535.0</ele></trkpt>
<trkpt lat="47.722229" lon="12.899246"><ele>535.0</ele></trkpt>
<trkpt lat="47.721111" lon="12.900607"><ele>538.8</ele></trkpt>
<trkpt lat="47.720319" lon="12.901365"><ele>539.0</ele></trkpt>
<trkpt lat="47.719944" lon="12.901454"><ele>541.0</ele></trkpt>
<trkpt lat="47.719345" lon="12.901194"><ele>543.2</ele></trkpt>
<trkpt lat="47.719032" lon="12.903228"><ele>542.0</ele></trkpt>
<trkpt lat="47.718902" lon="12.904634"><ele>534.7</ele></trkpt>
<trkpt lat="47.718314" lon="12.906634"><ele>538.2</ele></trkpt>
<trkpt lat="47.718067" lon="12.907380"><ele>545.1</ele></trkpt>
<trkpt lat="47.717809" lon="12.909395"><ele>548.9</ele></trkpt>
<trkpt lat="47.717360" lon="12.911387"><ele>556.0</ele></trkpt>
<trkpt lat="47.717240" lon="12.912294"><ele>557.2</ele></trkpt>
<trkpt lat="47.716405" lon="12.914123"><ele>561.1</ele></trkpt>
<trkpt lat="47.715539" lon="12.915889"><ele>568.0</ele></trkpt>
<trkpt lat="47.715296" lon="12.916445"><ele>570.6</ele></trkpt>
<trkpt lat="47.714555" lon="12.918259"><ele>584.5</ele></trkpt>
<trkpt lat="47.713821" lon="12.920217"><ele>591.5</ele></trkpt>
<trkpt lat="47.713167" lon="12.921802"><ele>593.5</ele></trkpt>
<trkpt lat="47.712486" lon="12.922821"><ele>598.0</ele></trkpt>
<trkpt lat="47.711247" lon="12.923944"><ele>607.6</ele></trkpt>
<trkpt lat="47.711010" lon="12.924141"><ele>607.1</ele></trkpt>
<trkpt lat="47.710357" lon="12.924460"><ele>610.6</ele></trkpt>
<trkpt lat="47.710165" lon="12.926078"><ele>620.4</ele></trkpt>
<trkpt lat="47.709493" lon="12.927662"><ele>632.4</ele></trkpt>
<trkpt lat="47.709183" lon="12.927877"><ele>644.6</ele></trkpt>
<trkpt lat="47.708199" lon="12.927977"><ele>658.0</ele></trkpt>
<trkpt lat="47.707469" lon="12.929520"><ele>677.6</ele></trkpt>
<trkpt lat="47.706082" lon="12.930128"><ele>681.1</ele></trkpt>
<trkpt lat="47.705527" lon="12.930357"><ele>685.1</ele></trkpt>
<trkpt lat="47.704410" lon="12.931718"><ele>699.8</ele></trkpt>
<trkpt lat="47.703786" lon="12.932457"><ele>700.2</ele></trkpt>
<trkpt lat="47.702561" lon="12.933349"><ele>697.9</ele></trkpt>
<trkpt lat="47.701403" lon="12.934005"><ele>701.7</ele></trkpt>
<trkpt lat="47.700857" lon="12.934811"><ele>705.6</ele></trkpt>
<trkpt lat="47.700440" lon="12.935018"><ele>699.9</ele></trkpt>
<trkpt lat="47.700343" lon="12.935454"><ele>696.8</ele></trkpt>
<trkpt lat="47.700094" lon="12.935312"><ele>693.2</ele></trkpt>
<trkpt lat="47.699588" lon="12.935723"><ele>685.6</ele></trkpt>
<trkpt lat="47.698578" lon="12.935997"><ele>685.2</ele></trkpt>
<trkpt lat="47.697526" lon="12.935857"><ele>690.1</ele></trkpt>
<trkpt lat="47.697586" lon="12.935643"><ele>694.1</ele></trkpt>
<trkpt lat="47.697427" lon="12.935630"><ele>694.3</ele></trkpt>
<trkpt lat="47.696051" lon="12.935838"><ele>689.9</ele></trkpt>
<trkpt lat="47.696000" lon="12.935852"><ele>689.7</ele></trkpt>
<trkpt lat="47.694733" lon="12.936692"><ele>703.4</ele></trkpt>
<trkpt lat="47.693931" lon="12.937355"><ele>708.2</ele></trkpt>
<trkpt lat="47.692458" lon="12.937853"><ele>701.1</ele></trkpt>
<trkpt lat="47.691137" lon="12.938470"><ele>701.1</ele></trkpt>
<trkpt lat="47.690835" lon="12.938558"><ele>700.6</ele></trkpt>
<trkpt lat="47.689437" lon="12.938402"><ele>680.9</ele></trkpt>
<trkpt lat="47.688047" lon="12.938150"><ele>681.3</ele></trkpt>
<trkpt lat="47.687718" lon="12.938089"><ele>681.0</ele></trkpt>
<trkpt lat="47.687586" lon="12.938911"><ele>678.4</ele></trkpt>
<trkpt lat="47.686095" lon="12.938511"><ele>678.4</ele></trkpt>
<trkpt lat="47.685202" lon="12.938191"><ele>682.5</ele></trkpt>
<trkpt lat="47.685246" lon="12.937791"><ele>684.8</ele></trkpt>
<trkpt lat="47.683761" lon="12.937338"><ele>682.6</ele></trkpt>
<trkpt lat="47.683364" lon="12.937213"><ele>680.4</ele></trkpt>
<trkpt lat="47.683093" lon="12.936822"><ele>681.0</ele></trkpt>
<trkpt lat="47.681697" lon="12.936251"><ele>686.8</ele></trkpt>
<trkpt lat="47.680447" lon="12.935598"><ele>682.8</ele></trkpt>
<trkpt lat="47.679422" lon="12.935711"><ele>677.1</ele></trkpt>
<trkpt lat="47.678104" lon="12.936405"><ele>669.3</ele></trkpt>
<trkpt lat="47.677626" lon="12.936625"><ele>667.4</ele></trkpt>
<trkpt lat="47.676384" lon="12.937527"><ele>667.0</ele></trkpt>
<trkpt lat="47.676267" lon="12.937594"><ele>668.0</ele></trkpt>
<trkpt lat="47.675478" lon="12.937707"><ele>670.7</ele></trkpt>
<trkpt lat="47.674662" lon="12.938243"><ele>668.0</ele></trkpt>
<trkpt lat="47.674008" lon="12.939042"><ele>668.5</ele></trkpt>
<trkpt lat="47.673236" lon="12.939152"><ele>666.5</ele></trkpt>
<trkpt lat="47.671987" lon="12.940289"><ele>659.6</ele></trkpt>
<trkpt lat="47.671658" lon="12.940558"><ele>659.9</ele></trkpt>
<trkpt lat="47.671668" lon="12.941379"><ele>660.0</ele></trkpt>
<trkpt lat="47.671214" lon="12.941794"><ele>658.5</ele></trkpt>
<trkpt lat="47.669929" lon="12.942583"><ele>652.4</ele></trkpt>
<trkpt lat="47.668737" lon="12.943199"><ele>650.5</ele></trkpt>
<trkpt lat="47.667526" lon="12.944122"><ele>651.8</ele></trkpt>
<trkpt lat="47.667458" lon="12.944203"><ele>651.8</ele></trkpt>
<trkpt lat="47.667106" lon="12.945195"><ele>648.8</ele></trkpt>
<trkpt lat="47.666988" lon="12.947416"><ele>645.1</ele></trkpt>
<trkpt lat="47.666951" lon="12.947923"><ele>642.5</ele></trkpt>
<trkpt lat="47.666353" lon="12.949542"><ele>644.8</ele></trkpt>
<trkpt lat="47.665427" lon="12.950871"><ele>639.4</ele></trkpt>
<trkpt lat="47.664254" lon="12.952141"><ele>639.5</ele></trkpt>
<trkpt lat="47.663951" lon="12.952515"><ele>637.3</ele></trkpt>
<trkpt lat="47.662623" lon="12.953382"><ele>636.0</ele></trkpt>
<trkpt lat="47.661415" lon="12.954268"><ele>635.5</ele></trkpt>
<trkpt lat="47.661411" lon="12.954270"><ele>635.5</ele></trkpt>
<trkpt lat="47.660024" lon="12.954878"><ele>627.1</ele></trkpt>
<trkpt lat="47.658612" lon="12.955463"><ele>627.3</ele></trkpt>
<trkpt lat="47.657222" lon="12.956106"><ele>628.1</ele></trkpt>
<trkpt lat="47.656807" lon="12.956318"><ele>629.4</ele></trkpt>
<trkpt lat="47.655657" lon="12.957696"><ele>620.8</ele></trkpt>
<trkpt lat="47.654641" lon="12.959011"><ele>620.3</ele></trkpt>
<trkpt lat="47.654421" lon="12.959339"><ele>619.8</ele></trkpt>
<trkpt lat="47.653093" lon="12.960295"><ele>616.1</ele></trkpt>
<trkpt lat="47.653013" lon="12.960347"><ele>616.3</ele></trkpt>
<trkpt lat="47.652089" lon="12.960768"><ele>617.0</ele></trkpt>
<trkpt lat="47.651992" lon="12.960475"><ele>614.6</ele></trkpt>
<trkpt lat="47.651606" lon="12.960620"><ele>615.4</ele></trkpt>
<trkpt lat="47.650761" lon="12.961257"><ele>613.1</ele></trkpt>
<trkpt lat="47.650636" lon="12.960998"><ele>614.4</ele></trkpt>
<trkpt lat="47.649521" lon="12.961923"><ele>619.1</ele></trkpt>
<trkpt lat="47.648950" lon="12.962405"><ele>624.2</ele></trkpt>
<trkpt lat="47.648711" lon="12.961860"><ele>626.7</ele></trkpt>
<trkpt lat="47.648463" lon="12.961756"><ele>628.9</ele></trkpt>
<trkpt lat="47.647418" lon="12.962161"><ele>635.7</ele></trkpt>
<trkpt lat="47.646288" lon="12.963309"><ele>631.2</ele></trkpt>
<trkpt lat="47.645026" lon="12.964424"><ele>625.1</ele></trkpt>
<trkpt lat="47.644680" lon="12.964706"><ele>622.2</ele></trkpt>
<trkpt lat="47.643598" lon="12.964795"><ele>618.0</ele></trkpt>
<trkpt lat="47.642704" lon="12.963884"><ele>619.3</ele></trkpt>
<trkpt lat="47.641472" lon="12.963205"><ele>621.5</ele></trkpt>
<trkpt lat="47.640615" lon="12.963568"><ele>618.4</ele></trkpt>
<trkpt lat="47.639105" lon="12.963304"><ele>618.5</ele></trkpt>
<trkpt lat="47.638608" lon="12.963190"><ele>616.0</ele></trkpt>
<trkpt lat="47.637649" lon="12.963771"><ele>618.0</ele></trkpt>
<trkpt lat="47.636290" lon="12.964010"><ele>613.8</ele></trkpt>
<trkpt lat="47.634883" lon="12.964591"><ele>609.6</ele></trkpt>
<trkpt lat="47.634161" lon="12.965049"><ele>609.9</ele></trkpt>
<trkpt lat="47.633121" lon="12.965295"><ele>611.7</ele></trkpt>
<trkpt lat="47.632617" lon="12.965154"><ele>618.3</ele></trkpt>
<trkpt lat="47.631653" lon="12.964444"><ele>618.9</ele></trkpt>
<trkpt lat="47.630870" lon="12.966111"><ele>616.3</ele></trkpt>
<trkpt lat="47.630706" lon="12.966515"><ele>616.2</ele></trkpt>
<trkpt lat="47.629377" lon="12.967515"><ele>632.2</ele></trkpt>
<trkpt lat="47.629010" lon="12.967759"><ele>634.3</ele></trkpt>
<trkpt lat="47.628223" lon="12.967845"><ele>626.0</ele></trkpt>
<trkpt lat="47.627120" lon="12.966672"><ele>626.4</ele></trkpt>
<trkpt lat="47.627071" lon="12.966622"><ele>626.6</ele></trkpt>
<trkpt lat="47.626512" lon="12.964996"><ele>628.6</ele></trkpt>
<trkpt lat="47.626540" lon="12.964260"><ele>626.6</ele></trkpt>
<trkpt lat="47.626129" lon="12.963769"><ele>629.4</ele></trkpt>
<trkpt lat="47.625460" lon="12.963840"><ele>633.2</ele></trkpt>
<trkpt lat="47.625278" lon="12.964403"><ele>634.0</ele></trkpt>
<trkpt lat="47.624987" lon="12.964553"><ele>633.6</ele></trkpt>
<trkpt lat="47.624156" lon="12.964342"><ele>630.7</ele></trkpt>
<trkpt lat="47.623033" lon="12.964904"><ele>629.1</ele></trkpt>
<trkpt lat="47.623023" lon="12.964738"><ele>629.0</ele></trkpt>
<trkpt lat="47.621691" lon="12.965560"><ele>625.2</ele></trkpt>
<trkpt lat="47.621353" lon="12.965782"><ele>624.2</ele></trkpt>
<trkpt lat="47.620446" lon="12.964000"><ele>641.5</ele></trkpt>
<trkpt lat="47.620252" lon="12.963695"><ele>641.1</ele></trkpt>
<trkpt lat="47.618980" lon="12.962808"><ele>649.1</ele></trkpt>
<trkpt lat="47.618827" lon="12.962608"><ele>647.1</ele></trkpt>
<trkpt lat="47.618482" lon="12.961881"><ele>639.4</ele></trkpt>
<trkpt lat="47.618106" lon="12.960184"><ele>658.6</ele></trkpt>
<trkpt lat="47.618089" lon="12.959314"><ele>677.4</ele></trkpt>
<trkpt lat="47.618639" lon="12.957794"><ele>695.6</ele></trkpt>
<trkpt lat="47.619315" lon="12.956505"><ele>704.2</ele></trkpt>
<trkpt lat="47.619197" lon="12.954376"><ele>680.0</ele></trkpt>
<trkpt lat="47.619188" lon="12.954201"><ele>678.7</ele></trkpt>
<trkpt lat="47.618794" lon="12.952055"><ele>686.5</ele></trkpt>
<trkpt lat="47.618633" lon="12.951616"><ele>693.9</ele></trkpt>
<trkpt lat="47.618002" lon="12.950933"><ele>689.8</ele></trkpt>
<trkpt lat="47.617107" lon="12.951265"><ele>666.4</ele></trkpt>
<trkpt lat="47.616895" lon="12.950457"><ele>658.6</ele></trkpt>
<trkpt lat="47.616565" lon="12.950102"><ele>649.7</ele></trkpt>
<trkpt lat="47.616621" lon="12.949467"><ele>654.6</ele></trkpt>
<trkpt lat="47.616406" lon="12.949024"><ele>646.8</ele></trkpt>
<trkpt lat="47.615915" lon="12.948367"><ele>633.8</ele></trkpt>
<trkpt lat="47.615590" lon="12.948504"><ele>628.3</ele></trkpt>
<trkpt lat="47.614780" lon="12.949520"><ele>618.3</ele></trkpt>
<trkpt lat="47.614798" lon="12.950495"><ele>612.3</ele></trkpt>
<trkpt lat="47.615219" lon="12.952162"><ele>592.5</ele></trkpt>
<trkpt lat="47.614862" lon="12.952216"><ele>585.1</ele></trkpt>
<trkpt lat="47.614656" lon="12.953501"><ele>582.7</ele></trkpt>
<trkpt lat="47.614184" lon="12.951926"><ele>582.0</ele></trkpt>
<trkpt lat="47.614019" lon="12.949811"><ele>589.4</ele></trkpt>
<trkpt lat="47.613743" lon="12.947640"><ele>588.6</ele></trkpt>
<trkpt lat="47.613721" lon="12.947477"><ele>589.6</ele></trkpt>
<trkpt lat="47.613327" lon="12.946310"><ele>590.1</ele></trkpt>
<trkpt lat="47.612821" lon="12.945443"><ele>590.1</ele></trkpt>
<trkpt lat="47.611479" lon="12.944545"><ele>591.7</ele></trkpt>
<trkpt lat="47.610974" lon="12.944062"><ele>593.5</ele></trkpt>
<trkpt lat="47.610299" lon="12.942194"><ele>602.4</ele></trkpt>
<trkpt lat="47.609935" lon="12.941053"><ele>609.5</ele></trkpt>
<trkpt lat="47.609242" lon="12.940267"><ele>614.9</ele></trkpt>
<trkpt lat="47.608720" lon="12.939154"><ele>619.1</ele></trkpt>
<trkpt lat="47.607581" lon="12.937805"><ele>618.9</ele></trkpt>
<trkpt lat="47.606742" lon="12.936826"><ele>636.7</ele></trkpt>
<trkpt lat="47.606094" lon="12.935774"><ele>635.7</ele></trkpt>
<trkpt lat="47.605004" lon="12.935059"><ele>631.9</ele></trkpt>
<trkpt lat="47.604144" lon="12.933276"><ele>643.1</ele></trkpt>
<trkpt lat="47.603733" lon="12.932242"><ele>642.7</ele></trkpt>
<trkpt lat="47.603378" lon="12.930788"><ele>651.2</ele></trkpt>
<trkpt lat="47.602615" lon="12.929093"><ele>630.1</ele></trkpt>
<trkpt lat="47.602503" lon="12.928702"><ele>630.3</ele></trkpt>
<trkpt lat="47.602942" lon="12.926589"><ele>632.5</ele></trkpt>
<trkpt lat="47.603110" lon="12.925581"><ele>637.8</ele></trkpt>
<trkpt lat="47.603218" lon="12.924687"><ele>632.0</ele></trkpt>
<trkpt lat="47.603081" lon="12.924704"><ele>631.0</ele></trkpt>
<trkpt lat="47.603282" lon="12.923346"><ele>636.6</ele></trkpt>
<trkpt lat="47.603711" lon="12.921415"><ele>637.3</ele></trkpt>
<trkpt lat="47.604261" lon="12.919532"><ele>635.9</ele></trkpt>
<trkpt lat="47.604385" lon="12.918888"><ele>634.2</ele></trkpt>
<trkpt lat="47.604548" lon="12.916919"><ele>636.6</ele></trkpt>
<trkpt lat="47.604273" lon="12.914973"><ele>643.7</ele></trkpt>
<trkpt lat="47.604883" lon="12.913172"><ele>644.2</ele></trkpt>
<trkpt lat="47.605465" lon="12.911134"><ele>645.0</ele></trkpt>
<trkpt lat="47.605472" lon="12.911113"><ele>645.1</ele></trkpt>
<trkpt lat="47.605403" lon="12.910106"><ele>647.3</ele></trkpt>
<trkpt lat="47.605522" lon="12.909365"><ele>647.8</ele></trkpt>
<trkpt lat="47.605986" lon="12.907423"><ele>652.1</ele></trkpt>
<trkpt lat="47.606111" lon="12.907014"><ele>650.5</ele></trkpt>
<trkpt lat="47.606508" lon="12.904889"><ele>650.1</ele></trkpt>
<trkpt lat="47.606878" lon="12.902806"><ele>653.2</ele></trkpt>
<trkpt lat="47.607064" lon="12.901799"><ele>656.2</ele></trkpt>
<trkpt lat="47.607848" lon="12.900163"><ele>658.0</ele></trkpt>
<trkpt lat="47.607895" lon="12.899904"><ele>660.5</ele></trkpt>
<trkpt lat="47.607790" lon="12.898179"><ele>661.2</ele></trkpt>
<trkpt lat="47.607484" lon="12.896223"><ele>666.0</ele></trkpt>
<trkpt lat="47.607253" lon="12.894898"><ele>669.9</ele></trkpt>
<trkpt lat="47.607307" lon="12.892844"><ele>672.7</ele></trkpt>
<trkpt lat="47.607336" lon="12.892333"><ele>675.4</ele></trkpt>
<trkpt lat="47.607128" lon="12.890239"><ele>675.2</ele></trkpt>
<trkpt lat="47.607127" lon="12.890182"><ele>675.4</ele></trkpt>
<trkpt lat="47.607244" lon="12.888564"><ele>682.7</ele></trkpt>
<trkpt lat="47.607839" lon="12.886879"><ele>695.6</ele></trkpt>
<trkpt lat="47.608070" lon="12.884834"><ele>692.2</ele></trkpt>
<trkpt lat="47.608235" lon="12.883869"><ele>694.2</ele></trkpt>
<trkpt lat="47.608578" lon="12.882923"><ele>702.6</ele></trkpt>
<trkpt lat="47.608836" lon="12.882867"><ele>717.4</ele></trkpt>
<trkpt lat="47.609013" lon="12.881548"><ele>710.2</ele></trkpt>
<trkpt lat="47.609709" lon="12.879833"><ele>722.7</ele></trkpt>
<trkpt lat="47.609874" lon="12.879422"><ele>727.8</ele></trkpt>
<trkpt lat="47.610156" lon="12.877908"><ele>738.1</ele></trkpt>
<trkpt lat="47.610146" lon="12.876761"><ele>738.9</ele></trkpt>
<trkpt lat="47.610315" lon="12.876526"><ele>743.0</ele></trkpt>
<trkpt lat="47.610690" lon="12.876376"><ele>750.6</ele></trkpt>
<trkpt lat="47.611097" lon="12.876707"><ele>755.1</ele></trkpt>
<trkpt lat="47.612182" lon="12.876804"><ele>767.4</ele></trkpt>
<trkpt lat="47.612616" lon="12.878675"><ele>773.0</ele></trkpt>
<trkpt lat="47.612651" lon="12.878768"><ele>772.4</ele></trkpt>
<trkpt lat="47.613081" lon="12.878999"><ele>772.6</ele></trkpt>
<trkpt lat="47.614201" lon="12.877926"><ele>780.8</ele></trkpt>
<trkpt lat="47.614796" lon="12.877667"><ele>781.6</ele></trkpt>
<trkpt lat="47.615623" lon="12.876073"><ele>785.7</ele></trkpt>
<trkpt lat="47.614981" lon="12.874235"><ele>787.2</ele></trkpt>
<trkpt lat="47.614796" lon="12.873314"><ele>790.0</ele></trkpt>
<trkpt lat="47.614143" lon="12.872789"><ele>793.3</ele></trkpt>
<trkpt lat="47.613959" lon="12.872283"><ele>796.6</ele></trkpt>
<trkpt lat="47.613726" lon="12.870269"><ele>802.8</ele></trkpt>
<trkpt lat="47.613712" lon="12.869904"><ele>804.1</ele></trkpt>
<trkpt lat="47.613899" lon="12.867744"><ele>815.4</ele></trkpt>
<trkpt lat="47.613953" lon="12.867133"><ele>822.8</ele></trkpt>
<trkpt lat="47.613883" lon="12.865235"><ele>827.2</ele></trkpt>
<trkpt lat="47.613482" lon="12.863162"><ele>839.7</ele></trkpt>
<trkpt lat="47.613481" lon="12.863156"><ele>839.7</ele></trkpt>
<trkpt lat="47.612735" lon="12.861242"><ele>844.3</ele></trkpt>
<trkpt lat="47.612648" lon="12.861036"><ele>844.9</ele></trkpt>
<trkpt lat="47.612030" lon="12.860491"><ele>834.2</ele></trkpt>
<trkpt lat="47.611509" lon="12.860857"><ele>831.8</ele></trkpt>
<trkpt lat="47.611083" lon="12.860733"><ele>822.8</ele></trkpt>
<trkpt lat="47.610282" lon="12.860889"><ele>824.6</ele></trkpt>
<trkpt lat="47.610227" lon="12.860000"><ele>819.8</ele></trkpt>
<trkpt lat="47.609804" lon="12.859338"><ele>811.3</ele></trkpt>
<trkpt lat="47.609609" lon="12.857916"><ele>806.6</ele></trkpt>
<trkpt lat="47.609256" lon="12.857056"><ele>809.1</ele></trkpt>
<trkpt lat="47.609033" lon="12.855048"><ele>807.0</ele></trkpt>
<trkpt lat="47.608765" lon="12.853239"><ele>796.3</ele></trkpt>
<trkpt lat="47.607632" lon="12.852047"><ele>797.6</ele></trkpt>
<trkpt lat="47.607296" lon="12.851819"><ele>797.2</ele></trkpt>
<trkpt lat="47.606249" lon="12.850499"><ele>795.7</ele></trkpt>
<trkpt lat="47.605978" lon="12.850030"><ele>794.5</ele></trkpt>
<trkpt lat="47.604741" lon="12.849797"><ele>791.7</ele></trkpt>
<trkpt lat="47.603825" lon="12.848312"><ele>792.7</ele></trkpt>
<trkpt lat="47.603618" lon="12.848063"><ele>792.0</ele></trkpt>
<trkpt lat="47.602555" lon="12.847483"><ele>797.4</ele></trkpt>
<trkpt lat="47.602097" lon="12.846763"><ele>799.7</ele></trkpt>
<trkpt lat="47.601723" lon="12.846817"><ele>796.0</ele></trkpt>
<trkpt lat="47.601457" lon="12.846177"><ele>795.9</ele></trkpt>
<trkpt lat="47.600438" lon="12.844860"><ele>795.7</ele></trkpt>
<trkpt lat="47.600212" lon="12.844560"><ele>796.2</ele></trkpt>
<trkpt lat="47.599158" lon="12.843284"><ele>797.5</ele></trkpt>
<trkpt lat="47.598008" lon="12.842054"><ele>810.6</ele></trkpt>
<trkpt lat="47.597677" lon="12.841580"><ele>808.8</ele></trkpt>
<trkpt lat="47.596841" lon="12.839984"><ele>807.3</ele></trkpt>
<trkpt lat="47.596639" lon="12.839590"><ele>806.7</ele></trkpt>
<trkpt lat="47.595602" lon="12.838149"><ele>816.3</ele></trkpt>
<trkpt lat="47.594794" lon="12.837063"><ele>819.3</ele></trkpt>
<trkpt lat="47.594505" lon="12.835937"><ele>821.2</ele></trkpt>
<trkpt lat="47.593546" lon="12.834494"><ele>821.9</ele></trkpt>
<trkpt lat="47.593304" lon="12.834081"><ele>823.1</ele></trkpt>
<trkpt lat="47.592137" lon="12.832793"><ele>830.2</ele></trkpt>
<trkpt lat="47.591621" lon="12.832117"><ele>830.4</ele></trkpt>
<trkpt lat="47.590302" lon="12.831665"><ele>824.1</ele></trkpt>
<trkpt lat="47.590279" lon="12.831656"><ele>824.0</ele></trkpt>
<trkpt lat="47.589407" lon="12.830915"><ele>829.2</ele></trkpt>
<trkpt lat="47.588504" lon="12.829272"><ele>837.5</ele></trkpt>
<trkpt lat="47.588279" lon="12.828882"><ele>840.0</ele></trkpt>
<trkpt lat="47.587294" lon="12.827750"><ele>837.3</ele></trkpt>
<trkpt lat="47.585989" lon="12.826755"><ele>837.9</ele></trkpt>
<trkpt lat="47.585728" lon="12.826484"><ele>839.3</ele></trkpt>
<trkpt lat="47.584660" lon="12.825079"><ele>847.3</ele></trkpt>
<trkpt lat="47.584577" lon="12.824988"><ele>848.0</ele></trkpt>
<trkpt lat="47.584027" lon="12.823400"><ele>846.5</ele></trkpt>
<trkpt lat="47.583770" lon="12.822043"><ele>859.4</ele></trkpt>
<trkpt lat="47.582831" lon="12.820489"><ele>862.5</ele></trkpt>
<trkpt lat="47.582663" lon="12.820235"><ele>863.6</ele></trkpt>
<trkpt lat="47.581717" lon="12.819046"><ele>863.6</ele></trkpt>
<trkpt lat="47.581163" lon="12.817118"><ele>880.3</ele></trkpt>
<trkpt lat="47.580680" lon="12.815418"><ele>898.5</ele></trkpt>
<trkpt lat="47.580758" lon="12.813894"><ele>910.6</ele></trkpt>
<trkpt lat="47.580337" lon="12.812035"><ele>925.7</ele></trkpt>
<trkpt lat="47.580126" lon="12.810643"><ele>935.4</ele></trkpt>
<trkpt lat="47.579866" lon="12.810316"><ele>938.2</ele></trkpt>
<trkpt lat="47.579417" lon="12.809104"><ele>936.6</ele></trkpt>
<trkpt lat="47.578337" lon="12.807931"><ele>950.0</ele></trkpt>
<trkpt lat="47.577074" lon="12.807219"><ele>950.5</ele></trkpt>
<trkpt lat="47.576895" lon="12.807124"><ele>952.5</ele></trkpt>
<trkpt lat="47.575802" lon="12.805896"><ele>953.2</ele></trkpt>
<trkpt lat="47.575370" lon="12.805452"><ele>957.2</ele></trkpt>
<trkpt lat="47.575235" lon="12.804473"><ele>971.9</ele></trkpt>
<trkpt lat="47.574419" lon="12.802762"><ele>966.6</ele></trkpt>
<trkpt lat="47.574228" lon="12.802130"><ele>965.2</ele></trkpt>
<trkpt lat="47.573302" lon="12.800773"><ele>964.5</ele></trkpt>
<trkpt lat="47.572289" lon="12.800581"><ele>971.3</ele></trkpt>
<trkpt lat="47.571003" lon="12.799861"><ele>984.1</ele></trkpt>
<trkpt lat="47.570851" lon="12.799805"><ele>987.8</ele></trkpt>
<trkpt lat="47.570714" lon="12.799432"><ele>998.9</ele></trkpt>
<trkpt lat="47.570903" lon="12.799063"><ele>1000.3</ele></trkpt>
<trkpt lat="47.570825" lon="12.798847"><ele>1006.3</ele></trkpt>
<trkpt lat="47.570000" lon="12.799565"><ele>1033.4</ele></trkpt>
<trkpt lat="47.569239" lon="12.800715"><ele>1051.7</ele></trkpt>
<trkpt lat="47.568673" lon="12.800914"><ele>1061.0</ele></trkpt>
<trkpt lat="47.567418" lon="12.800000"><ele>1054.8</ele></trkpt>
<trkpt lat="47.566125" lon="12.799165"><ele>1061.9</ele></trkpt>
<trkpt lat="47.566108" lon="12.799157"><ele>1062.2</ele></trkpt>
<trkpt lat="47.565351" lon="12.799016"><ele>1064.5</ele></trkpt>
<trkpt lat="47.564870" lon="12.799212"><ele>1065.1</ele></trkpt>
<trkpt lat="47.563529" lon="12.798905"><ele>1062.8</ele></trkpt>
<trkpt lat="47.563306" lon="12.798848"><ele>1065.3</ele></trkpt>
<trkpt lat="47.562242" lon="12.798065"><ele>1074.5</ele></trkpt>
<trkpt lat="47.561183" lon="12.797920"><ele>1079.1</ele></trkpt>
<trkpt lat="47.560105" lon="12.798239"><ele>1087.2</ele></trkpt>
<trkpt lat="47.558997" lon="12.798079"><ele>1094.5</ele></trkpt>
<trkpt lat="47.557967" lon="12.797505"><ele>1114.6</ele></trkpt>
<trkpt lat="47.556629" lon="12.797164"><ele>1140.9</ele></trkpt>
<trkpt lat="47.556566" lon="12.797133"><ele>1143.0</ele></trkpt>
<trkpt lat="47.556245" lon="12.796429"><ele>1151.3</ele></trkpt>
<trkpt lat="47.555721" lon="12.796091"><ele>1149.9</ele></trkpt>
<trkpt lat="47.555051" lon="12.794682"><ele>1162.1</ele></trkpt>
<trkpt lat="47.554566" lon="12.794400"><ele>1172.1</ele></trkpt>
<trkpt lat="47.553772" lon="12.794326"><ele>1183.4</ele></trkpt>
<trkpt lat="47.552448" lon="12.794848"><ele>1181.6</ele></trkpt>
<trkpt lat="47.552054" lon="12.794988"><ele>1176.1</ele></trkpt>
<trkpt lat="47.550668" lon="12.795774"><ele>1163.4</ele></trkpt>
<trkpt lat="47.550476" lon="12.795883"><ele>1163.5</ele></trkpt>
<trkpt lat="47.549869" lon="12.796336"><ele>1164.3</ele></trkpt>
<trkpt lat="47.549510" lon="12.796969"><ele>1170.6</ele></trkpt>
<trkpt lat="47.549180" lon="12.797104"><ele>1173.3</ele></trkpt>
<trkpt lat="47.548756" lon="12.796947"><ele>1156.8</ele></trkpt>
<trkpt lat="47.547378" lon="12.797111"><ele>1156.4</ele></trkpt>
<trkpt lat="47.546000" lon="12.797184"><ele>1136.0</ele></trkpt>
<trkpt lat="47.544892" lon="12.796577"><ele>1117.4</ele></trkpt>
<trkpt lat="47.543707" lon="12.795498"><ele>1093.3</ele></trkpt>
<trkpt lat="47.543414" lon="12.795175"><ele>1077.6</ele></trkpt>
<trkpt lat="47.542744" lon="12.794901"><ele>1077.7</ele></trkpt>
<trkpt lat="47.541754" lon="12.793800"><ele>1064.0</ele></trkpt>
<trkpt lat="47.541094" lon="12.793448"><ele>1049.9</ele></trkpt>
<trkpt lat="47.539796" lon="12.794065"><ele>1027.0</ele></trkpt>
<trkpt lat="47.538704" lon="12.794602"><ele>999.6</ele></trkpt>
<trkpt lat="47.538285" lon="12.795172"><ele>989.3</ele></trkpt>
<trkpt lat="47.538000" lon="12.795147"><ele>987.2</ele></trkpt>
<trkpt lat="47.537912" lon="12.794837"><ele>994.5</ele></trkpt>
<trkpt lat="47.538061" lon="12.794374"><ele>993.9</ele></trkpt>
<trkpt lat="47.538625" lon="12.793692"><ele>1000.9</ele></trkpt>
<trkpt lat="47.538719" lon="12.792857"><ele>1011.2</ele></trkpt>
<trkpt lat="47.539060" lon="12.792364"><ele>1000.4</ele></trkpt>
<trkpt lat="47.538192" lon="12.790843"><ele>996.7</ele></trkpt>
<trkpt lat="47.538778" lon="12.789703"><ele>983.2</ele></trkpt>
<trkpt lat="47.538491" lon="12.788773"><ele>977.6</ele></trkpt>
<trkpt lat="47.537609" lon="12.788252"><ele>984.0</ele></trkpt>
<trkpt lat="47.537698" lon="12.786079"><ele>953.4</ele></trkpt>
<trkpt lat="47.537697" lon="12.785613"><ele>948.6</ele></trkpt>
<trkpt lat="47.537100" lon="12.784724"><ele>948.0</ele></trkpt>
<trkpt lat="47.536523" lon="12.782810"><ele>929.9</ele></trkpt>
<trkpt lat="47.535983" lon="12.780808"><ele>921.1</ele></trkpt>
<trkpt lat="47.535822" lon="12.780400"><ele>917.9</ele></trkpt>
<trkpt lat="47.534770" lon="12.778958"><ele>906.8</ele></trkpt>
<trkpt lat="47.533674" lon="12.777671"><ele>903.6</ele></trkpt>
<trkpt lat="47.532715" lon="12.776465"><ele>905.3</ele></trkpt>
<trkpt lat="47.532018" lon="12.774621"><ele>899.1</ele></trkpt>
<trkpt lat="47.531944" lon="12.774527"><ele>900.0</ele></trkpt>
<trkpt lat="47.531390" lon="12.774430"><ele>896.3</ele></trkpt>
<trkpt lat="47.530831" lon="12.773872"><ele>893.0</ele></trkpt>
<trkpt lat="47.529564" lon="12.773153"><ele>899.2</ele></trkpt>
<trkpt lat="47.528911" lon="12.772746"><ele>896.8</ele></trkpt>
<trkpt lat="47.527931" lon="12.771428"><ele>883.2</ele></trkpt>
<trkpt lat="47.527229" lon="12.771487"><ele>879.1</ele></trkpt>
<trkpt lat="47.526829" lon="12.770251"><ele>862.8</ele></trkpt>
<trkpt lat="47.525987" lon="12.770036"><ele>849.0</ele></trkpt>
<trkpt lat="47.525536" lon="12.770226"><ele>852.0</ele></trkpt>
<trkpt lat="47.525526" lon="12.769903"><ele>844.3</ele></trkpt>
<trkpt lat="47.525883" lon="12.769614"><ele>836.9</ele></trkpt>
<trkpt lat="47.525945" lon="12.769349"><ele>829.8</ele></trkpt>
<trkpt lat="47.525424" lon="12.769072"><ele>831.0</ele></trkpt>
<trkpt lat="47.525229" lon="12.768185"><ele>819.6</ele></trkpt>
<trkpt lat="47.524877" lon="12.767543"><ele>823.5</ele></trkpt>
<trkpt lat="47.525221" lon="12.766760"><ele>804.1</ele></trkpt>
<trkpt lat="47.525315" lon="12.764720"><ele>791.1</ele></trkpt>
<trkpt lat="47.524335" lon="12.763243"><ele>798.2</ele></trkpt>
<trkpt lat="47.524007" lon="12.761281"><ele>786.6</ele></trkpt>
<trkpt lat="47.523252" lon="12.760632"><ele>787.8</ele></trkpt>
<trkpt lat="47.523294" lon="12.759524"><ele>774.3</ele></trkpt>
<trkpt lat="47.523160" lon="12.758815"><ele>760.9</ele></trkpt>
<trkpt lat="47.522747" lon="12.758245"><ele>762.8</ele></trkpt>
<trkpt lat="47.522285" lon="12.758017"><ele>751.7</ele></trkpt>
<trkpt lat="47.520917" lon="12.758117"><ele>724.3</ele></trkpt>
<trkpt lat="47.520077" lon="12.758185"><ele>723.3</ele></trkpt>
<trkpt lat="47.520131" lon="12.757886"><ele>715.0</ele></trkpt>
<trkpt lat="47.520983" lon="12.757641"><ele>708.3</ele></trkpt>
<trkpt lat="47.521052" lon="12.757447"><ele>705.1</ele></trkpt>
<trkpt lat="47.520177" lon="12.756980"><ele>701.2</ele></trkpt>
<trkpt lat="47.519438" lon="12.755145"><ele>668.5</ele></trkpt>
<trkpt lat="47.519243" lon="12.754640"><ele>666.5</ele></trkpt>
<trkpt lat="47.519736" lon="12.754265"><ele>666.0</ele></trkpt>
<trkpt lat="47.519717" lon="12.753815"><ele>665.0</ele></trkpt>
<trkpt lat="47.520343" lon="12.752894"><ele>664.8</ele></trkpt>
<trkpt lat="47.520211" lon="12.752255"><ele>664.8</ele></trkpt>
<trkpt lat="47.520549" lon="12.751380"><ele>663.0</ele></trkpt>
<trkpt lat="47.521340" lon="12.750471"><ele>661.9</ele></trkpt>
<trkpt lat="47.521590" lon="12.750542"><ele>662.0</ele></trkpt>
<trkpt lat="47.522156" lon="12.748704"><ele>661.5</ele></trkpt>
<trkpt lat="47.522475" lon="12.747925"><ele>661.4</ele></trkpt>
<trkpt lat="47.523598" lon="12.746704"><ele>664.1</ele></trkpt>
<trkpt lat="47.524153" lon="12.746058"><ele>662.4</ele></trkpt>
<trkpt lat="47.524766" lon="12.744988"><ele>660.3</ele></trkpt>
<trkpt lat="47.525412" lon="12.743144"><ele>659.4</ele></trkpt>
<trkpt lat="47.526053" lon="12.741231"><ele>665.2</ele></trkpt>
<trkpt lat="47.526332" lon="12.740398"><ele>663.5</ele></trkpt>
<trkpt lat="47.526539" lon="12.738656"><ele>671.7</ele></trkpt>
<trkpt lat="47.527010" lon="12.737310"><ele>679.0</ele></trkpt>
<trkpt lat="47.527545" lon="12.736426"><ele>678.9</ele></trkpt>
<trkpt lat="47.528398" lon="12.735530"><ele>669.6</ele></trkpt>
<trkpt lat="47.529224" lon="12.733771"><ele>689.1</ele></trkpt>
<trkpt lat="47.529578" lon="12.732750"><ele>687.4</ele></trkpt>
<trkpt lat="47.530104" lon="12.732121"><ele>681.6</ele></trkpt>
<trkpt lat="47.530558" lon="12.731130"><ele>690.8</ele></trkpt>
<trkpt lat="47.531763" lon="12.729876"><ele>691.4</ele></trkpt>
<trkpt lat="47.531826" lon="12.729759"><ele>691.2</ele></trkpt>
<trkpt lat="47.532315" lon="12.728254"><ele>687.5</ele></trkpt>
<trkpt lat="47.532443" lon="12.727021"><ele>695.0</ele></trkpt>
<trkpt lat="47.532802" lon="12.726358"><ele>687.4</ele></trkpt>
<trkpt lat="47.532877" lon="12.725880"><ele>692.6</ele></trkpt>
<trkpt lat="47.533822" lon="12.725008"><ele>687.3</ele></trkpt>
<trkpt lat="47.534730" lon="12.723490"><ele>678.3</ele></trkpt>
<trkpt lat="47.534956" lon="12.722924"><ele>682.9</ele></trkpt>
<trkpt lat="47.536149" lon="12.721751"><ele>669.1</ele></trkpt>
<trkpt lat="47.536409" lon="12.721484"><ele>665.9</ele></trkpt>
<trkpt lat="47.536498" lon="12.720638"><ele>673.3</ele></trkpt>
<trkpt lat="47.536775" lon="12.720064"><ele>675.0</ele></trkpt>
<trkpt lat="47.538058" lon="12.719507"><ele>674.5</ele></trkpt>
<trkpt lat="47.539050" lon="12.718960"><ele>676.6</ele></trkpt>
<trkpt lat="47.540408" lon="12.719194"><ele>672.3</ele></trkpt>
<trkpt lat="47.541395" lon="12.719305"><ele>669.4</ele></trkpt>
<trkpt lat="47.542859" lon="12.719177"><ele>659.7</ele></trkpt>
<trkpt lat="47.543754" lon="12.719156"><ele>659.7</ele></trkpt>
<trkpt lat="47.544633" lon="12.719316"><ele>664.5</ele></trkpt>
<trkpt lat="47.545292" lon="12.719060"><ele>672.5</ele></trkpt>
<trkpt lat="47.546688" lon="12.719856"><ele>660.9</ele></trkpt>
<trkpt lat="47.548075" lon="12.720527"><ele>653.1</ele></trkpt>
<trkpt lat="47.548629" lon="12.720983"><ele>651.2</ele></trkpt>
<trkpt lat="47.549511" lon="12.721229"><ele>654.2</ele></trkpt>
<trkpt lat="47.550617" lon="12.721919"><ele>652.7</ele></trkpt>
<trkpt lat="47.551645" lon="12.722129"><ele>668.8</ele></trkpt>
<trkpt lat="47.553070" lon="12.722814"><ele>657.3</ele></trkpt>
<trkpt lat="47.553911" lon="12.723060"><ele>651.7</ele></trkpt>
<trkpt lat="47.555230" lon="12.723878"><ele>644.8</ele></trkpt>
<trkpt lat="47.555311" lon="12.723936"><ele>644.9</ele></trkpt>
<trkpt lat="47.556271" lon="12.722202"><ele>640.1</ele></trkpt>
<trkpt lat="47.557138" lon="12.720448"><ele>648.8</ele></trkpt>
<trkpt lat="47.557778" lon="12.719197"><ele>663.3</ele></trkpt>
<trkpt lat="47.558963" lon="12.718026"><ele>646.3</ele></trkpt>
<trkpt lat="47.560093" lon="12.717085"><ele>653.5</ele></trkpt>
<trkpt lat="47.561022" lon="12.715443"><ele>641.4</ele></trkpt>
<trkpt lat="47.561475" lon="12.714829"><ele>636.9</ele></trkpt>
<trkpt lat="47.562845" lon="12.713889"><ele>640.3</ele></trkpt>
<trkpt lat="47.563393" lon="12.713536"><ele>635.8</ele></trkpt>
<trkpt lat="47.563504" lon="12.712832"><ele>638.9</ele></trkpt>
<trkpt lat="47.564253" lon="12.711650"><ele>636.0</ele></trkpt>
<trkpt lat="47.564914" lon="12.709817"><ele>636.7</ele></trkpt>
<trkpt lat="47.565358" lon="12.707795"><ele>635.7</ele></trkpt>
<trkpt lat="47.565530" lon="12.706830"><ele>635.8</ele></trkpt>
<trkpt lat="47.565925" lon="12.705852"><ele>633.7</ele></trkpt>
<trkpt lat="47.567169" lon="12.704938"><ele>631.3</ele></trkpt>
<trkpt lat="47.567673" lon="12.704489"><ele>629.8</ele></trkpt>
<trkpt lat="47.569023" lon="12.703696"><ele>629.0</ele></trkpt>
<trkpt lat="47.570333" lon="12.702767"><ele>631.0</ele></trkpt>
<trkpt lat="47.571571" lon="12.701967"><ele>625.7</ele></trkpt>
<trkpt lat="47.572892" lon="12.701119"><ele>632.5</ele></trkpt>
<trkpt lat="47.573790" lon="12.700571"><ele>630.8</ele></trkpt>
<trkpt lat="47.574983" lon="12.699608"><ele>628.9</ele></trkpt>
<trkpt lat="47.575698" lon="12.699135"><ele>628.5</ele></trkpt>
<trkpt lat="47.576566" lon="12.698919"><ele>628.4</ele></trkpt>
<trkpt lat="47.577922" lon="12.699032"><ele>626.5</ele></trkpt>
<trkpt lat="47.579079" lon="12.699092"><ele>624.7</ele></trkpt>
<trkpt lat="47.580587" lon="12.698997"><ele>627.9</ele></trkpt>
<trkpt lat="47.580778" lon="12.698975"><ele>627.2</ele></trkpt>
<trkpt lat="47.580898" lon="12.698257"><ele>628.7</ele></trkpt>
<trkpt lat="47.582394" lon="12.697881"><ele>624.2</ele></trkpt>
<trkpt lat="47.582396" lon="12.697881"><ele>624.2</ele></trkpt>
<trkpt lat="47.582777" lon="12.697445"><ele>621.2</ele></trkpt>
<trkpt lat="47.583185" lon="12.696299"><ele>624.9</ele></trkpt>
<trkpt lat="47.583242" lon="12.695694"><ele>624.2</ele></trkpt>
<trkpt lat="47.583531" lon="12.695275"><ele>622.7</ele></trkpt>
<trkpt lat="47.583527" lon="12.694646"><ele>621.7</ele></trkpt>
<trkpt lat="47.584042" lon="12.694692"><ele>622.5</ele></trkpt>
<trkpt lat="47.584437" lon="12.693808"><ele>623.3</ele></trkpt>
<trkpt lat="47.585743" lon="12.693252"><ele>624.8</ele></trkpt>
<trkpt lat="47.585763" lon="12.693245"><ele>624.8</ele></trkpt>
<trkpt lat="47.585809" lon="12.693587"><ele>624.9</ele></trkpt>
<trkpt lat="47.586368" lon="12.693838"><ele>627.9</ele></trkpt>
<trkpt lat="47.586095" lon="12.694695"><ele>627.9</ele></trkpt>
<trkpt lat="47.586498" lon="12.694852"><ele>626.8</ele></trkpt>
<trkpt lat="47.586450" lon="12.694998"><ele>626.8</ele></trkpt>
<trkpt lat="47.586710" lon="12.695305"><ele>626.0</ele></trkpt>
<trkpt lat="47.586919" lon="12.694624"><ele>626.4</ele></trkpt>
<trkpt lat="47.586760" lon="12.693499"><ele>627.8</ele></trkpt>
<trkpt lat="47.587112" lon="12.693484"><ele>626.7</ele></trkpt>
<trkpt lat="47.587383" lon="12.693172"><ele>625.7</ele></trkpt>
<trkpt lat="47.588359" lon="12.694229"><ele>623.1</ele></trkpt>
<trkpt lat="47.589159" lon="12.695697"><ele>615.4</ele></trkpt>
<trkpt lat="47.589369" lon="12.695835"><ele>616.9</ele></trkpt>
<trkpt lat="47.589965" lon="12.695650"><ele>618.4</ele></trkpt>
<trkpt lat="47.590155" lon="12.695117"><ele>628.0</ele></trkpt>
<trkpt lat="47.591307" lon="12.695005"><ele>630.3</ele></trkpt>
<trkpt lat="47.592529" lon="12.696133"><ele>619.6</ele></trkpt>
<trkpt lat="47.593452" lon="12.697130"><ele>620.2</ele></trkpt>
<trkpt lat="47.594023" lon="12.697286"><ele>628.4</ele></trkpt>
<trkpt lat="47.594396" lon="12.697674"><ele>623.1</ele></trkpt>
<trkpt lat="47.595675" lon="12.698419"><ele>620.5</ele></trkpt>
<trkpt lat="47.596643" lon="12.698954"><ele>620.8</ele></trkpt>
<trkpt lat="47.597555" lon="12.700623"><ele>615.5</ele></trkpt>
<trkpt lat="47.597566" lon="12.700645"><ele>615.5</ele></trkpt>
<trkpt lat="47.597702" lon="12.701196"><ele>610.8</ele></trkpt>
<trkpt lat="47.598548" lon="12.702149"><ele>612.6</ele></trkpt>
<trkpt lat="47.600006" lon="12.702639"><ele>606.0</ele></trkpt>
<trkpt lat="47.600214" lon="12.702700"><ele>606.7</ele></trkpt>
<trkpt lat="47.600641" lon="12.703220"><ele>595.2</ele></trkpt>
<trkpt lat="47.602025" lon="12.703847"><ele>592.4</ele></trkpt>
<trkpt lat="47.602041" lon="12.703853"><ele>592.1</ele></trkpt>
<trkpt lat="47.602672" lon="12.703874"><ele>585.9</ele></trkpt>
<trkpt lat="47.603061" lon="12.703642"><ele>591.8</ele></trkpt>
<trkpt lat="47.604267" lon="12.704150"><ele>586.8</ele></trkpt>
<trkpt lat="47.604714" lon="12.704828"><ele>581.1</ele></trkpt>
<trkpt lat="47.605306" lon="12.706727"><ele>577.9</ele></trkpt>
<trkpt lat="47.605833" lon="12.707041"><ele>579.9</ele></trkpt>
<trkpt lat="47.606473" lon="12.707022"><ele>572.7</ele></trkpt>
<trkpt lat="47.607101" lon="12.705841"><ele>581.3</ele></trkpt>
<trkpt lat="47.607762" lon="12.705364"><ele>579.6</ele></trkpt>
<trkpt lat="47.608504" lon="12.705454"><ele>572.2</ele></trkpt>
<trkpt lat="47.609598" lon="12.706195"><ele>574.1</ele></trkpt>
<trkpt lat="47.610241" lon="12.706105"><ele>576.0</ele></trkpt>
<trkpt lat="47.611089" lon="12.705572"><ele>575.2</ele></trkpt>
<trkpt lat="47.611427" lon="12.706045"><ele>574.3</ele></trkpt>
<trkpt lat="47.612264" lon="12.706087"><ele>572.9</ele></trkpt>
<trkpt lat="47.613512" lon="12.706773"><ele>565.7</ele></trkpt>
<trkpt lat="47.614248" lon="12.707209"><ele>563.8</ele></trkpt>
<trkpt lat="47.615716" lon="12.707789"><ele>559.8</ele></trkpt>
<trkpt lat="47.616414" lon="12.708084"><ele>560.0</ele></trkpt>
<trkpt lat="47.617606" lon="12.709060"><ele>563.2</ele></trkpt>
<trkpt lat="47.618129" lon="12.709447"><ele>557.8</ele></trkpt>
<trkpt lat="47.619292" lon="12.709912"><ele>579.1</ele></trkpt>
<trkpt lat="47.619905" lon="12.710873"><ele>572.4</ele></trkpt>
<trkpt lat="47.620349" lon="12.712004"><ele>560.0</ele></trkpt>
<trkpt lat="47.620530" lon="12.713777"><ele>559.6</ele></trkpt>
<trkpt lat="47.620668" lon="12.714059"><ele>560.6</ele></trkpt>
<trkpt lat="47.621360" lon="12.714718"><ele>565.5</ele></trkpt>
<trkpt lat="47.622493" lon="12.716179"><ele>556.5</ele></trkpt>
<trkpt lat="47.623391" lon="12.717335"><ele>556.1</ele></trkpt>
<trkpt lat="47.624332" lon="12.718880"><ele>561.8</ele></trkpt>
<trkpt lat="47.625268" lon="12.720407"><ele>556.5</ele></trkpt>
<trkpt lat="47.625287" lon="12.720432"><ele>556.4</ele></trkpt>
<trkpt lat="47.626688" lon="12.720905"><ele>548.9</ele></trkpt>
<trkpt lat="47.626958" lon="12.721049"><ele>549.8</ele></trkpt>
<trkpt lat="47.627990" lon="12.722565"><ele>556.4</ele></trkpt>
<trkpt lat="47.628231" lon="12.722921"><ele>563.1</ele></trkpt>
<trkpt lat="47.629079" lon="12.724688"><ele>558.8</ele></trkpt>
<trkpt lat="47.629965" lon="12.726500"><ele>564.8</ele></trkpt>
<trkpt lat="47.630289" lon="12.727078"><ele>560.0</ele></trkpt>
<trkpt lat="47.630861" lon="12.727709"><ele>556.3</ele></trkpt>
<trkpt lat="47.631800" lon="12.727997"><ele>575.9</ele></trkpt>
<trkpt lat="47.633198" lon="12.727813"><ele>589.6</ele></trkpt>
<trkpt lat="47.633755" lon="12.727968"><ele>563.9</ele></trkpt>
<trkpt lat="47.635254" lon="12.727720"><ele>559.2</ele></trkpt>
<trkpt lat="47.636611" lon="12.727626"><ele>546.3</ele></trkpt>
<trkpt lat="47.636756" lon="12.727602"><ele>546.9</ele></trkpt>
<trkpt lat="47.636905" lon="12.727359"><ele>553.8</ele></trkpt>
<trkpt lat="47.638206" lon="12.727563"><ele>575.7</ele></trkpt>
<trkpt lat="47.639267" lon="12.727463"><ele>554.2</ele></trkpt>
<trkpt lat="47.640244" lon="12.727286"><ele>551.2</ele></trkpt>
<trkpt lat="47.640969" lon="12.726713"><ele>556.5</ele></trkpt>
<trkpt lat="47.642021" lon="12.726423"><ele>546.6</ele></trkpt>
<trkpt lat="47.642046" lon="12.727042"><ele>542.5</ele></trkpt>
<trkpt lat="47.642534" lon="12.727170"><ele>542.2</ele></trkpt>
<trkpt lat="47.642780" lon="12.726990"><ele>545.5</ele></trkpt>
<trkpt lat="47.643584" lon="12.728430"><ele>550.2</ele></trkpt>
<trkpt lat="47.643973" lon="12.730296"><ele>557.3</ele></trkpt>
<trkpt lat="47.644307" lon="12.730786"><ele>550.6</ele></trkpt>
<trkpt lat="47.645608" lon="12.730203"><ele>550.2</ele></trkpt>
<trkpt lat="47.646257" lon="12.729923"><ele>546.1</ele></trkpt>
<trkpt lat="47.647639" lon="12.729696"><ele>539.2</ele></trkpt>
<trkpt lat="47.648343" lon="12.729808"><ele>542.7</ele></trkpt>
<trkpt lat="47.649676" lon="12.730426"><ele>541.5</ele></trkpt>
<trkpt lat="47.649895" lon="12.730493"><ele>540.0</ele></trkpt>
<trkpt lat="47.649845" lon="12.731026"><ele>539.2</ele></trkpt>
<trkpt lat="47.650027" lon="12.731573"><ele>537.4</ele></trkpt>
<trkpt lat="47.651177" lon="12.732361"><ele>537.3</ele></trkpt>
<trkpt lat="47.652147" lon="12.733338"><ele>537.7</ele></trkpt>
<trkpt lat="47.652524" lon="12.732485"><ele>535.8</ele></trkpt>
<trkpt lat="47.653554" lon="12.734022"><ele>535.4</ele></trkpt>
<trkpt lat="47.653798" lon="12.734037"><ele>536.5</ele></trkpt>
<trkpt lat="47.654168" lon="12.733685"><ele>538.0</ele></trkpt>
<trkpt lat="47.654664" lon="12.734157"><ele>536.3</ele></trkpt>
<trkpt lat="47.655658" lon="12.734561"><ele>538.0</ele></trkpt>
<trkpt lat="47.657020" lon="12.734403"><ele>541.3</ele></trkpt>
<trkpt lat="47.657180" lon="12.734426"><ele>541.2</ele></trkpt>
<trkpt lat="47.657731" lon="12.734700"><ele>541.8</ele></trkpt>
<trkpt lat="47.658230" lon="12.735271"><ele>541.0</ele></trkpt>
<trkpt lat="47.658748" lon="12.736569"><ele>535.7</ele></trkpt>
<trkpt lat="47.659028" lon="12.738638"><ele>532.0</ele></trkpt>
<trkpt lat="47.659262" lon="12.739794"><ele>534.3</ele></trkpt>
<trkpt lat="47.659591" lon="12.740392"><ele>535.8</ele></trkpt>
<trkpt lat="47.660781" lon="12.741628"><ele>537.1</ele></trkpt>
<trkpt lat="47.661056" lon="12.742052"><ele>536.7</ele></trkpt>
<trkpt lat="47.661408" lon="12.743790"><ele>540.1</ele></trkpt>
<trkpt lat="47.662060" lon="12.745380"><ele>540.0</ele></trkpt>
<trkpt lat="47.662267" lon="12.745491"><ele>544.6</ele></trkpt>
<trkpt lat="47.662563" lon="12.746580"><ele>537.0</ele></trkpt>
<trkpt lat="47.663218" lon="12.747393"><ele>542.5</ele></trkpt>
<trkpt lat="47.663909" lon="12.749303"><ele>544.2</ele></trkpt>
<trkpt lat="47.664333" lon="12.750717"><ele>550.4</ele></trkpt>
<trkpt lat="47.664425" lon="12.751467"><ele>549.3</ele></trkpt>
<trkpt lat="47.664075" lon="12.752936"><ele>543.6</ele></trkpt>
<trkpt lat="47.664183" lon="12.754113"><ele>543.4</ele></trkpt>
<trkpt lat="47.663897" lon="12.755722"><ele>531.3</ele></trkpt>
<trkpt lat="47.663660" lon="12.756292"><ele>527.2</ele></trkpt>
<trkpt lat="47.663644" lon="12.756995"><ele>528.4</ele></trkpt>
<trkpt lat="47.664007" lon="12.757225"><ele>533.3</ele></trkpt>
<trkpt lat="47.664327" lon="12.757969"><ele>535.4</ele></trkpt>
<trkpt lat="47.664845" lon="12.757363"><ele>544.0</ele></trkpt>
<trkpt lat="47.666200" lon="12.757422"><ele>552.8</ele></trkpt>
<trkpt lat="47.666282" lon="12.757432"><ele>553.2</ele></trkpt>
<trkpt lat="47.666753" lon="12.757663"><ele>553.6</ele></trkpt>
<trkpt lat="47.667501" lon="12.758615"><ele>563.0</ele></trkpt>
<trkpt lat="47.667615" lon="12.760674"><ele>550.5</ele></trkpt>
<trkpt lat="47.667614" lon="12.760841"><ele>552.4</ele></trkpt>
<trkpt lat="47.667380" lon="12.762963"><ele>533.4</ele></trkpt>
<trkpt lat="47.667331" lon="12.763449"><ele>531.6</ele></trkpt>
<trkpt lat="47.667601" lon="12.765637"><ele>538.6</ele></trkpt>
<trkpt lat="47.667441" lon="12.766845"><ele>535.0</ele></trkpt>
<trkpt lat="47.667632" lon="12.768824"><ele>535.3</ele></trkpt>
<trkpt lat="47.667617" lon="12.770038"><ele>523.0</ele></trkpt>
<trkpt lat="47.668181" lon="12.771339"><ele>522.8</ele></trkpt>
<trkpt lat="47.668002" lon="12.771662"><ele>519.5</ele></trkpt>
<trkpt lat="47.668049" lon="12.772005"><ele>516.7</ele></trkpt>
<trkpt lat="47.668535" lon="12.772666"><ele>520.5</ele></trkpt>
<trkpt lat="47.669761" lon="12.773748"><ele>533.5</ele></trkpt>
<trkpt lat="47.669830" lon="12.773812"><ele>535.3</ele></trkpt>
<trkpt lat="47.670298" lon="12.774696"><ele>538.3</ele></trkpt>
<trkpt lat="47.670798" lon="12.776271"><ele>528.9</ele></trkpt>
<trkpt lat="47.671735" lon="12.777215"><ele>534.2</ele></trkpt>
<trkpt lat="47.672021" lon="12.778154"><ele>524.8</ele></trkpt>
<trkpt lat="47.672233" lon="12.778282"><ele>527.5</ele></trkpt>
<trkpt lat="47.672932" lon="12.779520"><ele>530.0</ele></trkpt>
<trkpt lat="47.673567" lon="12.780243"><ele>533.3</ele></trkpt>
<trkpt lat="47.674862" lon="12.781204"><ele>534.3</ele></trkpt>
<trkpt lat="47.676094" lon="12.782308"><ele>541.6</ele></trkpt>
<trkpt lat="47.676714" lon="12.782753"><ele>544.0</ele></trkpt>
<trkpt lat="47.677656" lon="12.784213"><ele>527.9</ele></trkpt>
<trkpt lat="47.678578" lon="12.785682"><ele>523.9</ele></trkpt>
<trkpt lat="47.678736" lon="12.785893"><ele>526.0</ele></trkpt>
<trkpt lat="47.678773" lon="12.786259"><ele>521.5</ele></trkpt>
<trkpt lat="47.679468" lon="12.786979"><ele>522.8</ele></trkpt>
<trkpt lat="47.680336" lon="12.787393"><ele>533.5</ele></trkpt>
<trkpt lat="47.680950" lon="12.787988"><ele>538.2</ele></trkpt>
<trkpt lat="47.682023" lon="12.789523"><ele>525.9</ele></trkpt>
<trkpt lat="47.683003" lon="12.791036"><ele>525.8</ele></trkpt>
<trkpt lat="47.683104" lon="12.791170"><ele>525.0</ele></trkpt>
<trkpt lat="47.684219" lon="12.792431"><ele>524.8</ele></trkpt>
<trkpt lat="47.684601" lon="12.792761"><ele>527.6</ele></trkpt>
<trkpt lat="47.685748" lon="12.794210"><ele>526.0</ele></trkpt>
<trkpt lat="47.686813" lon="12.795598"><ele>513.7</ele></trkpt>
<trkpt lat="47.687405" lon="12.796341"><ele>512.4</ele></trkpt>
<trkpt lat="47.687916" lon="12.796638"><ele>513.5</ele></trkpt>
<trkpt lat="47.687960" lon="12.797038"><ele>513.4</ele></trkpt>
<trkpt lat="47.688964" lon="12.798627"><ele>510.6</ele></trkpt>
<trkpt lat="47.689499" lon="12.799610"><ele>512.9</ele></trkpt>
<trkpt lat="47.689934" lon="12.800667"><ele>513.2</ele></trkpt>
<trkpt lat="47.690156" lon="12.801903"><ele>510.4</ele></trkpt>
<trkpt lat="47.690048" lon="12.802546"><ele>515.4</ele></trkpt>
<trkpt lat="47.689103" lon="12.803974"><ele>512.7</ele></trkpt>
<trkpt lat="47.688814" lon="12.804392"><ele>514.7</ele></trkpt>
<trkpt lat="47.688016" lon="12.805151"><ele>513.8</ele></trkpt>
<trkpt lat="47.687322" lon="12.806918"><ele>514.0</ele></trkpt>
<trkpt lat="47.687256" lon="12.807135"><ele>513.5</ele></trkpt>
<trkpt lat="47.687011" lon="12.809187"><ele>511.1</ele></trkpt>
<trkpt lat="47.687018" lon="12.809314"><ele>510.8</ele></trkpt>
<trkpt lat="47.687625" lon="12.811050"><ele>517.7</ele></trkpt>
<trkpt lat="47.687604" lon="12.812184"><ele>526.6</ele></trkpt>
<trkpt lat="47.687140" lon="12.812911"><ele>520.7</ele></trkpt>
<trkpt lat="47.685789" lon="12.813647"><ele>511.6</ele></trkpt>
<trkpt lat="47.685702" lon="12.813704"><ele>512.0</ele></trkpt>
<trkpt lat="47.684828" lon="12.814768"><ele>512.4</ele></trkpt>
<trkpt lat="47.683996" lon="12.816608"><ele>513.4</ele></trkpt>
<trkpt lat="47.683266" lon="12.818332"><ele>507.0</ele></trkpt>
<trkpt lat="47.682975" lon="12.818990"><ele>504.6</ele></trkpt>
<trkpt lat="47.682607" lon="12.820563"><ele>509.9</ele></trkpt>
<trkpt lat="47.682009" lon="12.821986"><ele>509.2</ele></trkpt>
<trkpt lat="47.681702" lon="12.824078"><ele>513.2</ele></trkpt>
<trkpt lat="47.681779" lon="12.826085"><ele>517.9</ele></trkpt>
<trkpt lat="47.681789" lon="12.826468"><ele>514.2</ele></trkpt>
<trkpt lat="47.682023" lon="12.827519"><ele>507.5</ele></trkpt>
<trkpt lat="47.683158" lon="12.828857"><ele>512.9</ele></trkpt>
<trkpt lat="47.683452" lon="12.829178"><ele>518.9</ele></trkpt>
<trkpt lat="47.684153" lon="12.830463"><ele>510.0</ele></trkpt>
<trkpt lat="47.684642" lon="12.830901"><ele>515.9</ele></trkpt>
<trkpt lat="47.685071" lon="12.831918"><ele>516.1</ele></trkpt>
<trkpt lat="47.685622" lon="12.833985"><ele>514.3</ele></trkpt>
<trkpt lat="47.685923" lon="12.835278"><ele>510.6</ele></trkpt>
<trkpt lat="47.686742" lon="12.836873"><ele>505.6</ele></trkpt>
<trkpt lat="47.687655" lon="12.838348"><ele>503.5</ele></trkpt>
<trkpt lat="47.688624" lon="12.839895"><ele>504.4</ele></trkpt>
<trkpt lat="47.688743" lon="12.840063"><ele>503.2</ele></trkpt>
<trkpt lat="47.689783" lon="12.841394"><ele>502.1</ele></trkpt>
<trkpt lat="47.690636" lon="12.842294"><ele>508.9</ele></trkpt>
<trkpt lat="47.691291" lon="12.842746"><ele>503.1</ele></trkpt>
<trkpt lat="47.691823" lon="12.842552"><ele>507.8</ele></trkpt>
<trkpt lat="47.693165" lon="12.842793"><ele>507.9</ele></trkpt>
<trkpt lat="47.694379" lon="12.843709"><ele>502.6</ele></trkpt>
<trkpt lat="47.695030" lon="12.844173"><ele>505.7</ele></trkpt>
<trkpt lat="47.696435" lon="12.844270"><ele>503.2</ele></trkpt>
<trkpt lat="47.696956" lon="12.844225"><ele>512.2</ele></trkpt>
<trkpt lat="47.698294" lon="12.844517"><ele>505.2</ele></trkpt>
<trkpt lat="47.698554" lon="12.844528"><ele>509.6</ele></trkpt>
<trkpt lat="47.699900" lon="12.845203"><ele>502.5</ele></trkpt>
<trkpt lat="47.701071" lon="12.846359"><ele>503.6</ele></trkpt>
<trkpt lat="47.702311" lon="12.847375"><ele>500.1</ele></trkpt>
<trkpt lat="47.703516" lon="12.848391"><ele>504.0</ele></trkpt>
<trkpt lat="47.703585" lon="12.848463"><ele>503.8</ele></trkpt>
<trkpt lat="47.704740" lon="12.849087"><ele>502.9</ele></trkpt>
<trkpt lat="47.705933" lon="12.850471"><ele>499.9</ele></trkpt>
<trkpt lat="47.706503" lon="12.851254"><ele>502.9</ele></trkpt>
<trkpt lat="47.707731" lon="12.852111"><ele>506.4</ele></trkpt>
<trkpt lat="47.708778" lon="12.852737"><ele>501.6</ele></trkpt>
<trkpt lat="47.709624" lon="12.854363"><ele>527.8</ele></trkpt>
<trkpt lat="47.709778" lon="12.854735"><ele>529.7</ele></trkpt>
<trkpt lat="47.710364" lon="12.856664"><ele>525.9</ele></trkpt>
<trkpt lat="47.710486" lon="12.857321"><ele>511.4</ele></trkpt>
<trkpt lat="47.711310" lon="12.858961"><ele>509.3</ele></trkpt>
<trkpt lat="47.711623" lon="12.859634"><ele>514.3</ele></trkpt>
<trkpt lat="47.711914" lon="12.860534"><ele>532.9</ele></trkpt>
<trkpt lat="47.712359" lon="12.862489"><ele>525.2</ele></trkpt>
<trkpt lat="47.712598" lon="12.863369"><ele>498.4</ele></trkpt>
<trkpt lat="47.712652" lon="12.865360"><ele>487.4</ele></trkpt>
<trkpt lat="47.712663" lon="12.865415"><ele>486.8</ele></trkpt>
<trkpt lat="47.713177" lon="12.866096"><ele>500.6</ele></trkpt>
<trkpt lat="47.713417" lon="12.867130"><ele>493.0</ele></trkpt>
<trkpt lat="47.714100" lon="12.867572"><ele>511.9</ele></trkpt>
<trkpt lat="47.714415" lon="12.868056"><ele>506.8</ele></trkpt>
<trkpt lat="47.714948" lon="12.870136"><ele>494.3</ele></trkpt>
<trkpt lat="47.715086" lon="12.870465"><ele>493.6</ele></trkpt>
<trkpt lat="47.716215" lon="12.871854"><ele>480.3</ele></trkpt>
<trkpt lat="47.716326" lon="12.871935"><ele>478.7</ele></trkpt>
<trkpt lat="47.716622" lon="12.871827"><ele>476.5</ele></trkpt>
<trkpt lat="47.717198" lon="12.871147"><ele>472.3</ele></trkpt>
<trkpt lat="47.718210" lon="12.871326"><ele>471.9</ele></trkpt>
<trkpt lat="47.718795" lon="12.872987"><ele>472.0</ele></trkpt>
<trkpt lat="47.718701" lon="12.873208"><ele>472.2</ele></trkpt>
<trkpt lat="47.718862" lon="12.873988"><ele>473.5</ele></trkpt>
<trkpt lat="47.719013" lon="12.874041"><ele>473.5</ele></trkpt>
<trkpt lat="47.719071" lon="12.874906"><ele>474.0</ele></trkpt>
<trkpt lat="47.720440" lon="12.875590"><ele>474.1</ele></trkpt>
<trkpt lat="47.720980" lon="12.875902"><ele>474.1</ele></trkpt>
<trkpt lat="47.722309" lon="12.876868"><ele>475.3</ele></trkpt>
<trkpt lat="47.722643" lon="12.877188"><ele>474.5</ele></trkpt>
<trkpt lat="47.722405" lon="12.877908"><ele>475.0</ele></trkpt>
<trkpt lat="47.723462" lon="12.879193"><ele>472.6</ele></trkpt>
<trkpt lat="47.724406" lon="12.880228"><ele>469.2</ele></trkpt>
<trkpt lat="47.724408" lon="12.880823"><ele>471.3</ele></trkpt>
<trkpt lat="47.724935" lon="12.881320"><ele>473.9</ele></trkpt>
<trkpt lat="47.724541" lon="12.882248"><ele>476.1</ele></trkpt>
<trkpt lat="47.724996" lon="12.883195"><ele>481.5</ele></trkpt>
<trkpt lat="47.725662" lon="12.883798"><ele>485.2</ele></trkpt>
<trkpt lat="47.726118" lon="12.883872"><ele>478.7</ele></trkpt>
<trkpt lat="47.726415" lon="12.884346"><ele>480.9</ele></trkpt>
<trkpt lat="47.726618" lon="12.884372"><ele>478.2</ele></trkpt>
<trkpt lat="47.726900" lon="12.883842"><ele>474.7</ele></trkpt>
</trkseg></trk></gpx>