<?xml version="1.0" encoding="UTF-8"?>
<gpx version="1.1" creator="Bad Reichenhall gravel – saját gravel-router (OSM/Overture + SRTM)" xmlns="http://www.topografix.com/GPX/1/1">
<metadata><name>Högl-dombhát</name><desc>GENERÁLT NYOMVONAL – Rövid, kilátásos kör a Högl dombhátán, a Salzach-medence és a Berchtesgadeni-Alpok panorámájával. Pidingről a Johannishöglre kapaszkodsz, a dombtetőn Ulrichshögl kápolnája mellett haladsz, majd Aufhamon át ereszkedsz vissza. Délutáni rövid körnek tökéletes.</desc><copyright author="OpenStreetMap contributors (via Overture Maps)"><license>https://opendatacommons.org/licenses/odbl/</license></copyright><time>2026-10-04T16:52:38Z</time></metadata>
<wpt lat="47.7596" lon="12.9114"><name>Piding</name><type>town</type></wpt>
<wpt lat="47.7914" lon="12.9232"><name>Johannishögl</name><type>view</type></wpt>
<wpt lat="47.8095" lon="12.9249"><name>Ulrichshögl</name><type>view</type></wpt>
<wpt lat="47.8083" lon="12.9"><name>Högl</name><type>view</type></wpt>
<trk><name>Högl-dombhát</name><type>gravel</type><trkseg>
<trkpt lat="47.726900" lon="12.883842"><ele>474.7</ele></trkpt>
<trkpt lat="47.727494" lon="12.883113"><ele>470.2</ele></trkpt>
<trkpt lat="47.727719" lon="12.883943"><ele>471.1</ele></trkpt>
<trkpt lat="47.728704" lon="12.884653"><ele>467.7</ele></trkpt>
<trkpt lat="47.729731" lon="12.886062"><ele>468.9</ele></trkpt>
<trkpt lat="47.730708" lon="12.887277"><ele>466.8</ele></trkpt>
<trkpt lat="47.731702" lon="12.887899"><ele>465.8</ele></trkpt>
<trkpt lat="47.732859" lon="12.888988"><ele>463.3</ele></trkpt>
<trkpt lat="47.733919" lon="12.889805"><ele>464.0</ele></trkpt>
<trkpt lat="47.735182" lon="12.890496"><ele>464.3</ele></trkpt>
<trkpt lat="47.735913" lon="12.890981"><ele>460.5</ele></trkpt>
<trkpt lat="47.736805" lon="12.892597"><ele>464.7</ele></trkpt>
<trkpt lat="47.736845" lon="12.892688"><ele>464.9</ele></trkpt>
<trkpt lat="47.737294" lon="12.893123"><ele>465.8</ele></trkpt>
<trkpt lat="47.738557" lon="12.893727"><ele>465.9</ele></trkpt>
<trkpt lat="47.738981" lon="12.892697"><ele>461.7</ele></trkpt>
<trkpt lat="47.739233" lon="12.892513"><ele>461.3</ele></trkpt>
<trkpt lat="47.739380" lon="12.892474"><ele>461.7</ele></trkpt>
<trkpt lat="47.739559" lon="12.892888"><ele>465.2</ele></trkpt>
<trkpt lat="47.740022" lon="12.892659"><ele>464.1</ele></trkpt>
<trkpt lat="47.740252" lon="12.892788"><ele>464.2</ele></trkpt>
<trkpt lat="47.740420" lon="12.893505"><ele>468.4</ele></trkpt>
<trkpt lat="47.740871" lon="12.893655"><ele>462.9</ele></trkpt>
<trkpt lat="47.741641" lon="12.895484"><ele>466.1</ele></trkpt>
<trkpt lat="47.742413" lon="12.897293"><ele>459.3</ele></trkpt>
<trkpt lat="47.743190" lon="12.899091"><ele>454.4</ele></trkpt>
<trkpt lat="47.743932" lon="12.900790"><ele>454.8</ele></trkpt>
<trkpt lat="47.744252" lon="12.901496"><ele>455.7</ele></trkpt>
<trkpt lat="47.744878" lon="12.900827"><ele>454.4</ele></trkpt>
<trkpt lat="47.746249" lon="12.900860"><ele>457.9</ele></trkpt>
<trkpt lat="47.746683" lon="12.900793"><ele>459.1</ele></trkpt>
<trkpt lat="47.747599" lon="12.899938"><ele>457.0</ele></trkpt>
<trkpt lat="47.748880" lon="12.900979"><ele>468.0</ele></trkpt>
<trkpt lat="47.748944" lon="12.901013"><ele>467.3</ele></trkpt>
<trkpt lat="47.750330" lon="12.901244"><ele>468.6</ele></trkpt>
<trkpt lat="47.750593" lon="12.901341"><ele>472.2</ele></trkpt>
<trkpt lat="47.751673" lon="12.902515"><ele>458.9</ele></trkpt>
<trkpt lat="47.751847" lon="12.902649"><ele>458.0</ele></trkpt>
<trkpt lat="47.752611" lon="12.902418"><ele>458.6</ele></trkpt>
<trkpt lat="47.753810" lon="12.901325"><ele>452.3</ele></trkpt>
<trkpt lat="47.753967" lon="12.901213"><ele>453.0</ele></trkpt>
<trkpt lat="47.755215" lon="12.902276"><ele>450.8</ele></trkpt>
<trkpt lat="47.756418" lon="12.903316"><ele>452.2</ele></trkpt>
<trkpt lat="47.757602" lon="12.904316"><ele>450.8</ele></trkpt>
<trkpt lat="47.757664" lon="12.904366"><ele>450.9</ele></trkpt>
<trkpt lat="47.758968" lon="12.904942"><ele>451.0</ele></trkpt>
<trkpt lat="47.760120" lon="12.905284"><ele>451.5</ele></trkpt>
<trkpt lat="47.761361" lon="12.904974"><ele>451.1</ele></trkpt>
<trkpt lat="47.761866" lon="12.906842"><ele>451.3</ele></trkpt>
<trkpt lat="47.761904" lon="12.906922"><ele>451.1</ele></trkpt>
<trkpt lat="47.762132" lon="12.907084"><ele>450.5</ele></trkpt>
<trkpt lat="47.762249" lon="12.906758"><ele>450.1</ele></trkpt>
<trkpt lat="47.762509" lon="12.906952"><ele>451.0</ele></trkpt>
<trkpt lat="47.763469" lon="12.908424"><ele>449.3</ele></trkpt>
<trkpt lat="47.763784" lon="12.908915"><ele>449.2</ele></trkpt>
<trkpt lat="47.765070" lon="12.908836"><ele>450.4</ele></trkpt>
<trkpt lat="47.765203" lon="12.910725"><ele>448.2</ele></trkpt>
<trkpt lat="47.765319" lon="12.911008"><ele>448.7</ele></trkpt>
<trkpt lat="47.765729" lon="12.911169"><ele>449.8</ele></trkpt>
<trkpt lat="47.765696" lon="12.911628"><ele>450.4</ele></trkpt>
<trkpt lat="47.765847" lon="12.911973"><ele>451.0</ele></trkpt>
<trkpt lat="47.766331" lon="12.911687"><ele>451.0</ele></trkpt>
<trkpt lat="47.767483" lon="12.911810"><ele>452.3</ele></trkpt>
<trkpt lat="47.767889" lon="12.911210"><ele>453.2</ele></trkpt>
<trkpt lat="47.768286" lon="12.911408"><ele>453.0</ele></trkpt>
<trkpt lat="47.768625" lon="12.912084"><ele>454.0</ele></trkpt>
<trkpt lat="47.769523" lon="12.912569"><ele>457.0</ele></trkpt>
<trkpt lat="47.769790" lon="12.911775"><ele>454.3</ele></trkpt>
<trkpt lat="47.771049" lon="12.910580"><ele>454.8</ele></trkpt>
<trkpt lat="47.771057" lon="12.910572"><ele>454.8</ele></trkpt>
<trkpt lat="47.771366" lon="12.909840"><ele>455.4</ele></trkpt>
<trkpt lat="47.771761" lon="12.909618"><ele>455.0</ele></trkpt>
<trkpt lat="47.772094" lon="12.908161"><ele>455.6</ele></trkpt>
<trkpt lat="47.772385" lon="12.907521"><ele>455.5</ele></trkpt>
<trkpt lat="47.773432" lon="12.905974"><ele>456.1</ele></trkpt>
<trkpt lat="47.773619" lon="12.905712"><ele>456.4</ele></trkpt>
<trkpt lat="47.774223" lon="12.905363"><ele>457.8</ele></trkpt>
<trkpt lat="47.775649" lon="12.905356"><ele>468.7</ele></trkpt>
<trkpt lat="47.776100" lon="12.906975"><ele>465.7</ele></trkpt>
<trkpt lat="47.776343" lon="12.907206"><ele>469.2</ele></trkpt>
<trkpt lat="47.777683" lon="12.906825"><ele>488.3</ele></trkpt>
<trkpt lat="47.778289" lon="12.906800"><ele>492.7</ele></trkpt>
<trkpt lat="47.779699" lon="12.907169"><ele>498.9</ele></trkpt>
<trkpt lat="47.780448" lon="12.907433"><ele>507.4</ele></trkpt>
<trkpt lat="47.781645" lon="12.908394"><ele>520.3</ele></trkpt>
<trkpt lat="47.781646" lon="12.908394"><ele>520.3</ele></trkpt>
<trkpt lat="47.782153" lon="12.908135"><ele>528.9</ele></trkpt>
<trkpt lat="47.783556" lon="12.908476"><ele>563.3</ele></trkpt>
<trkpt lat="47.784923" lon="12.908828"><ele>573.7</ele></trkpt>
<trkpt lat="47.785442" lon="12.909225"><ele>579.8</ele></trkpt>
<trkpt lat="47.785868" lon="12.909869"><ele>589.8</ele></trkpt>
<trkpt lat="47.786697" lon="12.911253"><ele>600.9</ele></trkpt>
<trkpt lat="47.786855" lon="12.912025"><ele>602.5</ele></trkpt>
<trkpt lat="47.786609" lon="12.913084"><ele>601.5</ele></trkpt>
<trkpt lat="47.785594" lon="12.914560"><ele>609.5</ele></trkpt>
<trkpt lat="47.784974" lon="12.915478"><ele>600.1</ele></trkpt>
<trkpt lat="47.784409" lon="12.916932"><ele>615.6</ele></trkpt>
<trkpt lat="47.784423" lon="12.917561"><ele>619.3</ele></trkpt>
<trkpt lat="47.785279" lon="12.918454"><ele>624.1</ele></trkpt>
<trkpt lat="47.786194" lon="12.918304"><ele>635.8</ele></trkpt>
<trkpt lat="47.786467" lon="12.918468"><ele>643.6</ele></trkpt>
<trkpt lat="47.786843" lon="12.919328"><ele>654.3</ele></trkpt>
<trkpt lat="47.788102" lon="12.920374"><ele>661.0</ele></trkpt>
<trkpt lat="47.788152" lon="12.920424"><ele>663.0</ele></trkpt>
<trkpt lat="47.788599" lon="12.921734"><ele>681.8</ele></trkpt>
<trkpt lat="47.789145" lon="12.922768"><ele>681.3</ele></trkpt>
<trkpt lat="47.789321" lon="12.922861"><ele>679.9</ele></trkpt>
<trkpt lat="47.789690" lon="12.922205"><ele>680.4</ele></trkpt>
<trkpt lat="47.789930" lon="12.922173"><ele>678.6</ele></trkpt>
<trkpt lat="47.791141" lon="12.923213"><ele>691.4</ele></trkpt>
<trkpt lat="47.791666" lon="12.923845"><ele>694.3</ele></trkpt>
<trkpt lat="47.791911" lon="12.922961"><ele>691.5</ele></trkpt>
<trkpt lat="47.792984" lon="12.922187"><ele>679.5</ele></trkpt>
<trkpt lat="47.793476" lon="12.921423"><ele>672.4</ele></trkpt>
<trkpt lat="47.793862" lon="12.921971"><ele>670.2</ele></trkpt>
<trkpt lat="47.793886" lon="12.922517"><ele>673.2</ele></trkpt>
<trkpt lat="47.794132" lon="12.922860"><ele>677.9</ele></trkpt>
<trkpt lat="47.794344" lon="12.923013"><ele>679.9</ele></trkpt>
<trkpt lat="47.794746" lon="12.922784"><ele>670.7</ele></trkpt>
<trkpt lat="47.795509" lon="12.922825"><ele>665.8</ele></trkpt>
<trkpt lat="47.795757" lon="12.923493"><ele>663.2</ele></trkpt>
<trkpt lat="47.795854" lon="12.924447"><ele>657.5</ele></trkpt>
<trkpt lat="47.796809" lon="12.924915"><ele>641.1</ele></trkpt>
<trkpt lat="47.797428" lon="12.924924"><ele>627.8</ele></trkpt>
<trkpt lat="47.797597" lon="12.924679"><ele>626.0</ele></trkpt>
<trkpt lat="47.797507" lon="12.923926"><ele>628.8</ele></trkpt>
<trkpt lat="47.797939" lon="12.923496"><ele>625.1</ele></trkpt>
<trkpt lat="47.798863" lon="12.923436"><ele>616.7</ele></trkpt>
<trkpt lat="47.800216" lon="12.923002"><ele>611.0</ele></trkpt>
<trkpt lat="47.800674" lon="12.922800"><ele>611.9</ele></trkpt>
<trkpt lat="47.801164" lon="12.922985"><ele>600.2</ele></trkpt>
<trkpt lat="47.801337" lon="12.923545"><ele>587.6</ele></trkpt>
<trkpt lat="47.801832" lon="12.924113"><ele>574.5</ele></trkpt>
<trkpt lat="47.803084" lon="12.924854"><ele>561.0</ele></trkpt>
<trkpt lat="47.803258" lon="12.924943"><ele>559.8</ele></trkpt>
<trkpt lat="47.803632" lon="12.924932"><ele>555.9</ele></trkpt>
<trkpt lat="47.804910" lon="12.924122"><ele>547.8</ele></trkpt>
<trkpt lat="47.805163" lon="12.923952"><ele>546.9</ele></trkpt>
<trkpt lat="47.805636" lon="12.924033"><ele>548.7</ele></trkpt>
<trkpt lat="47.806477" lon="12.925624"><ele>540.1</ele></trkpt>
<trkpt lat="47.806971" lon="12.926494"><ele>525.7</ele></trkpt>
<trkpt lat="47.807326" lon="12.927831"><ele>521.1</ele></trkpt>
<trkpt lat="47.807716" lon="12.928336"><ele>517.2</ele></trkpt>
<trkpt lat="47.808307" lon="12.930269"><ele>513.1</ele></trkpt>
<trkpt lat="47.808341" lon="12.930400"><ele>513.0</ele></trkpt>
<trkpt lat="47.808642" lon="12.932342"><ele>517.6</ele></trkpt>
<trkpt lat="47.809248" lon="12.934031"><ele>506.7</ele></trkpt>
<trkpt lat="47.808807" lon="12.935907"><ele>503.4</ele></trkpt>
<trkpt lat="47.808718" lon="12.936490"><ele>493.1</ele></trkpt>
<trkpt lat="47.809027" lon="12.936664"><ele>488.6</ele></trkpt>
<trkpt lat="47.810338" lon="12.936482"><ele>473.1</ele></trkpt>
<trkpt lat="47.811307" lon="12.937743"><ele>461.0</ele></trkpt>
<trkpt lat="47.811666" lon="12.938612"><ele>451.0</ele></trkpt>
<trkpt lat="47.811904" lon="12.940219"><ele>441.0</ele></trkpt>
<trkpt lat="47.811891" lon="12.941482"><ele>437.9</ele></trkpt>
<trkpt lat="47.811342" lon="12.942165"><ele>438.7</ele></trkpt>
<trkpt lat="47.810590" lon="12.943938"><ele>435.3</ele></trkpt>
<trkpt lat="47.810578" lon="12.943968"><ele>435.2</ele></trkpt>
<trkpt lat="47.810173" lon="12.945370"><ele>434.0</ele></trkpt>
<trkpt lat="47.809437" lon="12.946561"><ele>433.0</ele></trkpt>
<trkpt lat="47.808814" lon="12.948499"><ele>433.4</ele></trkpt>
<trkpt lat="47.808399" lon="12.949880"><ele>434.2</ele></trkpt>
<trkpt lat="47.806967" lon="12.949764"><ele>434.8</ele></trkpt>
<trkpt lat="47.806167" lon="12.949623"><ele>434.3</ele></trkpt>
<trkpt lat="47.804887" lon="12.949942"><ele>435.2</ele></trkpt>
<trkpt lat="47.803499" lon="12.949501"><ele>434.1</ele></trkpt>
<trkpt lat="47.803499" lon="12.949501"><ele>434.1</ele></trkpt>
<trkpt lat="47.802114" lon="12.949424"><ele>437.6</ele></trkpt>
<trkpt lat="47.800851" lon="12.948688"><ele>438.9</ele></trkpt>
<trkpt lat="47.799948" lon="12.948504"><ele>439.4</ele></trkpt>
<trkpt lat="47.798831" lon="12.948679"><ele>439.4</ele></trkpt>
<trkpt lat="47.798545" lon="12.949378"><ele>439.0</ele></trkpt>
<trkpt lat="47.797843" lon="12.948815"><ele>439.4</ele></trkpt>
<trkpt lat="47.796461" lon="12.948453"><ele>437.1</ele></trkpt>
<trkpt lat="47.796049" lon="12.948332"><ele>438.0</ele></trkpt>
<trkpt lat="47.795176" lon="12.947831"><ele>439.8</ele></trkpt>
<trkpt lat="47.793715" lon="12.947651"><ele>436.7</ele></trkpt>
<trkpt lat="47.793580" lon="12.947609"><ele>437.3</ele></trkpt>
<trkpt lat="47.792822" lon="12.947198"><ele>438.5</ele></trkpt>
<trkpt lat="47.791397" lon="12.947134"><ele>439.6</ele></trkpt>
<trkpt lat="47.791299" lon="12.947135"><ele>440.1</ele></trkpt>
<trkpt lat="47.790683" lon="12.947401"><ele>440.8</ele></trkpt>
<trkpt lat="47.790239" lon="12.946875"><ele>445.0</ele></trkpt>
<trkpt lat="47.789639" lon="12.945326"><ele>450.1</ele></trkpt>
<trkpt lat="47.788599" lon="12.943799"><ele>452.8</ele></trkpt>
<trkpt lat="47.788554" lon="12.943727"><ele>452.1</ele></trkpt>
<trkpt lat="47.788322" lon="12.941685"><ele>444.9</ele></trkpt>
<trkpt lat="47.787431" lon="12.940056"><ele>445.8</ele></trkpt>
<trkpt lat="47.787178" lon="12.939675"><ele>447.5</ele></trkpt>
<trkpt lat="47.785912" lon="12.938878"><ele>443.9</ele></trkpt>
<trkpt lat="47.784568" lon="12.938025"><ele>442.5</ele></trkpt>
<trkpt lat="47.783950" lon="12.937607"><ele>446.1</ele></trkpt>
<trkpt lat="47.783028" lon="12.937558"><ele>447.0</ele></trkpt>
<trkpt lat="47.782099" lon="12.937987"><ele>441.3</ele></trkpt>
<trkpt lat="47.780897" lon="12.937859"><ele>447.9</ele></trkpt>
<trkpt lat="47.779555" lon="12.937569"><ele>451.2</ele></trkpt>
<trkpt lat="47.779547" lon="12.937566"><ele>451.1</ele></trkpt>
<trkpt lat="47.778241" lon="12.936746"><ele>448.1</ele></trkpt>
<trkpt lat="47.778088" lon="12.936654"><ele>448.0</ele></trkpt>
<trkpt lat="47.777597" lon="12.936116"><ele>446.1</ele></trkpt>
<trkpt lat="47.777151" lon="12.935104"><ele>444.4</ele></trkpt>
<trkpt lat="47.776893" lon="12.933882"><ele>450.0</ele></trkpt>
<trkpt lat="47.776212" lon="12.932159"><ele>450.9</ele></trkpt>
<trkpt lat="47.775202" lon="12.930790"><ele>446.6</ele></trkpt>
<trkpt lat="47.774866" lon="12.930247"><ele>447.0</ele></trkpt>
<trkpt lat="47.774546" lon="12.929268"><ele>452.7</ele></trkpt>
<trkpt lat="47.774309" lon="12.927093"><ele>459.2</ele></trkpt>
<trkpt lat="47.773707" lon="12.925497"><ele>457.1</ele></trkpt>
<trkpt lat="47.773729" lon="12.924785"><ele>457.9</ele></trkpt>
<trkpt lat="47.774046" lon="12.923886"><ele>461.9</ele></trkpt>
<trkpt lat="47.774031" lon="12.923519"><ele>458.2</ele></trkpt>
<trkpt lat="47.773410" lon="12.921601"><ele>448.8</ele></trkpt>
<trkpt lat="47.773009" lon="12.920409"><ele>449.5</ele></trkpt>
<trkpt lat="47.772729" lon="12.918335"><ele>450.2</ele></trkpt>
<trkpt lat="47.772441" lon="12.916276"><ele>455.0</ele></trkpt>
<trkpt lat="47.772298" lon="12.915439"><ele>454.3</ele></trkpt>
<trkpt lat="47.771231" lon="12.914772"><ele>453.4</ele></trkpt>
<trkpt lat="47.770285" lon="12.914724"><ele>455.9</ele></trkpt>
<trkpt lat="47.769934" lon="12.914384"><ele>457.0</ele></trkpt>
<trkpt lat="47.769523" lon="12.912569"><ele>457.0</ele></trkpt>
<trkpt lat="47.769790" lon="12.911775"><ele>454.3</ele></trkpt>
<trkpt lat="47.769237" lon="12.909963"><ele>454.3</ele></trkpt>
<trkpt lat="47.769139" lon="12.909324"><ele>454.0</ele></trkpt>
<trkpt lat="47.770014" lon="12.907783"><ele>458.0</ele></trkpt>
<trkpt lat="47.770077" lon="12.907675"><ele>458.0</ele></trkpt>
<trkpt lat="47.769469" lon="12.906970"><ele>455.2</ele></trkpt>
<trkpt lat="47.770221" lon="12.905056"><ele>454.6</ele></trkpt>
<trkpt lat="47.770903" lon="12.903329"><ele>455.7</ele></trkpt>
<trkpt lat="47.771569" lon="12.901469"><ele>455.1</ele></trkpt>
<trkpt lat="47.772068" lon="12.900055"><ele>455.0</ele></trkpt>
<trkpt lat="47.773344" lon="12.899306"><ele>457.0</ele></trkpt>
<trkpt lat="47.773503" lon="12.899102"><ele>456.9</ele></trkpt>
<trkpt lat="47.774374" lon="12.897374"><ele>458.9</ele></trkpt>
<trkpt lat="47.775291" lon="12.895657"><ele>459.7</ele></trkpt>
<trkpt lat="47.776170" lon="12.893989"><ele>461.0</ele></trkpt>
<trkpt lat="47.776313" lon="12.893714"><ele>461.6</ele></trkpt>
<trkpt lat="47.777110" lon="12.891970"><ele>464.6</ele></trkpt>
<trkpt lat="47.777430" lon="12.891054"><ele>464.0</ele></trkpt>
<trkpt lat="47.778560" lon="12.889622"><ele>466.2</ele></trkpt>
<trkpt lat="47.779094" lon="12.889059"><ele>467.3</ele></trkpt>
<trkpt lat="47.779903" lon="12.888463"><ele>470.7</ele></trkpt>
<trkpt lat="47.780324" lon="12.886793"><ele>471.0</ele></trkpt>
<trkpt lat="47.781351" lon="12.885740"><ele>472.0</ele></trkpt>
<trkpt lat="47.780911" lon="12.885157"><ele>471.7</ele></trkpt>
<trkpt lat="47.781622" lon="12.884667"><ele>473.2</ele></trkpt>
<trkpt lat="47.782122" lon="12.883716"><ele>475.2</ele></trkpt>
<trkpt lat="47.782634" lon="12.883212"><ele>474.1</ele></trkpt>
<trkpt lat="47.783147" lon="12.881637"><ele>475.7</ele></trkpt>
<trkpt lat="47.784122" lon="12.879976"><ele>477.1</ele></trkpt>
<trkpt lat="47.785128" lon="12.878276"><ele>479.1</ele></trkpt>
<trkpt lat="47.786119" lon="12.876795"><ele>482.0</ele></trkpt>
<trkpt lat="47.786502" lon="12.876198"><ele>483.2</ele></trkpt>
<trkpt lat="47.786524" lon="12.874780"><ele>487.3</ele></trkpt>
<trkpt lat="47.786031" lon="12.873451"><ele>489.9</ele></trkpt>
<trkpt lat="47.785471" lon="12.872807"><ele>491.3</ele></trkpt>
<trkpt lat="47.785124" lon="12.871521"><ele>495.7</ele></trkpt>
<trkpt lat="47.784791" lon="12.870954"><ele>496.0</ele></trkpt>
<trkpt lat="47.785045" lon="12.870067"><ele>499.6</ele></trkpt>
<trkpt lat="47.784382" lon="12.868921"><ele>503.3</ele></trkpt>
<trkpt lat="47.784152" lon="12.868981"><ele>504.4</ele></trkpt>
<trkpt lat="47.783162" lon="12.867612"><ele>513.6</ele></trkpt>
<trkpt lat="47.782745" lon="12.867018"><ele>518.1</ele></trkpt>
<trkpt lat="47.782402" lon="12.866926"><ele>522.2</ele></trkpt>
<trkpt lat="47.782176" lon="12.867571"><ele>521.7</ele></trkpt>
<trkpt lat="47.781960" lon="12.867196"><ele>523.1</ele></trkpt>
<trkpt lat="47.781382" lon="12.868337"><ele>516.0</ele></trkpt>
<trkpt lat="47.781330" lon="12.869102"><ele>512.6</ele></trkpt>
<trkpt lat="47.781618" lon="12.871200"><ele>498.7</ele></trkpt>
<trkpt lat="47.781701" lon="12.871815"><ele>495.9</ele></trkpt>
<trkpt lat="47.780436" lon="12.872853"><ele>489.6</ele></trkpt>
<trkpt lat="47.779143" lon="12.874049"><ele>480.3</ele></trkpt>
<trkpt lat="47.778554" lon="12.874618"><ele>477.9</ele></trkpt>
<trkpt lat="47.778495" lon="12.874781"><ele>477.5</ele></trkpt>
<trkpt lat="47.778947" lon="12.875755"><ele>475.0</ele></trkpt>
<trkpt lat="47.778953" lon="12.876442"><ele>474.8</ele></trkpt>
<trkpt lat="47.777618" lon="12.877254"><ele>471.7</ele></trkpt>
<trkpt lat="47.777153" lon="12.877685"><ele>468.9</ele></trkpt>
<trkpt lat="47.776087" lon="12.879021"><ele>469.0</ele></trkpt>
<trkpt lat="47.775660" lon="12.879615"><ele>469.0</ele></trkpt>
<trkpt lat="47.774677" lon="12.881173"><ele>472.0</ele></trkpt>
<trkpt lat="47.774542" lon="12.881486"><ele>471.9</ele></trkpt>
<trkpt lat="47.773275" lon="12.882662"><ele>471.6</ele></trkpt>
<trkpt lat="47.772908" lon="12.883093"><ele>472.1</ele></trkpt>
<trkpt lat="47.772334" lon="12.884237"><ele>473.2</ele></trkpt>
<trkpt lat="47.771705" lon="12.886189"><ele>478.8</ele></trkpt>
<trkpt lat="47.771495" lon="12.886626"><ele>479.6</ele></trkpt>
<trkpt lat="47.770527" lon="12.887529"><ele>473.8</ele></trkpt>
<trkpt lat="47.770581" lon="12.887782"><ele>472.9</ele></trkpt>
<trkpt lat="47.770081" lon="12.888083"><ele>470.8</ele></trkpt>
<trkpt lat="47.769438" lon="12.889437"><ele>460.1</ele></trkpt>
<trkpt lat="47.769228" lon="12.889451"><ele>461.6</ele></trkpt>
<trkpt lat="47.768582" lon="12.891269"><ele>458.4</ele></trkpt>
<trkpt lat="47.768174" lon="12.892034"><ele>456.3</ele></trkpt>
<trkpt lat="47.768104" lon="12.892364"><ele>457.5</ele></trkpt>
<trkpt lat="47.768247" lon="12.892591"><ele>458.1</ele></trkpt>
<trkpt lat="47.767920" lon="12.893229"><ele>458.7</ele></trkpt>
<trkpt lat="47.767803" lon="12.893115"><ele>458.8</ele></trkpt>
<trkpt lat="47.767091" lon="12.894899"><ele>455.8</ele></trkpt>
<trkpt lat="47.767094" lon="12.895038"><ele>456.0</ele></trkpt>
<trkpt lat="47.766968" lon="12.894959"><ele>456.0</ele></trkpt>
<trkpt lat="47.765769" lon="12.896338"><ele>456.8</ele></trkpt>
<trkpt lat="47.764530" lon="12.897644"><ele>457.0</ele></trkpt>
<trkpt lat="47.763295" lon="12.898953"><ele>455.9</ele></trkpt>
<trkpt lat="47.762647" lon="12.899772"><ele>456.6</ele></trkpt>
<trkpt lat="47.762392" lon="12.899924"><ele>456.6</ele></trkpt>
<trkpt lat="47.761680" lon="12.899562"><ele>454.5</ele></trkpt>
<trkpt lat="47.761660" lon="12.900156"><ele>457.5</ele></trkpt>
<trkpt lat="47.760314" lon="12.900558"><ele>459.0</ele></trkpt>
<trkpt lat="47.759906" lon="12.900735"><ele>457.8</ele></trkpt>
<trkpt lat="47.758947" lon="12.900563"><ele>456.9</ele></trkpt>
<trkpt lat="47.758547" lon="12.900267"><ele>460.0</ele></trkpt>
<trkpt lat="47.758294" lon="12.898983"><ele>458.8</ele></trkpt>
<trkpt lat="47.757900" lon="12.898689"><ele>460.7</ele></trkpt>
<trkpt lat="47.756975" lon="12.899204"><ele>457.9</ele></trkpt>
<trkpt lat="47.755518" lon="12.898948"><ele>462.5</ele></trkpt>
<trkpt lat="47.754737" lon="12.899148"><ele>474.1</ele></trkpt>
<trkpt lat="47.753456" lon="12.900231"><ele>474.5</ele></trkpt>
<trkpt lat="47.753134" lon="12.900502"><ele>474.8</ele></trkpt>
<trkpt lat="47.752294" lon="12.901798"><ele>464.8</ele></trkpt>
<trkpt lat="47.751582" lon="12.902133"><ele>465.0</ele></trkpt>
<trkpt lat="47.750593" lon="12.901341"><ele>472.2</ele></trkpt>
<trkpt lat="47.749239" lon="12.901103"><ele>467.1</ele></trkpt>
<trkpt lat="47.748711" lon="12.900887"><ele>467.5</ele></trkpt>
<trkpt lat="47.747599" lon="12.899938"><ele>457.0</ele></trkpt>
<trkpt lat="47.746856" lon="12.900634"><ele>458.7</ele></trkpt>
<trkpt lat="47.746796" lon="12.900174"><ele>457.7</ele></trkpt>
<trkpt lat="47.745991" lon="12.898355"><ele>459.6</ele></trkpt>
<trkpt lat="47.745674" lon="12.897284"><ele>462.4</ele></trkpt>
<trkpt lat="47.745251" lon="12.896696"><ele>463.1</ele></trkpt>
<trkpt lat="47.744765" lon="12.895508"><ele>461.9</ele></trkpt>
<trkpt lat="47.744501" lon="12.895290"><ele>462.8</ele></trkpt>
<trkpt lat="47.744049" lon="12.894024"><ele>465.6</ele></trkpt>
<trkpt lat="47.743213" lon="12.892394"><ele>466.9</ele></trkpt>
<trkpt lat="47.742328" lon="12.890621"><ele>462.5</ele></trkpt>
<trkpt lat="47.742142" lon="12.890272"><ele>463.3</ele></trkpt>
<trkpt lat="47.741496" lon="12.889633"><ele>462.0</ele></trkpt>
<trkpt lat="47.740761" lon="12.887826"><ele>465.6</ele></trkpt>
<trkpt lat="47.740268" lon="12.886363"><ele>466.0</ele></trkpt>
<trkpt lat="47.739455" lon="12.884715"><ele>467.0</ele></trkpt>
<trkpt lat="47.738668" lon="12.882994"><ele>466.6</ele></trkpt>
<trkpt lat="47.737817" lon="12.881371"><ele>463.7</ele></trkpt>
<trkpt lat="47.737043" lon="12.879701"><ele>463.6</ele></trkpt>
<trkpt lat="47.736231" lon="12.878030"><ele>463.1</ele></trkpt>
<trkpt lat="47.735357" lon="12.876200"><ele>464.3</ele></trkpt>
<trkpt lat="47.734853" lon="12.875306"><ele>465.1</ele></trkpt>
<trkpt lat="47.734106" lon="12.875916"><ele>460.5</ele></trkpt>
<trkpt lat="47.733051" lon="12.877346"><ele>465.4</ele></trkpt>
<trkpt lat="47.732762" lon="12.877764"><ele>465.9</ele></trkpt>
<trkpt lat="47.731783" lon="12.878258"><ele>464.3</ele></trkpt>
<trkpt lat="47.730442" lon="12.879279"><ele>469.2</ele></trkpt>
<trkpt lat="47.730113" lon="12.879533"><ele>468.9</ele></trkpt>
<trkpt lat="47.729632" lon="12.879561"><ele>467.7</ele></trkpt>
<trkpt lat="47.728984" lon="12.880019"><ele>470.3</ele></trkpt>
<trkpt lat="47.729690" lon="12.881168"><ele>467.4</ele></trkpt>
<trkpt lat="47.728766" lon="12.882934"><ele>468.2</ele></trkpt>
<trkpt lat="47.728118" lon="12.884187"><ele>469.7</ele></trkpt>
<trkpt lat="47.727687" lon="12.883896"><ele>471.3</ele></trkpt>
<trkpt lat="47.727494" lon="12.883113"><ele>470.2</ele></trkpt>
<trkpt lat="47.726900" lon="12.883842"><ele>474.7</ele></trkpt>
</trkseg></trk></gpx>