<?xml version="1.0" encoding="UTF-8"?>
<gpx version="1.1" creator="Bad Reichenhall gravel – saját gravel-router (OSM/Overture + SRTM)" xmlns="http://www.topografix.com/GPX/1/1">
<metadata><name>Lofer – Vorderkaserklamm – Unken (Saalach-völgy)</name><desc>GENERÁLT NYOMVONAL – Loferből St. Martinon át a Vorderkaserklamm szurdokához (büfé, rövid gyalogos kör a szurdokban), majd vissza Loferbe és a Saalach-völgyi bringaúton (Tauernradweg) Unkenig és vissza. Lankás, a Loferer Steinberge falai alatt. A Loferer Alm meredek (12% feletti) hegyi útja kimaradt.</desc><copyright author="OpenStreetMap contributors (via Overture Maps)"><license>https://opendatacommons.org/licenses/odbl/</license></copyright><time>2026-10-04T16:53:07Z</time></metadata>
<wpt lat="47.5868" lon="12.695"><name>Lofer</name><type>town</type></wpt>
<wpt lat="47.5678" lon="12.7049"><name>St. Martin bei Lofer</name><type>town</type></wpt>
<wpt lat="47.5214" lon="12.704"><name>Vorderkaserklamm</name><type>gorge</type></wpt>
<wpt lat="47.6443" lon="12.7189"><name>Unken</name><type>town</type></wpt>
<trk><name>Lofer – Vorderkaserklamm – Unken (Saalach-völgy)</name><type>gravel</type><trkseg>
<trkpt lat="47.586710" lon="12.695305"><ele>626.0</ele></trkpt>
<trkpt lat="47.586450" lon="12.694998"><ele>626.8</ele></trkpt>
<trkpt lat="47.586498" lon="12.694852"><ele>626.8</ele></trkpt>
<trkpt lat="47.586095" lon="12.694695"><ele>627.9</ele></trkpt>
<trkpt lat="47.586368" lon="12.693838"><ele>627.9</ele></trkpt>
<trkpt lat="47.585809" lon="12.693587"><ele>624.9</ele></trkpt>
<trkpt lat="47.585763" lon="12.693245"><ele>624.8</ele></trkpt>
<trkpt lat="47.584462" lon="12.693822"><ele>623.4</ele></trkpt>
<trkpt lat="47.584437" lon="12.693808"><ele>623.3</ele></trkpt>
<trkpt lat="47.584042" lon="12.694692"><ele>622.5</ele></trkpt>
<trkpt lat="47.583527" lon="12.694646"><ele>621.7</ele></trkpt>
<trkpt lat="47.583531" lon="12.695275"><ele>622.7</ele></trkpt>
<trkpt lat="47.583242" lon="12.695694"><ele>624.2</ele></trkpt>
<trkpt lat="47.583185" lon="12.696299"><ele>624.9</ele></trkpt>
<trkpt lat="47.582777" lon="12.697445"><ele>621.2</ele></trkpt>
<trkpt lat="47.582396" lon="12.697881"><ele>624.2</ele></trkpt>
<trkpt lat="47.580985" lon="12.698206"><ele>628.2</ele></trkpt>
<trkpt lat="47.580898" lon="12.698257"><ele>628.7</ele></trkpt>
<trkpt lat="47.580778" lon="12.698975"><ele>627.2</ele></trkpt>
<trkpt lat="47.579273" lon="12.699087"><ele>625.7</ele></trkpt>
<trkpt lat="47.579079" lon="12.699092"><ele>624.7</ele></trkpt>
<trkpt lat="47.577634" lon="12.699005"><ele>628.2</ele></trkpt>
<trkpt lat="47.576566" lon="12.698919"><ele>628.4</ele></trkpt>
<trkpt lat="47.575698" lon="12.699135"><ele>628.5</ele></trkpt>
<trkpt lat="47.574401" lon="12.699990"><ele>628.7</ele></trkpt>
<trkpt lat="47.573790" lon="12.700571"><ele>630.8</ele></trkpt>
<trkpt lat="47.572444" lon="12.701406"><ele>631.5</ele></trkpt>
<trkpt lat="47.571124" lon="12.702253"><ele>628.9</ele></trkpt>
<trkpt lat="47.569758" lon="12.703146"><ele>628.0</ele></trkpt>
<trkpt lat="47.568587" lon="12.704042"><ele>629.5</ele></trkpt>
<trkpt lat="47.567673" lon="12.704489"><ele>629.8</ele></trkpt>
<trkpt lat="47.566497" lon="12.705534"><ele>632.6</ele></trkpt>
<trkpt lat="47.565925" lon="12.705852"><ele>633.7</ele></trkpt>
<trkpt lat="47.565530" lon="12.706830"><ele>635.8</ele></trkpt>
<trkpt lat="47.565121" lon="12.708987"><ele>635.9</ele></trkpt>
<trkpt lat="47.564914" lon="12.709817"><ele>636.7</ele></trkpt>
<trkpt lat="47.564253" lon="12.711650"><ele>636.0</ele></trkpt>
<trkpt lat="47.563504" lon="12.712832"><ele>638.9</ele></trkpt>
<trkpt lat="47.563393" lon="12.713536"><ele>635.8</ele></trkpt>
<trkpt lat="47.562100" lon="12.714290"><ele>642.7</ele></trkpt>
<trkpt lat="47.561475" lon="12.714829"><ele>636.9</ele></trkpt>
<trkpt lat="47.560487" lon="12.716408"><ele>656.4</ele></trkpt>
<trkpt lat="47.560093" lon="12.717085"><ele>653.5</ele></trkpt>
<trkpt lat="47.558803" lon="12.718150"><ele>647.2</ele></trkpt>
<trkpt lat="47.557778" lon="12.719197"><ele>663.3</ele></trkpt>
<trkpt lat="47.556924" lon="12.720874"><ele>639.7</ele></trkpt>
<trkpt lat="47.556057" lon="12.722575"><ele>639.4</ele></trkpt>
<trkpt lat="47.555311" lon="12.723936"><ele>644.9</ele></trkpt>
<trkpt lat="47.553928" lon="12.723068"><ele>652.1</ele></trkpt>
<trkpt lat="47.553911" lon="12.723060"><ele>651.7</ele></trkpt>
<trkpt lat="47.552558" lon="12.722613"><ele>655.8</ele></trkpt>
<trkpt lat="47.551645" lon="12.722129"><ele>668.8</ele></trkpt>
<trkpt lat="47.550617" lon="12.721919"><ele>652.7</ele></trkpt>
<trkpt lat="47.549511" lon="12.721229"><ele>654.2</ele></trkpt>
<trkpt lat="47.548629" lon="12.720983"><ele>651.2</ele></trkpt>
<trkpt lat="47.547404" lon="12.720144"><ele>666.3</ele></trkpt>
<trkpt lat="47.546112" lon="12.719425"><ele>662.1</ele></trkpt>
<trkpt lat="47.545292" lon="12.719060"><ele>672.5</ele></trkpt>
<trkpt lat="47.544633" lon="12.719316"><ele>664.5</ele></trkpt>
<trkpt lat="47.543754" lon="12.719156"><ele>659.7</ele></trkpt>
<trkpt lat="47.542379" lon="12.719246"><ele>663.7</ele></trkpt>
<trkpt lat="47.541395" lon="12.719305"><ele>669.4</ele></trkpt>
<trkpt lat="47.540051" lon="12.719125"><ele>675.0</ele></trkpt>
<trkpt lat="47.539050" lon="12.718960"><ele>676.6</ele></trkpt>
<trkpt lat="47.537699" lon="12.719696"><ele>675.3</ele></trkpt>
<trkpt lat="47.536775" lon="12.720064"><ele>675.0</ele></trkpt>
<trkpt lat="47.535493" lon="12.719246"><ele>679.4</ele></trkpt>
<trkpt lat="47.535211" lon="12.719079"><ele>680.5</ele></trkpt>
<trkpt lat="47.534423" lon="12.719059"><ele>681.3</ele></trkpt>
<trkpt lat="47.533549" lon="12.718438"><ele>683.4</ele></trkpt>
<trkpt lat="47.532196" lon="12.718074"><ele>683.6</ele></trkpt>
<trkpt lat="47.530910" lon="12.717637"><ele>694.9</ele></trkpt>
<trkpt lat="47.529744" lon="12.716622"><ele>687.9</ele></trkpt>
<trkpt lat="47.529026" lon="12.715899"><ele>685.5</ele></trkpt>
<trkpt lat="47.527903" lon="12.714747"><ele>692.9</ele></trkpt>
<trkpt lat="47.527255" lon="12.713952"><ele>701.1</ele></trkpt>
<trkpt lat="47.527002" lon="12.713846"><ele>698.9</ele></trkpt>
<trkpt lat="47.526368" lon="12.714246"><ele>698.2</ele></trkpt>
<trkpt lat="47.525232" lon="12.713123"><ele>699.3</ele></trkpt>
<trkpt lat="47.524541" lon="12.712427"><ele>709.3</ele></trkpt>
<trkpt lat="47.523728" lon="12.710819"><ele>713.6</ele></trkpt>
<trkpt lat="47.523291" lon="12.710174"><ele>715.0</ele></trkpt>
<trkpt lat="47.522892" lon="12.708891"><ele>718.1</ele></trkpt>
<trkpt lat="47.522225" lon="12.707547"><ele>722.0</ele></trkpt>
<trkpt lat="47.521698" lon="12.706967"><ele>735.5</ele></trkpt>
<trkpt lat="47.520847" lon="12.706935"><ele>736.8</ele></trkpt>
<trkpt lat="47.520413" lon="12.706533"><ele>739.4</ele></trkpt>
<trkpt lat="47.520106" lon="12.705218"><ele>739.1</ele></trkpt>
<trkpt lat="47.520172" lon="12.704997"><ele>735.9</ele></trkpt>
<trkpt lat="47.520262" lon="12.705140"><ele>736.7</ele></trkpt>
<trkpt lat="47.520172" lon="12.704997"><ele>735.9</ele></trkpt>
<trkpt lat="47.520106" lon="12.705218"><ele>739.1</ele></trkpt>
<trkpt lat="47.520413" lon="12.706533"><ele>739.4</ele></trkpt>
<trkpt lat="47.520847" lon="12.706935"><ele>736.8</ele></trkpt>
<trkpt lat="47.521698" lon="12.706967"><ele>735.5</ele></trkpt>
<trkpt lat="47.522225" lon="12.707547"><ele>722.0</ele></trkpt>
<trkpt lat="47.522892" lon="12.708891"><ele>718.1</ele></trkpt>
<trkpt lat="47.523291" lon="12.710174"><ele>715.0</ele></trkpt>
<trkpt lat="47.524155" lon="12.711707"><ele>703.9</ele></trkpt>
<trkpt lat="47.524541" lon="12.712427"><ele>709.3</ele></trkpt>
<trkpt lat="47.525705" lon="12.713509"><ele>698.3</ele></trkpt>
<trkpt lat="47.526368" lon="12.714246"><ele>698.2</ele></trkpt>
<trkpt lat="47.527002" lon="12.713846"><ele>698.9</ele></trkpt>
<trkpt lat="47.527255" lon="12.713952"><ele>701.1</ele></trkpt>
<trkpt lat="47.528378" lon="12.715114"><ele>691.7</ele></trkpt>
<trkpt lat="47.529026" lon="12.715899"><ele>685.5</ele></trkpt>
<trkpt lat="47.530173" lon="12.716890"><ele>693.5</ele></trkpt>
<trkpt lat="47.530910" lon="12.717637"><ele>694.9</ele></trkpt>
<trkpt lat="47.532374" lon="12.718104"><ele>685.6</ele></trkpt>
<trkpt lat="47.533549" lon="12.718438"><ele>683.4</ele></trkpt>
<trkpt lat="47.534423" lon="12.719059"><ele>681.3</ele></trkpt>
<trkpt lat="47.535211" lon="12.719079"><ele>680.5</ele></trkpt>
<trkpt lat="47.536554" lon="12.719888"><ele>674.8</ele></trkpt>
<trkpt lat="47.536775" lon="12.720064"><ele>675.0</ele></trkpt>
<trkpt lat="47.538058" lon="12.719507"><ele>674.5</ele></trkpt>
<trkpt lat="47.539050" lon="12.718960"><ele>676.6</ele></trkpt>
<trkpt lat="47.540408" lon="12.719194"><ele>672.3</ele></trkpt>
<trkpt lat="47.541395" lon="12.719305"><ele>669.4</ele></trkpt>
<trkpt lat="47.542859" lon="12.719177"><ele>659.7</ele></trkpt>
<trkpt lat="47.543754" lon="12.719156"><ele>659.7</ele></trkpt>
<trkpt lat="47.544633" lon="12.719316"><ele>664.5</ele></trkpt>
<trkpt lat="47.545292" lon="12.719060"><ele>672.5</ele></trkpt>
<trkpt lat="47.546688" lon="12.719856"><ele>660.9</ele></trkpt>
<trkpt lat="47.548075" lon="12.720527"><ele>653.1</ele></trkpt>
<trkpt lat="47.548629" lon="12.720983"><ele>651.2</ele></trkpt>
<trkpt lat="47.549511" lon="12.721229"><ele>654.2</ele></trkpt>
<trkpt lat="47.550617" lon="12.721919"><ele>652.7</ele></trkpt>
<trkpt lat="47.551645" lon="12.722129"><ele>668.8</ele></trkpt>
<trkpt lat="47.553070" lon="12.722814"><ele>657.3</ele></trkpt>
<trkpt lat="47.553911" lon="12.723060"><ele>651.7</ele></trkpt>
<trkpt lat="47.555230" lon="12.723878"><ele>644.8</ele></trkpt>
<trkpt lat="47.555311" lon="12.723936"><ele>644.9</ele></trkpt>
<trkpt lat="47.556271" lon="12.722202"><ele>640.1</ele></trkpt>
<trkpt lat="47.557138" lon="12.720448"><ele>648.8</ele></trkpt>
<trkpt lat="47.557778" lon="12.719197"><ele>663.3</ele></trkpt>
<trkpt lat="47.558963" lon="12.718026"><ele>646.3</ele></trkpt>
<trkpt lat="47.560093" lon="12.717085"><ele>653.5</ele></trkpt>
<trkpt lat="47.561022" lon="12.715443"><ele>641.4</ele></trkpt>
<trkpt lat="47.561475" lon="12.714829"><ele>636.9</ele></trkpt>
<trkpt lat="47.562845" lon="12.713889"><ele>640.3</ele></trkpt>
<trkpt lat="47.563393" lon="12.713536"><ele>635.8</ele></trkpt>
<trkpt lat="47.563504" lon="12.712832"><ele>638.9</ele></trkpt>
<trkpt lat="47.564253" lon="12.711650"><ele>636.0</ele></trkpt>
<trkpt lat="47.564914" lon="12.709817"><ele>636.7</ele></trkpt>
<trkpt lat="47.565358" lon="12.707795"><ele>635.7</ele></trkpt>
<trkpt lat="47.565530" lon="12.706830"><ele>635.8</ele></trkpt>
<trkpt lat="47.565838" lon="12.706148"><ele>635.1</ele></trkpt>
<trkpt lat="47.566058" lon="12.706331"><ele>634.2</ele></trkpt>
<trkpt lat="47.566307" lon="12.705701"><ele>633.0</ele></trkpt>
<trkpt lat="47.567518" lon="12.704628"><ele>629.7</ele></trkpt>
<trkpt lat="47.567673" lon="12.704489"><ele>629.8</ele></trkpt>
<trkpt lat="47.569023" lon="12.703696"><ele>629.0</ele></trkpt>
<trkpt lat="47.570333" lon="12.702767"><ele>631.0</ele></trkpt>
<trkpt lat="47.571571" lon="12.701967"><ele>625.7</ele></trkpt>
<trkpt lat="47.572892" lon="12.701119"><ele>632.5</ele></trkpt>
<trkpt lat="47.573790" lon="12.700571"><ele>630.8</ele></trkpt>
<trkpt lat="47.574983" lon="12.699608"><ele>628.9</ele></trkpt>
<trkpt lat="47.575698" lon="12.699135"><ele>628.5</ele></trkpt>
<trkpt lat="47.576566" lon="12.698919"><ele>628.4</ele></trkpt>
<trkpt lat="47.577922" lon="12.699032"><ele>626.5</ele></trkpt>
<trkpt lat="47.579438" lon="12.699084"><ele>626.7</ele></trkpt>
<trkpt lat="47.580049" lon="12.699059"><ele>629.4</ele></trkpt>
<trkpt lat="47.580788" lon="12.698801"><ele>627.4</ele></trkpt>
<trkpt lat="47.580898" lon="12.698257"><ele>628.7</ele></trkpt>
<trkpt lat="47.581784" lon="12.697953"><ele>625.0</ele></trkpt>
<trkpt lat="47.581717" lon="12.696797"><ele>624.4</ele></trkpt>
<trkpt lat="47.581932" lon="12.696743"><ele>624.0</ele></trkpt>
<trkpt lat="47.581874" lon="12.696067"><ele>623.3</ele></trkpt>
<trkpt lat="47.583223" lon="12.695779"><ele>624.6</ele></trkpt>
<trkpt lat="47.583531" lon="12.695275"><ele>622.7</ele></trkpt>
<trkpt lat="47.583527" lon="12.694646"><ele>621.7</ele></trkpt>
<trkpt lat="47.584042" lon="12.694692"><ele>622.5</ele></trkpt>
<trkpt lat="47.584437" lon="12.693808"><ele>623.3</ele></trkpt>
<trkpt lat="47.585743" lon="12.693252"><ele>624.8</ele></trkpt>
<trkpt lat="47.586090" lon="12.693030"><ele>625.0</ele></trkpt>
<trkpt lat="47.586392" lon="12.692408"><ele>625.3</ele></trkpt>
<trkpt lat="47.586801" lon="12.692565"><ele>625.5</ele></trkpt>
<trkpt lat="47.587913" lon="12.693731"><ele>624.5</ele></trkpt>
<trkpt lat="47.588119" lon="12.693840"><ele>622.8</ele></trkpt>
<trkpt lat="47.589002" lon="12.695294"><ele>618.5</ele></trkpt>
<trkpt lat="47.589267" lon="12.695811"><ele>615.7</ele></trkpt>
<trkpt lat="47.589906" lon="12.695700"><ele>619.0</ele></trkpt>
<trkpt lat="47.590155" lon="12.695117"><ele>628.0</ele></trkpt>
<trkpt lat="47.591307" lon="12.695005"><ele>630.3</ele></trkpt>
<trkpt lat="47.592529" lon="12.696133"><ele>619.6</ele></trkpt>
<trkpt lat="47.593452" lon="12.697130"><ele>620.2</ele></trkpt>
<trkpt lat="47.594023" lon="12.697286"><ele>628.4</ele></trkpt>
<trkpt lat="47.594396" lon="12.697674"><ele>623.1</ele></trkpt>
<trkpt lat="47.595675" lon="12.698419"><ele>620.5</ele></trkpt>
<trkpt lat="47.596292" lon="12.698631"><ele>623.2</ele></trkpt>
<trkpt lat="47.596738" lon="12.699090"><ele>620.3</ele></trkpt>
<trkpt lat="47.597628" lon="12.700896"><ele>613.7</ele></trkpt>
<trkpt lat="47.597883" lon="12.701486"><ele>610.1</ele></trkpt>
<trkpt lat="47.598548" lon="12.702149"><ele>612.6</ele></trkpt>
<trkpt lat="47.600006" lon="12.702639"><ele>606.0</ele></trkpt>
<trkpt lat="47.600214" lon="12.702700"><ele>606.7</ele></trkpt>
<trkpt lat="47.600641" lon="12.703220"><ele>595.2</ele></trkpt>
<trkpt lat="47.602025" lon="12.703847"><ele>592.4</ele></trkpt>
<trkpt lat="47.602041" lon="12.703853"><ele>592.1</ele></trkpt>
<trkpt lat="47.602672" lon="12.703874"><ele>585.9</ele></trkpt>
<trkpt lat="47.603061" lon="12.703642"><ele>591.8</ele></trkpt>
<trkpt lat="47.604021" lon="12.703949"><ele>586.8</ele></trkpt>
<trkpt lat="47.604598" lon="12.704567"><ele>582.9</ele></trkpt>
<trkpt lat="47.605224" lon="12.706548"><ele>577.5</ele></trkpt>
<trkpt lat="47.605306" lon="12.706727"><ele>577.9</ele></trkpt>
<trkpt lat="47.605833" lon="12.707041"><ele>579.9</ele></trkpt>
<trkpt lat="47.606473" lon="12.707022"><ele>572.7</ele></trkpt>
<trkpt lat="47.607101" lon="12.705841"><ele>581.3</ele></trkpt>
<trkpt lat="47.607762" lon="12.705364"><ele>579.6</ele></trkpt>
<trkpt lat="47.608504" lon="12.705454"><ele>572.2</ele></trkpt>
<trkpt lat="47.609598" lon="12.706195"><ele>574.1</ele></trkpt>
<trkpt lat="47.610241" lon="12.706105"><ele>576.0</ele></trkpt>
<trkpt lat="47.611178" lon="12.705588"><ele>575.0</ele></trkpt>
<trkpt lat="47.611427" lon="12.706045"><ele>574.3</ele></trkpt>
<trkpt lat="47.612264" lon="12.706087"><ele>572.9</ele></trkpt>
<trkpt lat="47.613512" lon="12.706773"><ele>565.7</ele></trkpt>
<trkpt lat="47.614248" lon="12.707209"><ele>563.8</ele></trkpt>
<trkpt lat="47.615716" lon="12.707789"><ele>559.8</ele></trkpt>
<trkpt lat="47.616414" lon="12.708084"><ele>560.0</ele></trkpt>
<trkpt lat="47.617606" lon="12.709060"><ele>563.2</ele></trkpt>
<trkpt lat="47.618129" lon="12.709447"><ele>557.8</ele></trkpt>
<trkpt lat="47.619214" lon="12.709839"><ele>577.7</ele></trkpt>
<trkpt lat="47.619905" lon="12.710873"><ele>572.4</ele></trkpt>
<trkpt lat="47.620349" lon="12.712004"><ele>560.0</ele></trkpt>
<trkpt lat="47.620530" lon="12.713777"><ele>559.6</ele></trkpt>
<trkpt lat="47.620668" lon="12.714059"><ele>560.6</ele></trkpt>
<trkpt lat="47.621360" lon="12.714718"><ele>565.5</ele></trkpt>
<trkpt lat="47.622493" lon="12.716179"><ele>556.5</ele></trkpt>
<trkpt lat="47.623391" lon="12.717335"><ele>556.1</ele></trkpt>
<trkpt lat="47.624332" lon="12.718880"><ele>561.8</ele></trkpt>
<trkpt lat="47.625268" lon="12.720407"><ele>556.5</ele></trkpt>
<trkpt lat="47.625287" lon="12.720432"><ele>556.4</ele></trkpt>
<trkpt lat="47.626688" lon="12.720905"><ele>548.9</ele></trkpt>
<trkpt lat="47.626958" lon="12.721049"><ele>549.8</ele></trkpt>
<trkpt lat="47.627990" lon="12.722565"><ele>556.4</ele></trkpt>
<trkpt lat="47.628231" lon="12.722921"><ele>563.1</ele></trkpt>
<trkpt lat="47.629079" lon="12.724688"><ele>558.8</ele></trkpt>
<trkpt lat="47.629965" lon="12.726500"><ele>564.8</ele></trkpt>
<trkpt lat="47.630289" lon="12.727078"><ele>560.0</ele></trkpt>
<trkpt lat="47.630861" lon="12.727709"><ele>556.3</ele></trkpt>
<trkpt lat="47.631800" lon="12.727997"><ele>575.9</ele></trkpt>
<trkpt lat="47.633198" lon="12.727813"><ele>589.6</ele></trkpt>
<trkpt lat="47.633755" lon="12.727968"><ele>563.9</ele></trkpt>
<trkpt lat="47.635254" lon="12.727720"><ele>559.2</ele></trkpt>
<trkpt lat="47.636611" lon="12.727626"><ele>546.3</ele></trkpt>
<trkpt lat="47.636756" lon="12.727602"><ele>546.9</ele></trkpt>
<trkpt lat="47.636905" lon="12.727359"><ele>553.8</ele></trkpt>
<trkpt lat="47.638206" lon="12.727563"><ele>575.7</ele></trkpt>
<trkpt lat="47.639267" lon="12.727463"><ele>554.2</ele></trkpt>
<trkpt lat="47.640244" lon="12.727286"><ele>551.2</ele></trkpt>
<trkpt lat="47.640969" lon="12.726713"><ele>556.5</ele></trkpt>
<trkpt lat="47.641814" lon="12.726421"><ele>550.4</ele></trkpt>
<trkpt lat="47.642021" lon="12.726423"><ele>546.6</ele></trkpt>
<trkpt lat="47.642046" lon="12.727042"><ele>542.5</ele></trkpt>
<trkpt lat="47.642569" lon="12.727164"><ele>542.4</ele></trkpt>
<trkpt lat="47.642736" lon="12.726977"><ele>545.1</ele></trkpt>
<trkpt lat="47.642724" lon="12.726238"><ele>547.7</ele></trkpt>
<trkpt lat="47.642415" lon="12.724118"><ele>549.6</ele></trkpt>
<trkpt lat="47.642343" lon="12.723675"><ele>549.9</ele></trkpt>
<trkpt lat="47.642304" lon="12.721718"><ele>555.2</ele></trkpt>
<trkpt lat="47.642689" lon="12.721438"><ele>563.1</ele></trkpt>
<trkpt lat="47.642903" lon="12.720412"><ele>571.3</ele></trkpt>
<trkpt lat="47.643585" lon="12.720171"><ele>582.6</ele></trkpt>
<trkpt lat="47.644318" lon="12.718917"><ele>581.2</ele></trkpt>
<trkpt lat="47.643585" lon="12.720171"><ele>582.6</ele></trkpt>
<trkpt lat="47.642903" lon="12.720412"><ele>571.3</ele></trkpt>
<trkpt lat="47.642689" lon="12.721438"><ele>563.1</ele></trkpt>
<trkpt lat="47.642304" lon="12.721718"><ele>555.2</ele></trkpt>
<trkpt lat="47.642343" lon="12.723675"><ele>549.9</ele></trkpt>
<trkpt lat="47.642651" lon="12.725635"><ele>547.5</ele></trkpt>
<trkpt lat="47.642724" lon="12.726238"><ele>547.7</ele></trkpt>
<trkpt lat="47.642736" lon="12.726976"><ele>545.1</ele></trkpt>
<trkpt lat="47.642600" lon="12.727153"><ele>542.6</ele></trkpt>
<trkpt lat="47.642046" lon="12.727042"><ele>542.5</ele></trkpt>
<trkpt lat="47.642021" lon="12.726423"><ele>546.6</ele></trkpt>
<trkpt lat="47.641814" lon="12.726421"><ele>550.4</ele></trkpt>
<trkpt lat="47.640969" lon="12.726713"><ele>556.5</ele></trkpt>
<trkpt lat="47.640244" lon="12.727286"><ele>551.2</ele></trkpt>
<trkpt lat="47.639267" lon="12.727463"><ele>554.2</ele></trkpt>
<trkpt lat="47.638206" lon="12.727563"><ele>575.7</ele></trkpt>
<trkpt lat="47.636905" lon="12.727359"><ele>553.8</ele></trkpt>
<trkpt lat="47.636756" lon="12.727602"><ele>546.9</ele></trkpt>
<trkpt lat="47.635370" lon="12.727708"><ele>557.9</ele></trkpt>
<trkpt lat="47.634008" lon="12.727911"><ele>565.3</ele></trkpt>
<trkpt lat="47.633755" lon="12.727968"><ele>563.9</ele></trkpt>
<trkpt lat="47.633198" lon="12.727813"><ele>589.6</ele></trkpt>
<trkpt lat="47.631850" lon="12.727987"><ele>578.5</ele></trkpt>
<trkpt lat="47.631800" lon="12.727997"><ele>575.9</ele></trkpt>
<trkpt lat="47.631172" lon="12.727878"><ele>561.0</ele></trkpt>
<trkpt lat="47.630289" lon="12.727078"><ele>560.0</ele></trkpt>
<trkpt lat="47.629450" lon="12.725472"><ele>563.3</ele></trkpt>
<trkpt lat="47.628666" lon="12.723813"><ele>560.9</ele></trkpt>
<trkpt lat="47.628231" lon="12.722921"><ele>563.1</ele></trkpt>
<trkpt lat="47.627211" lon="12.721577"><ele>548.6</ele></trkpt>
<trkpt lat="47.626958" lon="12.721049"><ele>549.8</ele></trkpt>
<trkpt lat="47.625565" lon="12.720590"><ele>551.9</ele></trkpt>
<trkpt lat="47.625287" lon="12.720432"><ele>556.4</ele></trkpt>
<trkpt lat="47.624318" lon="12.718852"><ele>561.8</ele></trkpt>
<trkpt lat="47.623391" lon="12.717335"><ele>556.1</ele></trkpt>
<trkpt lat="47.622304" lon="12.715935"><ele>556.3</ele></trkpt>
<trkpt lat="47.621360" lon="12.714718"><ele>565.5</ele></trkpt>
<trkpt lat="47.620668" lon="12.714059"><ele>560.6</ele></trkpt>
<trkpt lat="47.620530" lon="12.713777"><ele>559.6</ele></trkpt>
<trkpt lat="47.620349" lon="12.712004"><ele>560.0</ele></trkpt>
<trkpt lat="47.619905" lon="12.710873"><ele>572.4</ele></trkpt>
<trkpt lat="47.619214" lon="12.709839"><ele>577.7</ele></trkpt>
<trkpt lat="47.618129" lon="12.709447"><ele>557.8</ele></trkpt>
<trkpt lat="47.616837" lon="12.708374"><ele>562.8</ele></trkpt>
<trkpt lat="47.616414" lon="12.708084"><ele>560.0</ele></trkpt>
<trkpt lat="47.615033" lon="12.707574"><ele>566.1</ele></trkpt>
<trkpt lat="47.614248" lon="12.707209"><ele>563.8</ele></trkpt>
<trkpt lat="47.612969" lon="12.706593"><ele>570.8</ele></trkpt>
<trkpt lat="47.612264" lon="12.706087"><ele>572.9</ele></trkpt>
<trkpt lat="47.611427" lon="12.706045"><ele>574.3</ele></trkpt>
<trkpt lat="47.611178" lon="12.705588"><ele>575.0</ele></trkpt>
<trkpt lat="47.610241" lon="12.706105"><ele>576.0</ele></trkpt>
<trkpt lat="47.609598" lon="12.706195"><ele>574.1</ele></trkpt>
<trkpt lat="47.608504" lon="12.705454"><ele>572.2</ele></trkpt>
<trkpt lat="47.607762" lon="12.705364"><ele>579.6</ele></trkpt>
<trkpt lat="47.607101" lon="12.705841"><ele>581.3</ele></trkpt>
<trkpt lat="47.606473" lon="12.707022"><ele>572.7</ele></trkpt>
<trkpt lat="47.605833" lon="12.707041"><ele>579.9</ele></trkpt>
<trkpt lat="47.605306" lon="12.706727"><ele>577.9</ele></trkpt>
<trkpt lat="47.604734" lon="12.704906"><ele>580.9</ele></trkpt>
<trkpt lat="47.604714" lon="12.704828"><ele>581.1</ele></trkpt>
<trkpt lat="47.604267" lon="12.704150"><ele>586.8</ele></trkpt>
<trkpt lat="47.603061" lon="12.703642"><ele>591.8</ele></trkpt>
<trkpt lat="47.602672" lon="12.703874"><ele>585.9</ele></trkpt>
<trkpt lat="47.602041" lon="12.703853"><ele>592.1</ele></trkpt>
<trkpt lat="47.600721" lon="12.703252"><ele>595.4</ele></trkpt>
<trkpt lat="47.600641" lon="12.703220"><ele>595.2</ele></trkpt>
<trkpt lat="47.600214" lon="12.702700"><ele>606.7</ele></trkpt>
<trkpt lat="47.598787" lon="12.702230"><ele>612.4</ele></trkpt>
<trkpt lat="47.598548" lon="12.702149"><ele>612.6</ele></trkpt>
<trkpt lat="47.597702" lon="12.701196"><ele>610.8</ele></trkpt>
<trkpt lat="47.597566" lon="12.700645"><ele>615.5</ele></trkpt>
<trkpt lat="47.596643" lon="12.698954"><ele>620.8</ele></trkpt>
<trkpt lat="47.595312" lon="12.698181"><ele>619.2</ele></trkpt>
<trkpt lat="47.594396" lon="12.697674"><ele>623.1</ele></trkpt>
<trkpt lat="47.594023" lon="12.697286"><ele>628.4</ele></trkpt>
<trkpt lat="47.593452" lon="12.697130"><ele>620.2</ele></trkpt>
<trkpt lat="47.592304" lon="12.695925"><ele>618.6</ele></trkpt>
<trkpt lat="47.591307" lon="12.695005"><ele>630.3</ele></trkpt>
<trkpt lat="47.590155" lon="12.695116"><ele>628.0</ele></trkpt>
<trkpt lat="47.589906" lon="12.695700"><ele>619.0</ele></trkpt>
<trkpt lat="47.589267" lon="12.695811"><ele>615.7</ele></trkpt>
<trkpt lat="47.588365" lon="12.694339"><ele>622.7</ele></trkpt>
<trkpt lat="47.588396" lon="12.694279"><ele>623.3</ele></trkpt>
<trkpt lat="47.587383" lon="12.693172"><ele>625.7</ele></trkpt>
<trkpt lat="47.587112" lon="12.693484"><ele>626.7</ele></trkpt>
<trkpt lat="47.586760" lon="12.693499"><ele>627.8</ele></trkpt>
<trkpt lat="47.586919" lon="12.694624"><ele>626.4</ele></trkpt>
<trkpt lat="47.586710" lon="12.695305"><ele>626.0</ele></trkpt>
</trkseg></trk></gpx>