<?xml version="1.0" encoding="UTF-8"?>
<gpx version="1.1" creator="Bad Reichenhall gravel – saját gravel-router (OSM/Overture + SRTM)" xmlns="http://www.topografix.com/GPX/1/1">
<metadata><name>Schwarzbachwacht – Ramsau – Berchtesgaden nagy kör</name><desc>GENERÁLT NYOMVONAL – A Schwarzbachwacht-kör hosszabb változata, alig több szinttel. A hágó és Ramsau után nem kapaszkodsz fel Bischofswiesen és a Hallthurm felé, hanem a Ramsauer Ache völgyén gurulsz le Berchtesgadenbe (Ramsauban bringaúton, Schönau felé murvás mezei úton). Onnan a Berchtesgadeni Ache mentén enyhe lejtőn Marktschellenbergig, át Ausztriába St. Leonhardig, majd az Untersberg lábánál Glaneggen és Großgmainon át haza. Kb. 24 km-rel hosszabb, nagyrészt lejtős vagy sík szakaszokkal, ez kb. 1–1,5 óra plusz.</desc><copyright author="OpenStreetMap contributors (via Overture Maps)"><license>https://opendatacommons.org/licenses/odbl/</license></copyright><time>2026-10-05T17:06:47Z</time></metadata>
<wpt lat="47.7086" lon="12.8573"><name>Saalachsee</name><type>lake</type></wpt>
<wpt lat="47.6711" lon="12.794"><name>Oberjettenberg</name><type>view</type></wpt>
<wpt lat="47.6368" lon="12.8552"><name>Schwarzbachwacht</name><type>pass</type></wpt>
<wpt lat="47.6309" lon="12.8712"><name>Mordau</name><type>town</type></wpt>
<wpt lat="47.6188" lon="12.8817"><name>Taubensee (Ramsau)</name><type>lake</type></wpt>
<wpt lat="47.6112" lon="12.9059"><name>Ramsau</name><type>town</type></wpt>
<wpt lat="47.6263" lon="12.9993"><name>Berchtesgaden</name><type>town</type></wpt>
<wpt lat="47.697" lon="13.045"><name>Marktschellenberg</name><type>town</type></wpt>
<wpt lat="47.7262" lon="13.0444"><name>St. Leonhard – Untersbergbahn</name><type>view</type></wpt>
<wpt lat="47.7296" lon="12.918"><name>Großgmain</name><type>town</type></wpt>
<trk><name>Schwarzbachwacht – Ramsau – Berchtesgaden nagy kör</name><type>gravel</type><trkseg>
<trkpt lat="47.726900" lon="12.883842"><ele>474.7</ele></trkpt>
<trkpt lat="47.726618" lon="12.884372"><ele>478.2</ele></trkpt>
<trkpt lat="47.726415" lon="12.884346"><ele>480.9</ele></trkpt>
<trkpt lat="47.726118" lon="12.883872"><ele>478.7</ele></trkpt>
<trkpt lat="47.725662" lon="12.883798"><ele>485.2</ele></trkpt>
<trkpt lat="47.724996" lon="12.883195"><ele>481.5</ele></trkpt>
<trkpt lat="47.724541" lon="12.882248"><ele>476.1</ele></trkpt>
<trkpt lat="47.724935" lon="12.881320"><ele>473.9</ele></trkpt>
<trkpt lat="47.724408" lon="12.880823"><ele>471.3</ele></trkpt>
<trkpt lat="47.724405" lon="12.880228"><ele>469.2</ele></trkpt>
<trkpt lat="47.723321" lon="12.879027"><ele>472.5</ele></trkpt>
<trkpt lat="47.722405" lon="12.877908"><ele>475.0</ele></trkpt>
<trkpt lat="47.722643" lon="12.877188"><ele>474.5</ele></trkpt>
<trkpt lat="47.721432" lon="12.876214"><ele>473.8</ele></trkpt>
<trkpt lat="47.720980" lon="12.875902"><ele>474.1</ele></trkpt>
<trkpt lat="47.719662" lon="12.875133"><ele>475.0</ele></trkpt>
<trkpt lat="47.719071" lon="12.874906"><ele>474.0</ele></trkpt>
<trkpt lat="47.718715" lon="12.873248"><ele>472.4</ele></trkpt>
<trkpt lat="47.718760" lon="12.873014"><ele>471.9</ele></trkpt>
<trkpt lat="47.718343" lon="12.873691"><ele>475.3</ele></trkpt>
<trkpt lat="47.716948" lon="12.873855"><ele>476.7</ele></trkpt>
<trkpt lat="47.716871" lon="12.873843"><ele>476.8</ele></trkpt>
<trkpt lat="47.715625" lon="12.873151"><ele>484.7</ele></trkpt>
<trkpt lat="47.714474" lon="12.872076"><ele>479.8</ele></trkpt>
<trkpt lat="47.713661" lon="12.870376"><ele>484.9</ele></trkpt>
<trkpt lat="47.713157" lon="12.869143"><ele>485.3</ele></trkpt>
<trkpt lat="47.712891" lon="12.868163"><ele>479.7</ele></trkpt>
<trkpt lat="47.712325" lon="12.867589"><ele>480.2</ele></trkpt>
<trkpt lat="47.711603" lon="12.866072"><ele>489.0</ele></trkpt>
<trkpt lat="47.710903" lon="12.865108"><ele>486.5</ele></trkpt>
<trkpt lat="47.710159" lon="12.863290"><ele>492.4</ele></trkpt>
<trkpt lat="47.709953" lon="12.862785"><ele>489.6</ele></trkpt>
<trkpt lat="47.709366" lon="12.861920"><ele>494.5</ele></trkpt>
<trkpt lat="47.708588" lon="12.861317"><ele>496.4</ele></trkpt>
<trkpt lat="47.707604" lon="12.859742"><ele>497.8</ele></trkpt>
<trkpt lat="47.706640" lon="12.858275"><ele>495.6</ele></trkpt>
<trkpt lat="47.705950" lon="12.857422"><ele>496.7</ele></trkpt>
<trkpt lat="47.705840" lon="12.856286"><ele>494.9</ele></trkpt>
<trkpt lat="47.705162" lon="12.854487"><ele>492.9</ele></trkpt>
<trkpt lat="47.705113" lon="12.854325"><ele>493.4</ele></trkpt>
<trkpt lat="47.705095" lon="12.853462"><ele>488.6</ele></trkpt>
<trkpt lat="47.704910" lon="12.853047"><ele>487.7</ele></trkpt>
<trkpt lat="47.704433" lon="12.852750"><ele>487.9</ele></trkpt>
<trkpt lat="47.704051" lon="12.853205"><ele>494.2</ele></trkpt>
<trkpt lat="47.703128" lon="12.853101"><ele>496.4</ele></trkpt>
<trkpt lat="47.702066" lon="12.852691"><ele>498.5</ele></trkpt>
<trkpt lat="47.700808" lon="12.851663"><ele>490.2</ele></trkpt>
<trkpt lat="47.700518" lon="12.851413"><ele>491.2</ele></trkpt>
<trkpt lat="47.699581" lon="12.850924"><ele>499.0</ele></trkpt>
<trkpt lat="47.699173" lon="12.850423"><ele>495.2</ele></trkpt>
<trkpt lat="47.697875" lon="12.850052"><ele>500.8</ele></trkpt>
<trkpt lat="47.697468" lon="12.849248"><ele>495.6</ele></trkpt>
<trkpt lat="47.696866" lon="12.848922"><ele>489.6</ele></trkpt>
<trkpt lat="47.696755" lon="12.849107"><ele>493.3</ele></trkpt>
<trkpt lat="47.695405" lon="12.848185"><ele>497.7</ele></trkpt>
<trkpt lat="47.694007" lon="12.847387"><ele>496.7</ele></trkpt>
<trkpt lat="47.693627" lon="12.847165"><ele>498.8</ele></trkpt>
<trkpt lat="47.693600" lon="12.846814"><ele>494.1</ele></trkpt>
<trkpt lat="47.693194" lon="12.846270"><ele>493.9</ele></trkpt>
<trkpt lat="47.692922" lon="12.845454"><ele>492.6</ele></trkpt>
<trkpt lat="47.691721" lon="12.845043"><ele>490.7</ele></trkpt>
<trkpt lat="47.690836" lon="12.844489"><ele>493.0</ele></trkpt>
<trkpt lat="47.689785" lon="12.843031"><ele>496.4</ele></trkpt>
<trkpt lat="47.688853" lon="12.841759"><ele>493.6</ele></trkpt>
<trkpt lat="47.687875" lon="12.840142"><ele>503.6</ele></trkpt>
<trkpt lat="47.686939" lon="12.838520"><ele>495.8</ele></trkpt>
<trkpt lat="47.686574" lon="12.838018"><ele>494.1</ele></trkpt>
<trkpt lat="47.685230" lon="12.837026"><ele>496.0</ele></trkpt>
<trkpt lat="47.684355" lon="12.836409"><ele>495.1</ele></trkpt>
<trkpt lat="47.682995" lon="12.835708"><ele>500.1</ele></trkpt>
<trkpt lat="47.682226" lon="12.835232"><ele>506.0</ele></trkpt>
<trkpt lat="47.681175" lon="12.833834"><ele>509.5</ele></trkpt>
<trkpt lat="47.681132" lon="12.833775"><ele>509.5</ele></trkpt>
<trkpt lat="47.680227" lon="12.832165"><ele>518.2</ele></trkpt>
<trkpt lat="47.679537" lon="12.830565"><ele>515.2</ele></trkpt>
<trkpt lat="47.678955" lon="12.829641"><ele>508.5</ele></trkpt>
<trkpt lat="47.678694" lon="12.828501"><ele>501.3</ele></trkpt>
<trkpt lat="47.678444" lon="12.828281"><ele>500.3</ele></trkpt>
<trkpt lat="47.678654" lon="12.829576"><ele>512.4</ele></trkpt>
<trkpt lat="47.678758" lon="12.830244"><ele>516.9</ele></trkpt>
<trkpt lat="47.678247" lon="12.830069"><ele>522.4</ele></trkpt>
<trkpt lat="47.678125" lon="12.830259"><ele>525.1</ele></trkpt>
<trkpt lat="47.678654" lon="12.830998"><ele>531.5</ele></trkpt>
<trkpt lat="47.678598" lon="12.831314"><ele>536.2</ele></trkpt>
<trkpt lat="47.677370" lon="12.830465"><ele>540.2</ele></trkpt>
<trkpt lat="47.677277" lon="12.830412"><ele>540.6</ele></trkpt>
<trkpt lat="47.676670" lon="12.830297"><ele>544.1</ele></trkpt>
<trkpt lat="47.676311" lon="12.829758"><ele>530.7</ele></trkpt>
<trkpt lat="47.676303" lon="12.828900"><ele>536.8</ele></trkpt>
<trkpt lat="47.676083" lon="12.828568"><ele>541.4</ele></trkpt>
<trkpt lat="47.675413" lon="12.829021"><ele>551.2</ele></trkpt>
<trkpt lat="47.674788" lon="12.828906"><ele>560.9</ele></trkpt>
<trkpt lat="47.674166" lon="12.828721"><ele>569.0</ele></trkpt>
<trkpt lat="47.673632" lon="12.828092"><ele>576.9</ele></trkpt>
<trkpt lat="47.673232" lon="12.828688"><ele>576.4</ele></trkpt>
<trkpt lat="47.672111" lon="12.828873"><ele>603.8</ele></trkpt>
<trkpt lat="47.671406" lon="12.830509"><ele>588.5</ele></trkpt>
<trkpt lat="47.670036" lon="12.831202"><ele>611.3</ele></trkpt>
<trkpt lat="47.669362" lon="12.831583"><ele>610.8</ele></trkpt>
<trkpt lat="47.668818" lon="12.832640"><ele>607.3</ele></trkpt>
<trkpt lat="47.668182" lon="12.834546"><ele>604.0</ele></trkpt>
<trkpt lat="47.667994" lon="12.834966"><ele>602.6</ele></trkpt>
<trkpt lat="47.666829" lon="12.835805"><ele>610.1</ele></trkpt>
<trkpt lat="47.666076" lon="12.837622"><ele>607.4</ele></trkpt>
<trkpt lat="47.665511" lon="12.839055"><ele>630.2</ele></trkpt>
<trkpt lat="47.664712" lon="12.840088"><ele>629.5</ele></trkpt>
<trkpt lat="47.664279" lon="12.841340"><ele>650.7</ele></trkpt>
<trkpt lat="47.663624" lon="12.842063"><ele>650.9</ele></trkpt>
<trkpt lat="47.662931" lon="12.843683"><ele>669.0</ele></trkpt>
<trkpt lat="47.661872" lon="12.845271"><ele>686.9</ele></trkpt>
<trkpt lat="47.661818" lon="12.845346"><ele>689.2</ele></trkpt>
<trkpt lat="47.660507" lon="12.846437"><ele>709.2</ele></trkpt>
<trkpt lat="47.659255" lon="12.847345"><ele>715.9</ele></trkpt>
<trkpt lat="47.657960" lon="12.848364"><ele>727.3</ele></trkpt>
<trkpt lat="47.657579" lon="12.848688"><ele>734.6</ele></trkpt>
<trkpt lat="47.656258" lon="12.849456"><ele>749.6</ele></trkpt>
<trkpt lat="47.655889" lon="12.849619"><ele>755.4</ele></trkpt>
<trkpt lat="47.654536" lon="12.849770"><ele>759.8</ele></trkpt>
<trkpt lat="47.653827" lon="12.849866"><ele>762.0</ele></trkpt>
<trkpt lat="47.653095" lon="12.849262"><ele>756.9</ele></trkpt>
<trkpt lat="47.651760" lon="12.849280"><ele>756.3</ele></trkpt>
<trkpt lat="47.650465" lon="12.849857"><ele>769.8</ele></trkpt>
<trkpt lat="47.649908" lon="12.850099"><ele>771.9</ele></trkpt>
<trkpt lat="47.648543" lon="12.850039"><ele>780.3</ele></trkpt>
<trkpt lat="47.648057" lon="12.850085"><ele>783.8</ele></trkpt>
<trkpt lat="47.646583" lon="12.850616"><ele>800.6</ele></trkpt>
<trkpt lat="47.645148" lon="12.851076"><ele>816.3</ele></trkpt>
<trkpt lat="47.643702" lon="12.851670"><ele>829.4</ele></trkpt>
<trkpt lat="47.642346" lon="12.852123"><ele>841.3</ele></trkpt>
<trkpt lat="47.641031" lon="12.852933"><ele>854.6</ele></trkpt>
<trkpt lat="47.640558" lon="12.853241"><ele>865.0</ele></trkpt>
<trkpt lat="47.639157" lon="12.853463"><ele>871.7</ele></trkpt>
<trkpt lat="47.638968" lon="12.853509"><ele>874.6</ele></trkpt>
<trkpt lat="47.637779" lon="12.854186"><ele>883.3</ele></trkpt>
<trkpt lat="47.636668" lon="12.855690"><ele>891.5</ele></trkpt>
<trkpt lat="47.636378" lon="12.856171"><ele>891.9</ele></trkpt>
<trkpt lat="47.635944" lon="12.857615"><ele>896.2</ele></trkpt>
<trkpt lat="47.635346" lon="12.857696"><ele>900.2</ele></trkpt>
<trkpt lat="47.634906" lon="12.858386"><ele>899.9</ele></trkpt>
<trkpt lat="47.634498" lon="12.858671"><ele>897.8</ele></trkpt>
<trkpt lat="47.633049" lon="12.859054"><ele>898.7</ele></trkpt>
<trkpt lat="47.632792" lon="12.859227"><ele>898.3</ele></trkpt>
<trkpt lat="47.632063" lon="12.860378"><ele>898.6</ele></trkpt>
<trkpt lat="47.631789" lon="12.861721"><ele>899.8</ele></trkpt>
<trkpt lat="47.631417" lon="12.862190"><ele>898.2</ele></trkpt>
<trkpt lat="47.630829" lon="12.862399"><ele>899.3</ele></trkpt>
<trkpt lat="47.630303" lon="12.862973"><ele>897.9</ele></trkpt>
<trkpt lat="47.629432" lon="12.864620"><ele>890.6</ele></trkpt>
<trkpt lat="47.629185" lon="12.865081"><ele>890.6</ele></trkpt>
<trkpt lat="47.628599" lon="12.866547"><ele>885.5</ele></trkpt>
<trkpt lat="47.628035" lon="12.866911"><ele>894.1</ele></trkpt>
<trkpt lat="47.626991" lon="12.868342"><ele>890.9</ele></trkpt>
<trkpt lat="47.625990" lon="12.869859"><ele>885.2</ele></trkpt>
<trkpt lat="47.625951" lon="12.869904"><ele>884.9</ele></trkpt>
<trkpt lat="47.624679" lon="12.870803"><ele>878.6</ele></trkpt>
<trkpt lat="47.624018" lon="12.871318"><ele>875.8</ele></trkpt>
<trkpt lat="47.622767" lon="12.871922"><ele>872.2</ele></trkpt>
<trkpt lat="47.621677" lon="12.871456"><ele>871.3</ele></trkpt>
<trkpt lat="47.620278" lon="12.871183"><ele>854.2</ele></trkpt>
<trkpt lat="47.620047" lon="12.871244"><ele>851.9</ele></trkpt>
<trkpt lat="47.619363" lon="12.872704"><ele>836.7</ele></trkpt>
<trkpt lat="47.618330" lon="12.873490"><ele>824.4</ele></trkpt>
<trkpt lat="47.617935" lon="12.875162"><ele>809.7</ele></trkpt>
<trkpt lat="47.616558" lon="12.875094"><ele>794.5</ele></trkpt>
<trkpt lat="47.616162" lon="12.875712"><ele>790.5</ele></trkpt>
<trkpt lat="47.615623" lon="12.876073"><ele>785.7</ele></trkpt>
<trkpt lat="47.616003" lon="12.876800"><ele>787.7</ele></trkpt>
<trkpt lat="47.616204" lon="12.877871"><ele>784.8</ele></trkpt>
<trkpt lat="47.615871" lon="12.879571"><ele>801.3</ele></trkpt>
<trkpt lat="47.615920" lon="12.879958"><ele>805.8</ele></trkpt>
<trkpt lat="47.616238" lon="12.881198"><ele>818.5</ele></trkpt>
<trkpt lat="47.616810" lon="12.881688"><ele>833.8</ele></trkpt>
<trkpt lat="47.616455" lon="12.883032"><ele>839.6</ele></trkpt>
<trkpt lat="47.616565" lon="12.883183"><ele>841.1</ele></trkpt>
<trkpt lat="47.616125" lon="12.884223"><ele>835.5</ele></trkpt>
<trkpt lat="47.615979" lon="12.885799"><ele>837.2</ele></trkpt>
<trkpt lat="47.615467" lon="12.887798"><ele>845.8</ele></trkpt>
<trkpt lat="47.615348" lon="12.888324"><ele>843.0</ele></trkpt>
<trkpt lat="47.614665" lon="12.890249"><ele>833.1</ele></trkpt>
<trkpt lat="47.614654" lon="12.890282"><ele>832.7</ele></trkpt>
<trkpt lat="47.614167" lon="12.892318"><ele>834.7</ele></trkpt>
<trkpt lat="47.613888" lon="12.893782"><ele>831.4</ele></trkpt>
<trkpt lat="47.613831" lon="12.895946"><ele>822.3</ele></trkpt>
<trkpt lat="47.613906" lon="12.896395"><ele>823.3</ele></trkpt>
<trkpt lat="47.614232" lon="12.897169"><ele>825.2</ele></trkpt>
<trkpt lat="47.614941" lon="12.898020"><ele>831.7</ele></trkpt>
<trkpt lat="47.614953" lon="12.898673"><ele>825.6</ele></trkpt>
<trkpt lat="47.614726" lon="12.899018"><ele>823.4</ele></trkpt>
<trkpt lat="47.613639" lon="12.899435"><ele>805.2</ele></trkpt>
<trkpt lat="47.613323" lon="12.899893"><ele>806.7</ele></trkpt>
<trkpt lat="47.612943" lon="12.902008"><ele>807.2</ele></trkpt>
<trkpt lat="47.612781" lon="12.902797"><ele>811.4</ele></trkpt>
<trkpt lat="47.612071" lon="12.904566"><ele>811.9</ele></trkpt>
<trkpt lat="47.611820" lon="12.905167"><ele>808.1</ele></trkpt>
<trkpt lat="47.610859" lon="12.906268"><ele>809.9</ele></trkpt>
<trkpt lat="47.609884" lon="12.907913"><ele>796.2</ele></trkpt>
<trkpt lat="47.609463" lon="12.908672"><ele>788.1</ele></trkpt>
<trkpt lat="47.609259" lon="12.909669"><ele>783.5</ele></trkpt>
<trkpt lat="47.609526" lon="12.910609"><ele>784.6</ele></trkpt>
<trkpt lat="47.609434" lon="12.910889"><ele>778.4</ele></trkpt>
<trkpt lat="47.609250" lon="12.910855"><ele>774.5</ele></trkpt>
<trkpt lat="47.609064" lon="12.910351"><ele>772.6</ele></trkpt>
<trkpt lat="47.609011" lon="12.909022"><ele>772.8</ele></trkpt>
<trkpt lat="47.609260" lon="12.907024"><ele>762.1</ele></trkpt>
<trkpt lat="47.609180" lon="12.906275"><ele>751.7</ele></trkpt>
<trkpt lat="47.609564" lon="12.904608"><ele>747.6</ele></trkpt>
<trkpt lat="47.609554" lon="12.903176"><ele>727.3</ele></trkpt>
<trkpt lat="47.609781" lon="12.901504"><ele>721.4</ele></trkpt>
<trkpt lat="47.609670" lon="12.901104"><ele>708.3</ele></trkpt>
<trkpt lat="47.609298" lon="12.901214"><ele>694.6</ele></trkpt>
<trkpt lat="47.609067" lon="12.902826"><ele>691.5</ele></trkpt>
<trkpt lat="47.608227" lon="12.904555"><ele>682.2</ele></trkpt>
<trkpt lat="47.607373" lon="12.906274"><ele>670.8</ele></trkpt>
<trkpt lat="47.607345" lon="12.906330"><ele>670.5</ele></trkpt>
<trkpt lat="47.607338" lon="12.905921"><ele>668.9</ele></trkpt>
<trkpt lat="47.606629" lon="12.906322"><ele>656.3</ele></trkpt>
<trkpt lat="47.606091" lon="12.907599"><ele>653.8</ele></trkpt>
<trkpt lat="47.605917" lon="12.907602"><ele>651.6</ele></trkpt>
<trkpt lat="47.605480" lon="12.909624"><ele>647.9</ele></trkpt>
<trkpt lat="47.605403" lon="12.910106"><ele>647.3</ele></trkpt>
<trkpt lat="47.605472" lon="12.911113"><ele>645.1</ele></trkpt>
<trkpt lat="47.604907" lon="12.913089"><ele>644.3</ele></trkpt>
<trkpt lat="47.604273" lon="12.914973"><ele>643.7</ele></trkpt>
<trkpt lat="47.604548" lon="12.916919"><ele>636.6</ele></trkpt>
<trkpt lat="47.604385" lon="12.918888"><ele>634.2</ele></trkpt>
<trkpt lat="47.603832" lon="12.920818"><ele>636.8</ele></trkpt>
<trkpt lat="47.603403" lon="12.922852"><ele>635.9</ele></trkpt>
<trkpt lat="47.603282" lon="12.923346"><ele>636.6</ele></trkpt>
<trkpt lat="47.603081" lon="12.924705"><ele>631.0</ele></trkpt>
<trkpt lat="47.603218" lon="12.924687"><ele>632.0</ele></trkpt>
<trkpt lat="47.603110" lon="12.925581"><ele>637.8</ele></trkpt>
<trkpt lat="47.602767" lon="12.927559"><ele>631.0</ele></trkpt>
<trkpt lat="47.602503" lon="12.928702"><ele>630.3</ele></trkpt>
<trkpt lat="47.603214" lon="12.930425"><ele>642.0</ele></trkpt>
<trkpt lat="47.603378" lon="12.930788"><ele>651.2</ele></trkpt>
<trkpt lat="47.603733" lon="12.932242"><ele>642.7</ele></trkpt>
<trkpt lat="47.604461" lon="12.933971"><ele>643.6</ele></trkpt>
<trkpt lat="47.605004" lon="12.935059"><ele>631.9</ele></trkpt>
<trkpt lat="47.606094" lon="12.935774"><ele>635.7</ele></trkpt>
<trkpt lat="47.606742" lon="12.936826"><ele>636.7</ele></trkpt>
<trkpt lat="47.607873" lon="12.938147"><ele>619.4</ele></trkpt>
<trkpt lat="47.608720" lon="12.939154"><ele>619.1</ele></trkpt>
<trkpt lat="47.609242" lon="12.940267"><ele>614.9</ele></trkpt>
<trkpt lat="47.609935" lon="12.941053"><ele>609.5</ele></trkpt>
<trkpt lat="47.610530" lon="12.942918"><ele>594.2</ele></trkpt>
<trkpt lat="47.610974" lon="12.944062"><ele>593.5</ele></trkpt>
<trkpt lat="47.612218" lon="12.945013"><ele>588.9</ele></trkpt>
<trkpt lat="47.612821" lon="12.945443"><ele>590.1</ele></trkpt>
<trkpt lat="47.613635" lon="12.947056"><ele>593.8</ele></trkpt>
<trkpt lat="47.613926" lon="12.949085"><ele>591.5</ele></trkpt>
<trkpt lat="47.614158" lon="12.951217"><ele>584.7</ele></trkpt>
<trkpt lat="47.614184" lon="12.951926"><ele>582.0</ele></trkpt>
<trkpt lat="47.614380" lon="12.952676"><ele>580.8</ele></trkpt>
<trkpt lat="47.614223" lon="12.952734"><ele>581.1</ele></trkpt>
<trkpt lat="47.614003" lon="12.954605"><ele>590.4</ele></trkpt>
<trkpt lat="47.614286" lon="12.956622"><ele>584.5</ele></trkpt>
<trkpt lat="47.614389" lon="12.958863"><ele>586.1</ele></trkpt>
<trkpt lat="47.614395" lon="12.958907"><ele>585.9</ele></trkpt>
<trkpt lat="47.614691" lon="12.959609"><ele>577.3</ele></trkpt>
<trkpt lat="47.615300" lon="12.960354"><ele>578.7</ele></trkpt>
<trkpt lat="47.615369" lon="12.961580"><ele>581.5</ele></trkpt>
<trkpt lat="47.616152" lon="12.963294"><ele>579.1</ele></trkpt>
<trkpt lat="47.617073" lon="12.964865"><ele>577.1</ele></trkpt>
<trkpt lat="47.617141" lon="12.965178"><ele>573.8</ele></trkpt>
<trkpt lat="47.617150" lon="12.967199"><ele>572.6</ele></trkpt>
<trkpt lat="47.617026" lon="12.968587"><ele>576.7</ele></trkpt>
<trkpt lat="47.617316" lon="12.969378"><ele>568.6</ele></trkpt>
<trkpt lat="47.616686" lon="12.970303"><ele>593.1</ele></trkpt>
<trkpt lat="47.616611" lon="12.971188"><ele>594.1</ele></trkpt>
<trkpt lat="47.616358" lon="12.971406"><ele>598.3</ele></trkpt>
<trkpt lat="47.616187" lon="12.973407"><ele>598.4</ele></trkpt>
<trkpt lat="47.616160" lon="12.974122"><ele>595.4</ele></trkpt>
<trkpt lat="47.615774" lon="12.975132"><ele>605.1</ele></trkpt>
<trkpt lat="47.615764" lon="12.976061"><ele>612.4</ele></trkpt>
<trkpt lat="47.616022" lon="12.976610"><ele>613.5</ele></trkpt>
<trkpt lat="47.616038" lon="12.977203"><ele>612.1</ele></trkpt>
<trkpt lat="47.615431" lon="12.978285"><ele>605.5</ele></trkpt>
<trkpt lat="47.616818" lon="12.979035"><ele>614.5</ele></trkpt>
<trkpt lat="47.616956" lon="12.979063"><ele>615.0</ele></trkpt>
<trkpt lat="47.617798" lon="12.980310"><ele>610.4</ele></trkpt>
<trkpt lat="47.617943" lon="12.981332"><ele>604.3</ele></trkpt>
<trkpt lat="47.618409" lon="12.982216"><ele>606.0</ele></trkpt>
<trkpt lat="47.618543" lon="12.982951"><ele>608.6</ele></trkpt>
<trkpt lat="47.619278" lon="12.983762"><ele>608.5</ele></trkpt>
<trkpt lat="47.619574" lon="12.984652"><ele>613.5</ele></trkpt>
<trkpt lat="47.620179" lon="12.985245"><ele>617.8</ele></trkpt>
<trkpt lat="47.621489" lon="12.985604"><ele>620.2</ele></trkpt>
<trkpt lat="47.622540" lon="12.986890"><ele>620.3</ele></trkpt>
<trkpt lat="47.622977" lon="12.987347"><ele>616.6</ele></trkpt>
<trkpt lat="47.623144" lon="12.988031"><ele>614.4</ele></trkpt>
<trkpt lat="47.623097" lon="12.989541"><ele>605.7</ele></trkpt>
<trkpt lat="47.622520" lon="12.991206"><ele>594.0</ele></trkpt>
<trkpt lat="47.622680" lon="12.992172"><ele>587.9</ele></trkpt>
<trkpt lat="47.622428" lon="12.993592"><ele>580.8</ele></trkpt>
<trkpt lat="47.622528" lon="12.994753"><ele>582.6</ele></trkpt>
<trkpt lat="47.623216" lon="12.996557"><ele>576.8</ele></trkpt>
<trkpt lat="47.623471" lon="12.997209"><ele>569.7</ele></trkpt>
<trkpt lat="47.624282" lon="12.998538"><ele>557.0</ele></trkpt>
<trkpt lat="47.625437" lon="12.999568"><ele>540.1</ele></trkpt>
<trkpt lat="47.625495" lon="12.999614"><ele>539.5</ele></trkpt>
<trkpt lat="47.626085" lon="12.999324"><ele>539.5</ele></trkpt>
<trkpt lat="47.626313" lon="12.999939"><ele>539.7</ele></trkpt>
<trkpt lat="47.626144" lon="12.999928"><ele>539.1</ele></trkpt>
<trkpt lat="47.625472" lon="13.001025"><ele>543.8</ele></trkpt>
<trkpt lat="47.626813" lon="13.001888"><ele>548.2</ele></trkpt>
<trkpt lat="47.627590" lon="13.002278"><ele>543.4</ele></trkpt>
<trkpt lat="47.628319" lon="13.004047"><ele>556.5</ele></trkpt>
<trkpt lat="47.628377" lon="13.004149"><ele>557.5</ele></trkpt>
<trkpt lat="47.629516" lon="13.005633"><ele>537.9</ele></trkpt>
<trkpt lat="47.630573" lon="13.007082"><ele>535.3</ele></trkpt>
<trkpt lat="47.630972" lon="13.007571"><ele>534.1</ele></trkpt>
<trkpt lat="47.631879" lon="13.008376"><ele>538.8</ele></trkpt>
<trkpt lat="47.633057" lon="13.008794"><ele>540.9</ele></trkpt>
<trkpt lat="47.634023" lon="13.009754"><ele>536.2</ele></trkpt>
<trkpt lat="47.634790" lon="13.009738"><ele>531.6</ele></trkpt>
<trkpt lat="47.635149" lon="13.010800"><ele>531.3</ele></trkpt>
<trkpt lat="47.635300" lon="13.010691"><ele>529.5</ele></trkpt>
<trkpt lat="47.635692" lon="13.012675"><ele>530.5</ele></trkpt>
<trkpt lat="47.636136" lon="13.014793"><ele>538.1</ele></trkpt>
<trkpt lat="47.636290" lon="13.015344"><ele>547.8</ele></trkpt>
<trkpt lat="47.637277" lon="13.016910"><ele>539.9</ele></trkpt>
<trkpt lat="47.637775" lon="13.017677"><ele>534.3</ele></trkpt>
<trkpt lat="47.638478" lon="13.018186"><ele>536.0</ele></trkpt>
<trkpt lat="47.639747" lon="13.017950"><ele>529.4</ele></trkpt>
<trkpt lat="47.640372" lon="13.017572"><ele>525.4</ele></trkpt>
<trkpt lat="47.641464" lon="13.017708"><ele>526.2</ele></trkpt>
<trkpt lat="47.641583" lon="13.018571"><ele>524.4</ele></trkpt>
<trkpt lat="47.641490" lon="13.020704"><ele>522.3</ele></trkpt>
<trkpt lat="47.641496" lon="13.020858"><ele>522.6</ele></trkpt>
<trkpt lat="47.641726" lon="13.022093"><ele>522.2</ele></trkpt>
<trkpt lat="47.642252" lon="13.023297"><ele>525.7</ele></trkpt>
<trkpt lat="47.643078" lon="13.023702"><ele>528.4</ele></trkpt>
<trkpt lat="47.643852" lon="13.024939"><ele>519.8</ele></trkpt>
<trkpt lat="47.644305" lon="13.026880"><ele>515.6</ele></trkpt>
<trkpt lat="47.644586" lon="13.028909"><ele>517.5</ele></trkpt>
<trkpt lat="47.644973" lon="13.030858"><ele>514.8</ele></trkpt>
<trkpt lat="47.645203" lon="13.031818"><ele>518.5</ele></trkpt>
<trkpt lat="47.645971" lon="13.033582"><ele>536.4</ele></trkpt>
<trkpt lat="47.645991" lon="13.033615"><ele>536.2</ele></trkpt>
<trkpt lat="47.646892" lon="13.034349"><ele>516.7</ele></trkpt>
<trkpt lat="47.648235" lon="13.034660"><ele>516.4</ele></trkpt>
<trkpt lat="47.649497" lon="13.034813"><ele>521.0</ele></trkpt>
<trkpt lat="47.650109" lon="13.035702"><ele>521.2</ele></trkpt>
<trkpt lat="47.651410" lon="13.036848"><ele>523.8</ele></trkpt>
<trkpt lat="47.652345" lon="13.037821"><ele>508.8</ele></trkpt>
<trkpt lat="47.653335" lon="13.039245"><ele>511.3</ele></trkpt>
<trkpt lat="47.654132" lon="13.040813"><ele>520.4</ele></trkpt>
<trkpt lat="47.654541" lon="13.041371"><ele>532.3</ele></trkpt>
<trkpt lat="47.655361" lon="13.041867"><ele>520.6</ele></trkpt>
<trkpt lat="47.656075" lon="13.041818"><ele>520.9</ele></trkpt>
<trkpt lat="47.656800" lon="13.041280"><ele>517.9</ele></trkpt>
<trkpt lat="47.657719" lon="13.039547"><ele>514.1</ele></trkpt>
<trkpt lat="47.658168" lon="13.038649"><ele>507.9</ele></trkpt>
<trkpt lat="47.659128" lon="13.037619"><ele>508.3</ele></trkpt>
<trkpt lat="47.660450" lon="13.037207"><ele>507.1</ele></trkpt>
<trkpt lat="47.661895" lon="13.036907"><ele>507.8</ele></trkpt>
<trkpt lat="47.662441" lon="13.036742"><ele>511.0</ele></trkpt>
<trkpt lat="47.663773" lon="13.035678"><ele>507.6</ele></trkpt>
<trkpt lat="47.664893" lon="13.034885"><ele>509.5</ele></trkpt>
<trkpt lat="47.666337" lon="13.034869"><ele>503.6</ele></trkpt>
<trkpt lat="47.667776" lon="13.035055"><ele>504.6</ele></trkpt>
<trkpt lat="47.669210" lon="13.035238"><ele>516.9</ele></trkpt>
<trkpt lat="47.670276" lon="13.035420"><ele>510.1</ele></trkpt>
<trkpt lat="47.671562" lon="13.036067"><ele>497.3</ele></trkpt>
<trkpt lat="47.672411" lon="13.036572"><ele>493.0</ele></trkpt>
<trkpt lat="47.672567" lon="13.035867"><ele>491.5</ele></trkpt>
<trkpt lat="47.673728" lon="13.036114"><ele>492.0</ele></trkpt>
<trkpt lat="47.674729" lon="13.036670"><ele>490.0</ele></trkpt>
<trkpt lat="47.675609" lon="13.036897"><ele>499.7</ele></trkpt>
<trkpt lat="47.676784" lon="13.038010"><ele>503.5</ele></trkpt>
<trkpt lat="47.677430" lon="13.038477"><ele>505.6</ele></trkpt>
<trkpt lat="47.678562" lon="13.039793"><ele>507.1</ele></trkpt>
<trkpt lat="47.678731" lon="13.039997"><ele>504.3</ele></trkpt>
<trkpt lat="47.679967" lon="13.040816"><ele>512.3</ele></trkpt>
<trkpt lat="47.680663" lon="13.041415"><ele>496.9</ele></trkpt>
<trkpt lat="47.681263" lon="13.042324"><ele>494.3</ele></trkpt>
<trkpt lat="47.681811" lon="13.042532"><ele>499.9</ele></trkpt>
<trkpt lat="47.682131" lon="13.043423"><ele>487.7</ele></trkpt>
<trkpt lat="47.682345" lon="13.043636"><ele>486.3</ele></trkpt>
<trkpt lat="47.683804" lon="13.043894"><ele>492.2</ele></trkpt>
<trkpt lat="47.684051" lon="13.043917"><ele>495.1</ele></trkpt>
<trkpt lat="47.685391" lon="13.043745"><ele>512.1</ele></trkpt>
<trkpt lat="47.686462" lon="13.044175"><ele>512.6</ele></trkpt>
<trkpt lat="47.687195" lon="13.043877"><ele>513.5</ele></trkpt>
<trkpt lat="47.688461" lon="13.044904"><ele>504.5</ele></trkpt>
<trkpt lat="47.689964" lon="13.044932"><ele>496.1</ele></trkpt>
<trkpt lat="47.691388" lon="13.044882"><ele>489.2</ele></trkpt>
<trkpt lat="47.691980" lon="13.044960"><ele>493.9</ele></trkpt>
<trkpt lat="47.693194" lon="13.045872"><ele>479.3</ele></trkpt>
<trkpt lat="47.693345" lon="13.046006"><ele>478.8</ele></trkpt>
<trkpt lat="47.693449" lon="13.046581"><ele>483.9</ele></trkpt>
<trkpt lat="47.694673" lon="13.046412"><ele>479.3</ele></trkpt>
<trkpt lat="47.695174" lon="13.046879"><ele>483.1</ele></trkpt>
<trkpt lat="47.696119" lon="13.046452"><ele>476.8</ele></trkpt>
<trkpt lat="47.696874" lon="13.045793"><ele>482.2</ele></trkpt>
<trkpt lat="47.697821" lon="13.044376"><ele>486.1</ele></trkpt>
<trkpt lat="47.698443" lon="13.043268"><ele>487.1</ele></trkpt>
<trkpt lat="47.699794" lon="13.043191"><ele>476.1</ele></trkpt>
<trkpt lat="47.700079" lon="13.043202"><ele>472.5</ele></trkpt>
<trkpt lat="47.700500" lon="13.042974"><ele>472.5</ele></trkpt>
<trkpt lat="47.701273" lon="13.041736"><ele>475.3</ele></trkpt>
<trkpt lat="47.701608" lon="13.040476"><ele>471.0</ele></trkpt>
<trkpt lat="47.702342" lon="13.038943"><ele>472.3</ele></trkpt>
<trkpt lat="47.702832" lon="13.038586"><ele>469.1</ele></trkpt>
<trkpt lat="47.703845" lon="13.038445"><ele>468.7</ele></trkpt>
<trkpt lat="47.704744" lon="13.038519"><ele>472.6</ele></trkpt>
<trkpt lat="47.705854" lon="13.038986"><ele>466.8</ele></trkpt>
<trkpt lat="47.707173" lon="13.038997"><ele>464.6</ele></trkpt>
<trkpt lat="47.708015" lon="13.038827"><ele>466.2</ele></trkpt>
<trkpt lat="47.708188" lon="13.038980"><ele>467.2</ele></trkpt>
<trkpt lat="47.708737" lon="13.038822"><ele>465.4</ele></trkpt>
<trkpt lat="47.708825" lon="13.038620"><ele>464.5</ele></trkpt>
<trkpt lat="47.709655" lon="13.038785"><ele>471.2</ele></trkpt>
<trkpt lat="47.710259" lon="13.039226"><ele>471.6</ele></trkpt>
<trkpt lat="47.711346" lon="13.040729"><ele>467.5</ele></trkpt>
<trkpt lat="47.712240" lon="13.041736"><ele>472.6</ele></trkpt>
<trkpt lat="47.713546" lon="13.042554"><ele>467.2</ele></trkpt>
<trkpt lat="47.714769" lon="13.043562"><ele>469.1</ele></trkpt>
<trkpt lat="47.715911" lon="13.044287"><ele>465.1</ele></trkpt>
<trkpt lat="47.716868" lon="13.044209"><ele>466.2</ele></trkpt>
<trkpt lat="47.718236" lon="13.043605"><ele>463.1</ele></trkpt>
<trkpt lat="47.719608" lon="13.042995"><ele>455.7</ele></trkpt>
<trkpt lat="47.721008" lon="13.042424"><ele>452.4</ele></trkpt>
<trkpt lat="47.721766" lon="13.042113"><ele>452.6</ele></trkpt>
<trkpt lat="47.722999" lon="13.041875"><ele>453.4</ele></trkpt>
<trkpt lat="47.724382" lon="13.042243"><ele>449.8</ele></trkpt>
<trkpt lat="47.724382" lon="13.042243"><ele>449.9</ele></trkpt>
<trkpt lat="47.725758" lon="13.043175"><ele>452.0</ele></trkpt>
<trkpt lat="47.726278" lon="13.043519"><ele>453.1</ele></trkpt>
<trkpt lat="47.726520" lon="13.043728"><ele>452.4</ele></trkpt>
<trkpt lat="47.726493" lon="13.044612"><ele>450.9</ele></trkpt>
<trkpt lat="47.726065" lon="13.044625"><ele>450.7</ele></trkpt>
<trkpt lat="47.726489" lon="13.044776"><ele>451.4</ele></trkpt>
<trkpt lat="47.726653" lon="13.043738"><ele>452.5</ele></trkpt>
<trkpt lat="47.727072" lon="13.042810"><ele>457.5</ele></trkpt>
<trkpt lat="47.728245" lon="13.041432"><ele>459.6</ele></trkpt>
<trkpt lat="47.728302" lon="13.041359"><ele>459.4</ele></trkpt>
<trkpt lat="47.729546" lon="13.040199"><ele>453.7</ele></trkpt>
<trkpt lat="47.730813" lon="13.039023"><ele>451.1</ele></trkpt>
<trkpt lat="47.730922" lon="13.038930"><ele>451.3</ele></trkpt>
<trkpt lat="47.732186" lon="13.038790"><ele>453.8</ele></trkpt>
<trkpt lat="47.733564" lon="13.038351"><ele>450.8</ele></trkpt>
<trkpt lat="47.734891" lon="13.037993"><ele>446.2</ele></trkpt>
<trkpt lat="47.736028" lon="13.037649"><ele>451.3</ele></trkpt>
<trkpt lat="47.736745" lon="13.037643"><ele>448.1</ele></trkpt>
<trkpt lat="47.737459" lon="13.037166"><ele>451.2</ele></trkpt>
<trkpt lat="47.738831" lon="13.036985"><ele>446.9</ele></trkpt>
<trkpt lat="47.739367" lon="13.037102"><ele>447.4</ele></trkpt>
<trkpt lat="47.739251" lon="13.036562"><ele>446.4</ele></trkpt>
<trkpt lat="47.740523" lon="13.035777"><ele>447.1</ele></trkpt>
<trkpt lat="47.741174" lon="13.035255"><ele>448.0</ele></trkpt>
<trkpt lat="47.742127" lon="13.033817"><ele>444.3</ele></trkpt>
<trkpt lat="47.742275" lon="13.033711"><ele>444.7</ele></trkpt>
<trkpt lat="47.742254" lon="13.033133"><ele>445.9</ele></trkpt>
<trkpt lat="47.743115" lon="13.031269"><ele>443.8</ele></trkpt>
<trkpt lat="47.743793" lon="13.029719"><ele>448.5</ele></trkpt>
<trkpt lat="47.744206" lon="13.028215"><ele>447.4</ele></trkpt>
<trkpt lat="47.744935" lon="13.026241"><ele>455.4</ele></trkpt>
<trkpt lat="47.745605" lon="13.024350"><ele>452.3</ele></trkpt>
<trkpt lat="47.746284" lon="13.022423"><ele>446.9</ele></trkpt>
<trkpt lat="47.746665" lon="13.021374"><ele>449.1</ele></trkpt>
<trkpt lat="47.747447" lon="13.019614"><ele>446.0</ele></trkpt>
<trkpt lat="47.747711" lon="13.019057"><ele>438.8</ele></trkpt>
<trkpt lat="47.748067" lon="13.017824"><ele>441.6</ele></trkpt>
<trkpt lat="47.748869" lon="13.016815"><ele>442.8</ele></trkpt>
<trkpt lat="47.749336" lon="13.015324"><ele>441.2</ele></trkpt>
<trkpt lat="47.749599" lon="13.013276"><ele>443.4</ele></trkpt>
<trkpt lat="47.749589" lon="13.013051"><ele>443.5</ele></trkpt>
<trkpt lat="47.749275" lon="13.012797"><ele>448.9</ele></trkpt>
<trkpt lat="47.748007" lon="13.012719"><ele>459.8</ele></trkpt>
<trkpt lat="47.747398" lon="13.011971"><ele>454.8</ele></trkpt>
<trkpt lat="47.747255" lon="13.009818"><ele>448.5</ele></trkpt>
<trkpt lat="47.747168" lon="13.007812"><ele>447.0</ele></trkpt>
<trkpt lat="47.747119" lon="13.006243"><ele>446.4</ele></trkpt>
<trkpt lat="47.747262" lon="13.004461"><ele>441.7</ele></trkpt>
<trkpt lat="47.747769" lon="13.002586"><ele>452.6</ele></trkpt>
<trkpt lat="47.747948" lon="13.002037"><ele>450.6</ele></trkpt>
<trkpt lat="47.747931" lon="13.000357"><ele>446.3</ele></trkpt>
<trkpt lat="47.748558" lon="12.999128"><ele>441.2</ele></trkpt>
<trkpt lat="47.749065" lon="12.997207"><ele>442.4</ele></trkpt>
<trkpt lat="47.749100" lon="12.997049"><ele>442.4</ele></trkpt>
<trkpt lat="47.749156" lon="12.996344"><ele>441.0</ele></trkpt>
<trkpt lat="47.749543" lon="12.995451"><ele>441.3</ele></trkpt>
<trkpt lat="47.750566" lon="12.994082"><ele>442.0</ele></trkpt>
<trkpt lat="47.751159" lon="12.993294"><ele>441.1</ele></trkpt>
<trkpt lat="47.751629" lon="12.991861"><ele>460.0</ele></trkpt>
<trkpt lat="47.752223" lon="12.991067"><ele>471.0</ele></trkpt>
<trkpt lat="47.753356" lon="12.989925"><ele>474.7</ele></trkpt>
<trkpt lat="47.754594" lon="12.988660"><ele>465.9</ele></trkpt>
<trkpt lat="47.755880" lon="12.987616"><ele>460.2</ele></trkpt>
<trkpt lat="47.757054" lon="12.986330"><ele>450.8</ele></trkpt>
<trkpt lat="47.757100" lon="12.986289"><ele>450.9</ele></trkpt>
<trkpt lat="47.758516" lon="12.985495"><ele>447.0</ele></trkpt>
<trkpt lat="47.758946" lon="12.985293"><ele>443.6</ele></trkpt>
<trkpt lat="47.759284" lon="12.984841"><ele>443.1</ele></trkpt>
<trkpt lat="47.759747" lon="12.982951"><ele>440.9</ele></trkpt>
<trkpt lat="47.759805" lon="12.982750"><ele>441.0</ele></trkpt>
<trkpt lat="47.760109" lon="12.982199"><ele>440.9</ele></trkpt>
<trkpt lat="47.760647" lon="12.980188"><ele>438.2</ele></trkpt>
<trkpt lat="47.761260" lon="12.978377"><ele>439.8</ele></trkpt>
<trkpt lat="47.761285" lon="12.978304"><ele>440.0</ele></trkpt>
<trkpt lat="47.761535" lon="12.977771"><ele>440.0</ele></trkpt>
<trkpt lat="47.762024" lon="12.977421"><ele>438.7</ele></trkpt>
<trkpt lat="47.762940" lon="12.975809"><ele>439.3</ele></trkpt>
<trkpt lat="47.763929" lon="12.974435"><ele>438.9</ele></trkpt>
<trkpt lat="47.764108" lon="12.974001"><ele>438.8</ele></trkpt>
<trkpt lat="47.764659" lon="12.972009"><ele>436.9</ele></trkpt>
<trkpt lat="47.765063" lon="12.970258"><ele>436.8</ele></trkpt>
<trkpt lat="47.764884" lon="12.968884"><ele>438.6</ele></trkpt>
<trkpt lat="47.764525" lon="12.967713"><ele>435.2</ele></trkpt>
<trkpt lat="47.765821" lon="12.966758"><ele>435.0</ele></trkpt>
<trkpt lat="47.766359" lon="12.966323"><ele>436.0</ele></trkpt>
<trkpt lat="47.766504" lon="12.965809"><ele>436.8</ele></trkpt>
<trkpt lat="47.767307" lon="12.964873"><ele>438.0</ele></trkpt>
<trkpt lat="47.767466" lon="12.964149"><ele>438.8</ele></trkpt>
<trkpt lat="47.767302" lon="12.962950"><ele>441.6</ele></trkpt>
<trkpt lat="47.767804" lon="12.961000"><ele>443.1</ele></trkpt>
<trkpt lat="47.768005" lon="12.960277"><ele>437.0</ele></trkpt>
<trkpt lat="47.768535" lon="12.958843"><ele>436.8</ele></trkpt>
<trkpt lat="47.768277" lon="12.957779"><ele>436.2</ele></trkpt>
<trkpt lat="47.767418" lon="12.956298"><ele>444.0</ele></trkpt>
<trkpt lat="47.768004" lon="12.954510"><ele>450.9</ele></trkpt>
<trkpt lat="47.766819" lon="12.953256"><ele>473.6</ele></trkpt>
<trkpt lat="47.765695" lon="12.951957"><ele>486.6</ele></trkpt>
<trkpt lat="47.765403" lon="12.951633"><ele>491.0</ele></trkpt>
<trkpt lat="47.764258" lon="12.950244"><ele>480.9</ele></trkpt>
<trkpt lat="47.763188" lon="12.948721"><ele>489.1</ele></trkpt>
<trkpt lat="47.762517" lon="12.947905"><ele>477.8</ele></trkpt>
<trkpt lat="47.761347" lon="12.946939"><ele>476.1</ele></trkpt>
<trkpt lat="47.760216" lon="12.945914"><ele>478.0</ele></trkpt>
<trkpt lat="47.758770" lon="12.945279"><ele>481.9</ele></trkpt>
<trkpt lat="47.758510" lon="12.945216"><ele>483.6</ele></trkpt>
<trkpt lat="47.757157" lon="12.945046"><ele>485.6</ele></trkpt>
<trkpt lat="47.755671" lon="12.944763"><ele>481.0</ele></trkpt>
<trkpt lat="47.754329" lon="12.944501"><ele>487.9</ele></trkpt>
<trkpt lat="47.753869" lon="12.944420"><ele>490.2</ele></trkpt>
<trkpt lat="47.752505" lon="12.944300"><ele>482.4</ele></trkpt>
<trkpt lat="47.751471" lon="12.944369"><ele>483.0</ele></trkpt>
<trkpt lat="47.750659" lon="12.944045"><ele>485.3</ele></trkpt>
<trkpt lat="47.749871" lon="12.943278"><ele>487.1</ele></trkpt>
<trkpt lat="47.749212" lon="12.942108"><ele>485.8</ele></trkpt>
<trkpt lat="47.748778" lon="12.940116"><ele>490.6</ele></trkpt>
<trkpt lat="47.748415" lon="12.938724"><ele>493.3</ele></trkpt>
<trkpt lat="47.747560" lon="12.937036"><ele>494.2</ele></trkpt>
<trkpt lat="47.746955" lon="12.936038"><ele>491.4</ele></trkpt>
<trkpt lat="47.746279" lon="12.934060"><ele>491.0</ele></trkpt>
<trkpt lat="47.745521" lon="12.932610"><ele>496.6</ele></trkpt>
<trkpt lat="47.744393" lon="12.931326"><ele>506.5</ele></trkpt>
<trkpt lat="47.744067" lon="12.931037"><ele>507.4</ele></trkpt>
<trkpt lat="47.743037" lon="12.930639"><ele>512.1</ele></trkpt>
<trkpt lat="47.741607" lon="12.930478"><ele>523.5</ele></trkpt>
<trkpt lat="47.741360" lon="12.930398"><ele>526.4</ele></trkpt>
<trkpt lat="47.740667" lon="12.929847"><ele>532.4</ele></trkpt>
<trkpt lat="47.740056" lon="12.928749"><ele>536.5</ele></trkpt>
<trkpt lat="47.739434" lon="12.926761"><ele>537.6</ele></trkpt>
<trkpt lat="47.739400" lon="12.926687"><ele>537.8</ele></trkpt>
<trkpt lat="47.738356" lon="12.925121"><ele>538.6</ele></trkpt>
<trkpt lat="47.737698" lon="12.923903"><ele>538.7</ele></trkpt>
<trkpt lat="47.736981" lon="12.923516"><ele>538.9</ele></trkpt>
<trkpt lat="47.735700" lon="12.923254"><ele>546.4</ele></trkpt>
<trkpt lat="47.734213" lon="12.923653"><ele>565.7</ele></trkpt>
<trkpt lat="47.733111" lon="12.924034"><ele>566.6</ele></trkpt>
<trkpt lat="47.732000" lon="12.924048"><ele>560.0</ele></trkpt>
<trkpt lat="47.730706" lon="12.923393"><ele>548.7</ele></trkpt>
<trkpt lat="47.730550" lon="12.923274"><ele>546.0</ele></trkpt>
<trkpt lat="47.729771" lon="12.922329"><ele>543.8</ele></trkpt>
<trkpt lat="47.729174" lon="12.920966"><ele>539.5</ele></trkpt>
<trkpt lat="47.729739" lon="12.921131"><ele>541.1</ele></trkpt>
<trkpt lat="47.729910" lon="12.920502"><ele>544.2</ele></trkpt>
<trkpt lat="47.729703" lon="12.919089"><ele>544.7</ele></trkpt>
<trkpt lat="47.729493" lon="12.919031"><ele>541.7</ele></trkpt>
<trkpt lat="47.729544" lon="12.917380"><ele>547.9</ele></trkpt>
<trkpt lat="47.729763" lon="12.917113"><ele>548.6</ele></trkpt>
<trkpt lat="47.729441" lon="12.916610"><ele>547.4</ele></trkpt>
<trkpt lat="47.728115" lon="12.916082"><ele>533.6</ele></trkpt>
<trkpt lat="47.728056" lon="12.916089"><ele>533.1</ele></trkpt>
<trkpt lat="47.727101" lon="12.914688"><ele>531.3</ele></trkpt>
<trkpt lat="47.726610" lon="12.913848"><ele>533.1</ele></trkpt>
<trkpt lat="47.725963" lon="12.911908"><ele>531.9</ele></trkpt>
<trkpt lat="47.725440" lon="12.910614"><ele>533.9</ele></trkpt>
<trkpt lat="47.725307" lon="12.908870"><ele>527.9</ele></trkpt>
<trkpt lat="47.724654" lon="12.907009"><ele>525.8</ele></trkpt>
<trkpt lat="47.724354" lon="12.905880"><ele>524.2</ele></trkpt>
<trkpt lat="47.724433" lon="12.904563"><ele>517.1</ele></trkpt>
<trkpt lat="47.723838" lon="12.902642"><ele>521.9</ele></trkpt>
<trkpt lat="47.723162" lon="12.901153"><ele>526.1</ele></trkpt>
<trkpt lat="47.723649" lon="12.900650"><ele>524.0</ele></trkpt>
<trkpt lat="47.724092" lon="12.900508"><ele>522.0</ele></trkpt>
<trkpt lat="47.723974" lon="12.898381"><ele>523.6</ele></trkpt>
<trkpt lat="47.723615" lon="12.896421"><ele>522.0</ele></trkpt>
<trkpt lat="47.723393" lon="12.894388"><ele>518.7</ele></trkpt>
<trkpt lat="47.723243" lon="12.893164"><ele>517.6</ele></trkpt>
<trkpt lat="47.723304" lon="12.891044"><ele>521.7</ele></trkpt>
<trkpt lat="47.723289" lon="12.889793"><ele>525.9</ele></trkpt>
<trkpt lat="47.723140" lon="12.888319"><ele>529.3</ele></trkpt>
<trkpt lat="47.723279" lon="12.887616"><ele>530.3</ele></trkpt>
<trkpt lat="47.723889" lon="12.886863"><ele>525.7</ele></trkpt>
<trkpt lat="47.725168" lon="12.886404"><ele>509.7</ele></trkpt>
<trkpt lat="47.725966" lon="12.885604"><ele>497.4</ele></trkpt>
<trkpt lat="47.726011" lon="12.885221"><ele>494.8</ele></trkpt>
<trkpt lat="47.725770" lon="12.884096"><ele>486.8</ele></trkpt>
<trkpt lat="47.725849" lon="12.883854"><ele>483.2</ele></trkpt>
<trkpt lat="47.726118" lon="12.883872"><ele>478.7</ele></trkpt>
<trkpt lat="47.726551" lon="12.884389"><ele>479.4</ele></trkpt>
<trkpt lat="47.726900" lon="12.883842"><ele>474.7</ele></trkpt>
</trkseg></trk></gpx>