<?xml version="1.0" encoding="UTF-8"?>
<gpx version="1.1" creator="Bad Reichenhall gravel – saját gravel-router (OSM/Overture + SRTM)" xmlns="http://www.topografix.com/GPX/1/1">
<metadata><name>Schwarzbachwacht–Mordaualm</name><desc>GENERÁLT NYOMVONAL – Hegyi félnapos: a Saalachsee mellől a Schwarzbach völgyén a Schwarzbachwacht-hágóra (868 m), onnan erdei murvaúton a Mordaualm csendes legelőire, majd Ramsau felé ereszkedsz és Bischofswiesenen, Hallthurmon át érsz haza. A Reiter Alpe és a Watzmann között.</desc><copyright author="OpenStreetMap contributors (via Overture Maps)"><license>https://opendatacommons.org/licenses/odbl/</license></copyright><time>2026-10-03T21:47:21Z</time></metadata>
<wpt lat="47.7086" lon="12.8573"><name>Saalachsee</name><type>lake</type></wpt>
<wpt lat="47.6711" lon="12.794"><name>Oberjettenberg</name><type>view</type></wpt>
<wpt lat="47.6368" lon="12.8552"><name>Schwarzbachwacht</name><type>pass</type></wpt>
<wpt lat="47.6309" lon="12.8712"><name>Mordau</name><type>town</type></wpt>
<wpt lat="47.6475" lon="12.8893"><name>Mordaualm</name><type>hut</type></wpt>
<wpt lat="47.6188" lon="12.8817"><name>Taubensee (Ramsau)</name><type>lake</type></wpt>
<wpt lat="47.652" lon="12.9604"><name>Bischofswiesen</name><type>town</type></wpt>
<wpt lat="47.6966" lon="12.9354"><name>Hallthurm</name><type>pass</type></wpt>
<trk><name>Schwarzbachwacht–Mordaualm</name><type>gravel</type><trkseg>
<trkpt lat="47.726900" lon="12.883842"><ele>474.7</ele></trkpt>
<trkpt lat="47.726618" lon="12.884372"><ele>478.2</ele></trkpt>
<trkpt lat="47.726415" lon="12.884346"><ele>480.9</ele></trkpt>
<trkpt lat="47.726118" lon="12.883872"><ele>478.7</ele></trkpt>
<trkpt lat="47.725662" lon="12.883798"><ele>485.2</ele></trkpt>
<trkpt lat="47.724996" lon="12.883195"><ele>481.5</ele></trkpt>
<trkpt lat="47.724541" lon="12.882248"><ele>476.1</ele></trkpt>
<trkpt lat="47.724935" lon="12.881320"><ele>473.9</ele></trkpt>
<trkpt lat="47.724408" lon="12.880823"><ele>471.3</ele></trkpt>
<trkpt lat="47.724405" lon="12.880228"><ele>469.2</ele></trkpt>
<trkpt lat="47.723321" lon="12.879027"><ele>472.5</ele></trkpt>
<trkpt lat="47.722405" lon="12.877908"><ele>475.0</ele></trkpt>
<trkpt lat="47.722643" lon="12.877188"><ele>474.5</ele></trkpt>
<trkpt lat="47.721432" lon="12.876214"><ele>473.8</ele></trkpt>
<trkpt lat="47.720980" lon="12.875902"><ele>474.1</ele></trkpt>
<trkpt lat="47.719662" lon="12.875133"><ele>475.0</ele></trkpt>
<trkpt lat="47.719071" lon="12.874906"><ele>474.0</ele></trkpt>
<trkpt lat="47.718715" lon="12.873248"><ele>472.4</ele></trkpt>
<trkpt lat="47.718760" lon="12.873014"><ele>471.9</ele></trkpt>
<trkpt lat="47.718343" lon="12.873691"><ele>475.3</ele></trkpt>
<trkpt lat="47.716948" lon="12.873855"><ele>476.7</ele></trkpt>
<trkpt lat="47.716871" lon="12.873843"><ele>476.8</ele></trkpt>
<trkpt lat="47.715625" lon="12.873151"><ele>484.7</ele></trkpt>
<trkpt lat="47.714474" lon="12.872076"><ele>479.8</ele></trkpt>
<trkpt lat="47.713661" lon="12.870376"><ele>484.9</ele></trkpt>
<trkpt lat="47.713157" lon="12.869143"><ele>485.3</ele></trkpt>
<trkpt lat="47.712891" lon="12.868163"><ele>479.7</ele></trkpt>
<trkpt lat="47.712325" lon="12.867589"><ele>480.2</ele></trkpt>
<trkpt lat="47.711603" lon="12.866072"><ele>489.0</ele></trkpt>
<trkpt lat="47.710903" lon="12.865108"><ele>486.5</ele></trkpt>
<trkpt lat="47.710159" lon="12.863290"><ele>492.4</ele></trkpt>
<trkpt lat="47.709953" lon="12.862785"><ele>489.6</ele></trkpt>
<trkpt lat="47.709366" lon="12.861920"><ele>494.5</ele></trkpt>
<trkpt lat="47.708822" lon="12.861733"><ele>494.2</ele></trkpt>
<trkpt lat="47.709366" lon="12.861920"><ele>494.5</ele></trkpt>
<trkpt lat="47.708588" lon="12.861317"><ele>496.4</ele></trkpt>
<trkpt lat="47.707604" lon="12.859742"><ele>497.8</ele></trkpt>
<trkpt lat="47.706640" lon="12.858275"><ele>495.6</ele></trkpt>
<trkpt lat="47.705950" lon="12.857422"><ele>496.7</ele></trkpt>
<trkpt lat="47.705840" lon="12.856286"><ele>494.9</ele></trkpt>
<trkpt lat="47.705162" lon="12.854487"><ele>492.9</ele></trkpt>
<trkpt lat="47.705113" lon="12.854325"><ele>493.4</ele></trkpt>
<trkpt lat="47.705095" lon="12.853462"><ele>488.6</ele></trkpt>
<trkpt lat="47.704910" lon="12.853047"><ele>487.7</ele></trkpt>
<trkpt lat="47.704433" lon="12.852750"><ele>487.9</ele></trkpt>
<trkpt lat="47.704051" lon="12.853205"><ele>494.2</ele></trkpt>
<trkpt lat="47.703128" lon="12.853101"><ele>496.4</ele></trkpt>
<trkpt lat="47.702066" lon="12.852691"><ele>498.5</ele></trkpt>
<trkpt lat="47.700808" lon="12.851663"><ele>490.2</ele></trkpt>
<trkpt lat="47.700518" lon="12.851413"><ele>491.2</ele></trkpt>
<trkpt lat="47.699581" lon="12.850924"><ele>499.0</ele></trkpt>
<trkpt lat="47.699173" lon="12.850423"><ele>495.2</ele></trkpt>
<trkpt lat="47.697875" lon="12.850052"><ele>500.8</ele></trkpt>
<trkpt lat="47.697468" lon="12.849248"><ele>495.6</ele></trkpt>
<trkpt lat="47.696866" lon="12.848922"><ele>489.6</ele></trkpt>
<trkpt lat="47.696755" lon="12.849107"><ele>493.3</ele></trkpt>
<trkpt lat="47.695405" lon="12.848185"><ele>497.7</ele></trkpt>
<trkpt lat="47.694007" lon="12.847387"><ele>496.7</ele></trkpt>
<trkpt lat="47.693627" lon="12.847165"><ele>498.8</ele></trkpt>
<trkpt lat="47.693600" lon="12.846814"><ele>494.1</ele></trkpt>
<trkpt lat="47.693194" lon="12.846270"><ele>493.9</ele></trkpt>
<trkpt lat="47.692922" lon="12.845454"><ele>492.6</ele></trkpt>
<trkpt lat="47.691721" lon="12.845043"><ele>490.7</ele></trkpt>
<trkpt lat="47.690836" lon="12.844489"><ele>493.0</ele></trkpt>
<trkpt lat="47.689785" lon="12.843031"><ele>496.4</ele></trkpt>
<trkpt lat="47.688853" lon="12.841759"><ele>493.6</ele></trkpt>
<trkpt lat="47.687875" lon="12.840142"><ele>503.6</ele></trkpt>
<trkpt lat="47.686939" lon="12.838520"><ele>495.8</ele></trkpt>
<trkpt lat="47.686574" lon="12.838018"><ele>494.1</ele></trkpt>
<trkpt lat="47.685230" lon="12.837026"><ele>496.0</ele></trkpt>
<trkpt lat="47.684355" lon="12.836409"><ele>495.1</ele></trkpt>
<trkpt lat="47.682995" lon="12.835708"><ele>500.1</ele></trkpt>
<trkpt lat="47.682226" lon="12.835232"><ele>506.0</ele></trkpt>
<trkpt lat="47.681175" lon="12.833834"><ele>509.5</ele></trkpt>
<trkpt lat="47.681132" lon="12.833775"><ele>509.5</ele></trkpt>
<trkpt lat="47.680227" lon="12.832165"><ele>518.2</ele></trkpt>
<trkpt lat="47.680106" lon="12.831941"><ele>516.5</ele></trkpt>
<trkpt lat="47.679615" lon="12.830720"><ele>516.1</ele></trkpt>
<trkpt lat="47.678955" lon="12.829641"><ele>508.5</ele></trkpt>
<trkpt lat="47.678569" lon="12.828362"><ele>500.5</ele></trkpt>
<trkpt lat="47.678433" lon="12.828296"><ele>500.4</ele></trkpt>
<trkpt lat="47.678547" lon="12.828506"><ele>502.2</ele></trkpt>
<trkpt lat="47.678373" lon="12.828398"><ele>501.8</ele></trkpt>
<trkpt lat="47.678560" lon="12.828692"><ele>504.6</ele></trkpt>
<trkpt lat="47.678624" lon="12.829953"><ele>514.5</ele></trkpt>
<trkpt lat="47.678758" lon="12.830244"><ele>516.9</ele></trkpt>
<trkpt lat="47.678247" lon="12.830069"><ele>522.4</ele></trkpt>
<trkpt lat="47.678125" lon="12.830259"><ele>525.1</ele></trkpt>
<trkpt lat="47.678654" lon="12.830998"><ele>531.5</ele></trkpt>
<trkpt lat="47.678598" lon="12.831314"><ele>536.2</ele></trkpt>
<trkpt lat="47.677370" lon="12.830465"><ele>540.2</ele></trkpt>
<trkpt lat="47.677277" lon="12.830412"><ele>540.6</ele></trkpt>
<trkpt lat="47.676670" lon="12.830297"><ele>544.1</ele></trkpt>
<trkpt lat="47.676311" lon="12.829758"><ele>530.7</ele></trkpt>
<trkpt lat="47.676183" lon="12.828619"><ele>539.7</ele></trkpt>
<trkpt lat="47.675957" lon="12.828588"><ele>543.2</ele></trkpt>
<trkpt lat="47.675413" lon="12.829021"><ele>551.2</ele></trkpt>
<trkpt lat="47.674352" lon="12.828816"><ele>566.1</ele></trkpt>
<trkpt lat="47.673705" lon="12.828300"><ele>576.7</ele></trkpt>
<trkpt lat="47.673237" lon="12.826226"><ele>586.1</ele></trkpt>
<trkpt lat="47.672968" lon="12.824596"><ele>588.5</ele></trkpt>
<trkpt lat="47.672974" lon="12.823599"><ele>593.1</ele></trkpt>
<trkpt lat="47.672789" lon="12.822990"><ele>594.7</ele></trkpt>
<trkpt lat="47.671855" lon="12.821703"><ele>600.2</ele></trkpt>
<trkpt lat="47.671995" lon="12.819630"><ele>613.5</ele></trkpt>
<trkpt lat="47.672023" lon="12.819102"><ele>614.6</ele></trkpt>
<trkpt lat="47.672297" lon="12.818494"><ele>609.6</ele></trkpt>
<trkpt lat="47.673020" lon="12.817896"><ele>610.7</ele></trkpt>
<trkpt lat="47.673013" lon="12.817252"><ele>615.5</ele></trkpt>
<trkpt lat="47.672317" lon="12.815816"><ele>612.6</ele></trkpt>
<trkpt lat="47.671781" lon="12.813868"><ele>620.9</ele></trkpt>
<trkpt lat="47.671698" lon="12.813680"><ele>621.7</ele></trkpt>
<trkpt lat="47.670953" lon="12.812746"><ele>624.0</ele></trkpt>
<trkpt lat="47.670693" lon="12.810761"><ele>629.3</ele></trkpt>
<trkpt lat="47.670565" lon="12.809950"><ele>628.2</ele></trkpt>
<trkpt lat="47.670003" lon="12.807974"><ele>637.7</ele></trkpt>
<trkpt lat="47.669934" lon="12.807769"><ele>637.7</ele></trkpt>
<trkpt lat="47.669600" lon="12.805826"><ele>638.1</ele></trkpt>
<trkpt lat="47.669485" lon="12.805244"><ele>639.7</ele></trkpt>
<trkpt lat="47.669738" lon="12.803921"><ele>639.2</ele></trkpt>
<trkpt lat="47.669512" lon="12.801948"><ele>634.9</ele></trkpt>
<trkpt lat="47.669214" lon="12.800003"><ele>644.3</ele></trkpt>
<trkpt lat="47.669151" lon="12.798913"><ele>645.6</ele></trkpt>
<trkpt lat="47.669585" lon="12.797490"><ele>643.4</ele></trkpt>
<trkpt lat="47.670617" lon="12.796163"><ele>649.1</ele></trkpt>
<trkpt lat="47.670745" lon="12.795912"><ele>648.2</ele></trkpt>
<trkpt lat="47.670717" lon="12.794827"><ele>652.7</ele></trkpt>
<trkpt lat="47.671040" lon="12.794293"><ele>659.3</ele></trkpt>
<trkpt lat="47.671129" lon="12.792564"><ele>661.6</ele></trkpt>
<trkpt lat="47.669892" lon="12.792122"><ele>665.9</ele></trkpt>
<trkpt lat="47.669517" lon="12.792649"><ele>660.2</ele></trkpt>
<trkpt lat="47.668908" lon="12.792749"><ele>656.4</ele></trkpt>
<trkpt lat="47.668340" lon="12.791996"><ele>657.9</ele></trkpt>
<trkpt lat="47.667960" lon="12.792505"><ele>664.7</ele></trkpt>
<trkpt lat="47.667631" lon="12.793699"><ele>674.7</ele></trkpt>
<trkpt lat="47.667391" lon="12.794006"><ele>680.2</ele></trkpt>
<trkpt lat="47.667080" lon="12.796086"><ele>674.7</ele></trkpt>
<trkpt lat="47.667025" lon="12.796436"><ele>674.6</ele></trkpt>
<trkpt lat="47.666154" lon="12.797645"><ele>679.8</ele></trkpt>
<trkpt lat="47.665405" lon="12.798213"><ele>688.6</ele></trkpt>
<trkpt lat="47.665781" lon="12.800294"><ele>674.8</ele></trkpt>
<trkpt lat="47.666954" lon="12.801531"><ele>661.8</ele></trkpt>
<trkpt lat="47.667033" lon="12.801615"><ele>661.0</ele></trkpt>
<trkpt lat="47.667927" lon="12.803021"><ele>645.7</ele></trkpt>
<trkpt lat="47.668670" lon="12.804880"><ele>650.4</ele></trkpt>
<trkpt lat="47.668947" lon="12.805757"><ele>647.6</ele></trkpt>
<trkpt lat="47.668249" lon="12.805068"><ele>653.7</ele></trkpt>
<trkpt lat="47.667110" lon="12.805123"><ele>662.7</ele></trkpt>
<trkpt lat="47.665855" lon="12.804308"><ele>687.4</ele></trkpt>
<trkpt lat="47.665577" lon="12.804788"><ele>698.0</ele></trkpt>
<trkpt lat="47.665409" lon="12.804483"><ele>702.4</ele></trkpt>
<trkpt lat="47.665369" lon="12.804914"><ele>712.5</ele></trkpt>
<trkpt lat="47.665099" lon="12.804465"><ele>717.8</ele></trkpt>
<trkpt lat="47.665126" lon="12.804737"><ele>722.5</ele></trkpt>
<trkpt lat="47.664947" lon="12.805034"><ele>736.8</ele></trkpt>
<trkpt lat="47.664704" lon="12.804747"><ele>744.4</ele></trkpt>
<trkpt lat="47.664496" lon="12.805801"><ele>754.7</ele></trkpt>
<trkpt lat="47.663903" lon="12.805475"><ele>782.8</ele></trkpt>
<trkpt lat="47.663635" lon="12.806048"><ele>793.4</ele></trkpt>
<trkpt lat="47.663199" lon="12.806081"><ele>801.7</ele></trkpt>
<trkpt lat="47.663064" lon="12.806533"><ele>798.2</ele></trkpt>
<trkpt lat="47.662701" lon="12.806208"><ele>817.8</ele></trkpt>
<trkpt lat="47.662767" lon="12.805768"><ele>821.2</ele></trkpt>
<trkpt lat="47.662465" lon="12.805257"><ele>836.5</ele></trkpt>
<trkpt lat="47.662382" lon="12.805475"><ele>840.6</ele></trkpt>
<trkpt lat="47.662223" lon="12.805265"><ele>847.8</ele></trkpt>
<trkpt lat="47.661314" lon="12.806428"><ele>887.6</ele></trkpt>
<trkpt lat="47.661039" lon="12.806911"><ele>894.1</ele></trkpt>
<trkpt lat="47.660914" lon="12.806167"><ele>913.3</ele></trkpt>
<trkpt lat="47.660460" lon="12.806662"><ele>930.9</ele></trkpt>
<trkpt lat="47.660377" lon="12.806225"><ele>943.3</ele></trkpt>
<trkpt lat="47.659878" lon="12.806729"><ele>960.6</ele></trkpt>
<trkpt lat="47.659800" lon="12.806517"><ele>967.7</ele></trkpt>
<trkpt lat="47.659677" lon="12.807119"><ele>970.4</ele></trkpt>
<trkpt lat="47.659361" lon="12.806804"><ele>988.5</ele></trkpt>
<trkpt lat="47.659405" lon="12.807220"><ele>985.9</ele></trkpt>
<trkpt lat="47.659208" lon="12.807115"><ele>998.3</ele></trkpt>
<trkpt lat="47.658979" lon="12.807765"><ele>1017.0</ele></trkpt>
<trkpt lat="47.658964" lon="12.808563"><ele>1019.3</ele></trkpt>
<trkpt lat="47.659685" lon="12.809136"><ele>1009.1</ele></trkpt>
<trkpt lat="47.659551" lon="12.809155"><ele>1016.0</ele></trkpt>
<trkpt lat="47.659732" lon="12.809454"><ele>1017.7</ele></trkpt>
<trkpt lat="47.659465" lon="12.809439"><ele>1027.1</ele></trkpt>
<trkpt lat="47.659718" lon="12.809893"><ele>1034.5</ele></trkpt>
<trkpt lat="47.659749" lon="12.811038"><ele>1056.9</ele></trkpt>
<trkpt lat="47.659999" lon="12.811588"><ele>1052.9</ele></trkpt>
<trkpt lat="47.659863" lon="12.812996"><ele>1065.0</ele></trkpt>
<trkpt lat="47.660318" lon="12.813112"><ele>1038.5</ele></trkpt>
<trkpt lat="47.660416" lon="12.813657"><ele>1057.4</ele></trkpt>
<trkpt lat="47.660675" lon="12.813911"><ele>1057.1</ele></trkpt>
<trkpt lat="47.661525" lon="12.814695"><ele>1050.4</ele></trkpt>
<trkpt lat="47.661667" lon="12.814576"><ele>1038.2</ele></trkpt>
<trkpt lat="47.661699" lon="12.814795"><ele>1046.2</ele></trkpt>
<trkpt lat="47.662151" lon="12.814740"><ele>1021.0</ele></trkpt>
<trkpt lat="47.662870" lon="12.815779"><ele>996.7</ele></trkpt>
<trkpt lat="47.664041" lon="12.816606"><ele>965.0</ele></trkpt>
<trkpt lat="47.664202" lon="12.817823"><ele>966.3</ele></trkpt>
<trkpt lat="47.664329" lon="12.817631"><ele>952.7</ele></trkpt>
<trkpt lat="47.664654" lon="12.818556"><ele>933.1</ele></trkpt>
<trkpt lat="47.664969" lon="12.819769"><ele>930.0</ele></trkpt>
<trkpt lat="47.664788" lon="12.820787"><ele>940.9</ele></trkpt>
<trkpt lat="47.665037" lon="12.820946"><ele>932.0</ele></trkpt>
<trkpt lat="47.665485" lon="12.821767"><ele>923.8</ele></trkpt>
<trkpt lat="47.665815" lon="12.823838"><ele>925.4</ele></trkpt>
<trkpt lat="47.666080" lon="12.825255"><ele>919.8</ele></trkpt>
<trkpt lat="47.665896" lon="12.826213"><ele>924.9</ele></trkpt>
<trkpt lat="47.665504" lon="12.826572"><ele>949.3</ele></trkpt>
<trkpt lat="47.665990" lon="12.827198"><ele>912.9</ele></trkpt>
<trkpt lat="47.666012" lon="12.827582"><ele>914.7</ele></trkpt>
<trkpt lat="47.665581" lon="12.828126"><ele>926.9</ele></trkpt>
<trkpt lat="47.665053" lon="12.829249"><ele>928.8</ele></trkpt>
<trkpt lat="47.665154" lon="12.829546"><ele>912.5</ele></trkpt>
<trkpt lat="47.665026" lon="12.829930"><ele>907.9</ele></trkpt>
<trkpt lat="47.664479" lon="12.830218"><ele>925.3</ele></trkpt>
<trkpt lat="47.664328" lon="12.830081"><ele>940.1</ele></trkpt>
<trkpt lat="47.664104" lon="12.830423"><ele>943.3</ele></trkpt>
<trkpt lat="47.664192" lon="12.830663"><ele>928.7</ele></trkpt>
<trkpt lat="47.663943" lon="12.831724"><ele>924.0</ele></trkpt>
<trkpt lat="47.662843" lon="12.833293"><ele>924.3</ele></trkpt>
<trkpt lat="47.662754" lon="12.833404"><ele>925.3</ele></trkpt>
<trkpt lat="47.662497" lon="12.833499"><ele>935.3</ele></trkpt>
<trkpt lat="47.661799" lon="12.834665"><ele>916.8</ele></trkpt>
<trkpt lat="47.660911" lon="12.835348"><ele>920.2</ele></trkpt>
<trkpt lat="47.660646" lon="12.835342"><ele>935.7</ele></trkpt>
<trkpt lat="47.660749" lon="12.835951"><ele>915.5</ele></trkpt>
<trkpt lat="47.660367" lon="12.837421"><ele>912.5</ele></trkpt>
<trkpt lat="47.659793" lon="12.838294"><ele>914.0</ele></trkpt>
<trkpt lat="47.659751" lon="12.838654"><ele>901.7</ele></trkpt>
<trkpt lat="47.658656" lon="12.839837"><ele>915.1</ele></trkpt>
<trkpt lat="47.658012" lon="12.840657"><ele>911.0</ele></trkpt>
<trkpt lat="47.656683" lon="12.841331"><ele>911.5</ele></trkpt>
<trkpt lat="47.656666" lon="12.841342"><ele>911.4</ele></trkpt>
<trkpt lat="47.656064" lon="12.842303"><ele>882.1</ele></trkpt>
<trkpt lat="47.655844" lon="12.842277"><ele>889.1</ele></trkpt>
<trkpt lat="47.655415" lon="12.842844"><ele>865.9</ele></trkpt>
<trkpt lat="47.654182" lon="12.843599"><ele>840.4</ele></trkpt>
<trkpt lat="47.653873" lon="12.844065"><ele>824.4</ele></trkpt>
<trkpt lat="47.653659" lon="12.844034"><ele>823.7</ele></trkpt>
<trkpt lat="47.653149" lon="12.844858"><ele>804.1</ele></trkpt>
<trkpt lat="47.652721" lon="12.844720"><ele>809.9</ele></trkpt>
<trkpt lat="47.652130" lon="12.845733"><ele>771.5</ele></trkpt>
<trkpt lat="47.650758" lon="12.846591"><ele>746.7</ele></trkpt>
<trkpt lat="47.650436" lon="12.846778"><ele>743.1</ele></trkpt>
<trkpt lat="47.650298" lon="12.846967"><ele>739.4</ele></trkpt>
<trkpt lat="47.650587" lon="12.847376"><ele>727.6</ele></trkpt>
<trkpt lat="47.650392" lon="12.847987"><ele>720.2</ele></trkpt>
<trkpt lat="47.650539" lon="12.848094"><ele>716.6</ele></trkpt>
<trkpt lat="47.650157" lon="12.848230"><ele>723.0</ele></trkpt>
<trkpt lat="47.649640" lon="12.848076"><ele>724.5</ele></trkpt>
<trkpt lat="47.648265" lon="12.847423"><ele>735.1</ele></trkpt>
<trkpt lat="47.648230" lon="12.847393"><ele>735.2</ele></trkpt>
<trkpt lat="47.647815" lon="12.847571"><ele>736.3</ele></trkpt>
<trkpt lat="47.647543" lon="12.848021"><ele>735.7</ele></trkpt>
<trkpt lat="47.646584" lon="12.847750"><ele>736.0</ele></trkpt>
<trkpt lat="47.645939" lon="12.848033"><ele>738.4</ele></trkpt>
<trkpt lat="47.645277" lon="12.847653"><ele>742.9</ele></trkpt>
<trkpt lat="47.644197" lon="12.847711"><ele>738.9</ele></trkpt>
<trkpt lat="47.643882" lon="12.847418"><ele>741.5</ele></trkpt>
<trkpt lat="47.642757" lon="12.847111"><ele>744.8</ele></trkpt>
<trkpt lat="47.641837" lon="12.847695"><ele>743.7</ele></trkpt>
<trkpt lat="47.641592" lon="12.848383"><ele>743.4</ele></trkpt>
<trkpt lat="47.641048" lon="12.848890"><ele>745.5</ele></trkpt>
<trkpt lat="47.639618" lon="12.848706"><ele>762.1</ele></trkpt>
<trkpt lat="47.638248" lon="12.848740"><ele>784.7</ele></trkpt>
<trkpt lat="47.637252" lon="12.848836"><ele>801.9</ele></trkpt>
<trkpt lat="47.636835" lon="12.848674"><ele>808.8</ele></trkpt>
<trkpt lat="47.636319" lon="12.848080"><ele>824.0</ele></trkpt>
<trkpt lat="47.636161" lon="12.849859"><ele>840.0</ele></trkpt>
<trkpt lat="47.635739" lon="12.851422"><ele>860.8</ele></trkpt>
<trkpt lat="47.636535" lon="12.853291"><ele>879.7</ele></trkpt>
<trkpt lat="47.636538" lon="12.853310"><ele>879.9</ele></trkpt>
<trkpt lat="47.636555" lon="12.853787"><ele>885.3</ele></trkpt>
<trkpt lat="47.636272" lon="12.854941"><ele>890.3</ele></trkpt>
<trkpt lat="47.636362" lon="12.855439"><ele>888.3</ele></trkpt>
<trkpt lat="47.636055" lon="12.856162"><ele>892.8</ele></trkpt>
<trkpt lat="47.636193" lon="12.856267"><ele>893.3</ele></trkpt>
<trkpt lat="47.636609" lon="12.855794"><ele>891.8</ele></trkpt>
<trkpt lat="47.636193" lon="12.856267"><ele>893.3</ele></trkpt>
<trkpt lat="47.636055" lon="12.856162"><ele>892.8</ele></trkpt>
<trkpt lat="47.635445" lon="12.857435"><ele>899.1</ele></trkpt>
<trkpt lat="47.635159" lon="12.859072"><ele>898.9</ele></trkpt>
<trkpt lat="47.634493" lon="12.859898"><ele>893.6</ele></trkpt>
<trkpt lat="47.633891" lon="12.861365"><ele>895.9</ele></trkpt>
<trkpt lat="47.633394" lon="12.861679"><ele>898.0</ele></trkpt>
<trkpt lat="47.633160" lon="12.862155"><ele>896.1</ele></trkpt>
<trkpt lat="47.632961" lon="12.862805"><ele>890.2</ele></trkpt>
<trkpt lat="47.632956" lon="12.864073"><ele>889.3</ele></trkpt>
<trkpt lat="47.632774" lon="12.864683"><ele>885.8</ele></trkpt>
<trkpt lat="47.632283" lon="12.865965"><ele>891.4</ele></trkpt>
<trkpt lat="47.631875" lon="12.866120"><ele>891.8</ele></trkpt>
<trkpt lat="47.631229" lon="12.868018"><ele>890.6</ele></trkpt>
<trkpt lat="47.631064" lon="12.868308"><ele>888.7</ele></trkpt>
<trkpt lat="47.630954" lon="12.870075"><ele>898.4</ele></trkpt>
<trkpt lat="47.630434" lon="12.870731"><ele>893.5</ele></trkpt>
<trkpt lat="47.630493" lon="12.871052"><ele>895.6</ele></trkpt>
<trkpt lat="47.630912" lon="12.870412"><ele>898.0</ele></trkpt>
<trkpt lat="47.631075" lon="12.870573"><ele>903.3</ele></trkpt>
<trkpt lat="47.630864" lon="12.871260"><ele>907.8</ele></trkpt>
<trkpt lat="47.630790" lon="12.872309"><ele>913.9</ele></trkpt>
<trkpt lat="47.631117" lon="12.872938"><ele>920.8</ele></trkpt>
<trkpt lat="47.631096" lon="12.874138"><ele>928.9</ele></trkpt>
<trkpt lat="47.631668" lon="12.876144"><ele>948.9</ele></trkpt>
<trkpt lat="47.631895" lon="12.876943"><ele>951.4</ele></trkpt>
<trkpt lat="47.632868" lon="12.878592"><ele>964.2</ele></trkpt>
<trkpt lat="47.633823" lon="12.880057"><ele>974.8</ele></trkpt>
<trkpt lat="47.634751" lon="12.881603"><ele>993.2</ele></trkpt>
<trkpt lat="47.634772" lon="12.881628"><ele>993.3</ele></trkpt>
<trkpt lat="47.636005" lon="12.882707"><ele>1013.4</ele></trkpt>
<trkpt lat="47.637261" lon="12.883794"><ele>1017.8</ele></trkpt>
<trkpt lat="47.638531" lon="12.884681"><ele>1034.3</ele></trkpt>
<trkpt lat="47.639709" lon="12.885700"><ele>1052.1</ele></trkpt>
<trkpt lat="47.639897" lon="12.885852"><ele>1057.4</ele></trkpt>
<trkpt lat="47.641201" lon="12.886422"><ele>1096.3</ele></trkpt>
<trkpt lat="47.641987" lon="12.886937"><ele>1108.0</ele></trkpt>
<trkpt lat="47.642694" lon="12.887773"><ele>1124.1</ele></trkpt>
<trkpt lat="47.642992" lon="12.887743"><ele>1124.7</ele></trkpt>
<trkpt lat="47.643389" lon="12.887265"><ele>1118.7</ele></trkpt>
<trkpt lat="47.643386" lon="12.886238"><ele>1141.5</ele></trkpt>
<trkpt lat="47.643501" lon="12.886165"><ele>1146.8</ele></trkpt>
<trkpt lat="47.644763" lon="12.886932"><ele>1161.6</ele></trkpt>
<trkpt lat="47.645684" lon="12.887444"><ele>1173.7</ele></trkpt>
<trkpt lat="47.646756" lon="12.888442"><ele>1191.9</ele></trkpt>
<trkpt lat="47.646318" lon="12.888700"><ele>1189.9</ele></trkpt>
<trkpt lat="47.646467" lon="12.889040"><ele>1197.2</ele></trkpt>
<trkpt lat="47.647358" lon="12.889392"><ele>1211.4</ele></trkpt>
<trkpt lat="47.647472" lon="12.888702"><ele>1193.7</ele></trkpt>
<trkpt lat="47.646995" lon="12.888670"><ele>1197.0</ele></trkpt>
<trkpt lat="47.645781" lon="12.887531"><ele>1174.2</ele></trkpt>
<trkpt lat="47.645684" lon="12.887444"><ele>1173.7</ele></trkpt>
<trkpt lat="47.644346" lon="12.886669"><ele>1159.2</ele></trkpt>
<trkpt lat="47.643401" lon="12.886162"><ele>1143.4</ele></trkpt>
<trkpt lat="47.642683" lon="12.884345"><ele>1151.4</ele></trkpt>
<trkpt lat="47.642059" lon="12.882392"><ele>1168.3</ele></trkpt>
<trkpt lat="47.641907" lon="12.881956"><ele>1179.3</ele></trkpt>
<trkpt lat="47.641249" lon="12.881922"><ele>1149.6</ele></trkpt>
<trkpt lat="47.639898" lon="12.881310"><ele>1134.7</ele></trkpt>
<trkpt lat="47.639703" lon="12.881215"><ele>1133.6</ele></trkpt>
<trkpt lat="47.640275" lon="12.882146"><ele>1121.5</ele></trkpt>
<trkpt lat="47.640472" lon="12.882870"><ele>1118.0</ele></trkpt>
<trkpt lat="47.640927" lon="12.883146"><ele>1123.7</ele></trkpt>
<trkpt lat="47.641026" lon="12.883586"><ele>1114.4</ele></trkpt>
<trkpt lat="47.640850" lon="12.884033"><ele>1101.4</ele></trkpt>
<trkpt lat="47.641219" lon="12.886075"><ele>1096.8</ele></trkpt>
<trkpt lat="47.641278" lon="12.886374"><ele>1098.2</ele></trkpt>
<trkpt lat="47.640239" lon="12.886102"><ele>1068.1</ele></trkpt>
<trkpt lat="47.639816" lon="12.886264"><ele>1057.4</ele></trkpt>
<trkpt lat="47.638779" lon="12.887608"><ele>1042.7</ele></trkpt>
<trkpt lat="47.638716" lon="12.887688"><ele>1043.1</ele></trkpt>
<trkpt lat="47.637869" lon="12.888146"><ele>1029.8</ele></trkpt>
<trkpt lat="47.637263" lon="12.888988"><ele>1024.7</ele></trkpt>
<trkpt lat="47.637084" lon="12.888641"><ele>1016.6</ele></trkpt>
<trkpt lat="47.635852" lon="12.887622"><ele>993.0</ele></trkpt>
<trkpt lat="47.634846" lon="12.886821"><ele>985.8</ele></trkpt>
<trkpt lat="47.634095" lon="12.886510"><ele>977.7</ele></trkpt>
<trkpt lat="47.632792" lon="12.885631"><ele>977.2</ele></trkpt>
<trkpt lat="47.632230" lon="12.885177"><ele>978.5</ele></trkpt>
<trkpt lat="47.631122" lon="12.883835"><ele>959.4</ele></trkpt>
<trkpt lat="47.630713" lon="12.883348"><ele>957.4</ele></trkpt>
<trkpt lat="47.629478" lon="12.882279"><ele>943.7</ele></trkpt>
<trkpt lat="47.628281" lon="12.881267"><ele>926.4</ele></trkpt>
<trkpt lat="47.628217" lon="12.881209"><ele>925.3</ele></trkpt>
<trkpt lat="47.627503" lon="12.881208"><ele>921.7</ele></trkpt>
<trkpt lat="47.626664" lon="12.880536"><ele>914.8</ele></trkpt>
<trkpt lat="47.625263" lon="12.880297"><ele>908.4</ele></trkpt>
<trkpt lat="47.625234" lon="12.880296"><ele>908.2</ele></trkpt>
<trkpt lat="47.624073" lon="12.879816"><ele>894.9</ele></trkpt>
<trkpt lat="47.624052" lon="12.879620"><ele>890.7</ele></trkpt>
<trkpt lat="47.622642" lon="12.879299"><ele>889.2</ele></trkpt>
<trkpt lat="47.622416" lon="12.879247"><ele>887.1</ele></trkpt>
<trkpt lat="47.621189" lon="12.878286"><ele>869.1</ele></trkpt>
<trkpt lat="47.621055" lon="12.878264"><ele>867.8</ele></trkpt>
<trkpt lat="47.619774" lon="12.878833"><ele>866.7</ele></trkpt>
<trkpt lat="47.618903" lon="12.880418"><ele>854.9</ele></trkpt>
<trkpt lat="47.618786" lon="12.880648"><ele>853.7</ele></trkpt>
<trkpt lat="47.618166" lon="12.880440"><ele>846.7</ele></trkpt>
<trkpt lat="47.618009" lon="12.880700"><ele>846.7</ele></trkpt>
<trkpt lat="47.618001" lon="12.881300"><ele>848.4</ele></trkpt>
<trkpt lat="47.618298" lon="12.881690"><ele>852.0</ele></trkpt>
<trkpt lat="47.618001" lon="12.881301"><ele>848.4</ele></trkpt>
<trkpt lat="47.617855" lon="12.881877"><ele>851.0</ele></trkpt>
<trkpt lat="47.617063" lon="12.882481"><ele>845.0</ele></trkpt>
<trkpt lat="47.616282" lon="12.883711"><ele>838.7</ele></trkpt>
<trkpt lat="47.615979" lon="12.885799"><ele>837.2</ele></trkpt>
<trkpt lat="47.615467" lon="12.887798"><ele>845.8</ele></trkpt>
<trkpt lat="47.615348" lon="12.888324"><ele>843.0</ele></trkpt>
<trkpt lat="47.614823" lon="12.889769"><ele>836.1</ele></trkpt>
<trkpt lat="47.615020" lon="12.890077"><ele>844.6</ele></trkpt>
<trkpt lat="47.614674" lon="12.891349"><ele>846.2</ele></trkpt>
<trkpt lat="47.614583" lon="12.892692"><ele>854.2</ele></trkpt>
<trkpt lat="47.614697" lon="12.893475"><ele>856.2</ele></trkpt>
<trkpt lat="47.614940" lon="12.893904"><ele>858.7</ele></trkpt>
<trkpt lat="47.615846" lon="12.893658"><ele>871.2</ele></trkpt>
<trkpt lat="47.616388" lon="12.893990"><ele>880.5</ele></trkpt>
<trkpt lat="47.616880" lon="12.894760"><ele>886.9</ele></trkpt>
<trkpt lat="47.617470" lon="12.896213"><ele>904.9</ele></trkpt>
<trkpt lat="47.618572" lon="12.897468"><ele>930.5</ele></trkpt>
<trkpt lat="47.618781" lon="12.897708"><ele>935.2</ele></trkpt>
<trkpt lat="47.619258" lon="12.898714"><ele>951.7</ele></trkpt>
<trkpt lat="47.620297" lon="12.900004"><ele>972.4</ele></trkpt>
<trkpt lat="47.620381" lon="12.900101"><ele>974.1</ele></trkpt>
<trkpt lat="47.620260" lon="12.900809"><ele>977.3</ele></trkpt>
<trkpt lat="47.620392" lon="12.901221"><ele>984.3</ele></trkpt>
<trkpt lat="47.620299" lon="12.901989"><ele>998.2</ele></trkpt>
<trkpt lat="47.620844" lon="12.902889"><ele>1008.2</ele></trkpt>
<trkpt lat="47.622139" lon="12.903654"><ele>1023.7</ele></trkpt>
<trkpt lat="47.622647" lon="12.903956"><ele>1026.3</ele></trkpt>
<trkpt lat="47.624144" lon="12.903920"><ele>1026.1</ele></trkpt>
<trkpt lat="47.624423" lon="12.903946"><ele>1027.9</ele></trkpt>
<trkpt lat="47.625590" lon="12.904431"><ele>1036.2</ele></trkpt>
<trkpt lat="47.626702" lon="12.904469"><ele>1038.5</ele></trkpt>
<trkpt lat="47.627831" lon="12.905728"><ele>1031.8</ele></trkpt>
<trkpt lat="47.628968" lon="12.906889"><ele>1029.1</ele></trkpt>
<trkpt lat="47.629374" lon="12.907353"><ele>1029.5</ele></trkpt>
<trkpt lat="47.630119" lon="12.907578"><ele>1034.5</ele></trkpt>
<trkpt lat="47.630621" lon="12.908480"><ele>1018.7</ele></trkpt>
<trkpt lat="47.631930" lon="12.909290"><ele>1005.5</ele></trkpt>
<trkpt lat="47.632863" lon="12.909164"><ele>1000.8</ele></trkpt>
<trkpt lat="47.633063" lon="12.909629"><ele>994.6</ele></trkpt>
<trkpt lat="47.634193" lon="12.910014"><ele>990.9</ele></trkpt>
<trkpt lat="47.635529" lon="12.911072"><ele>986.8</ele></trkpt>
<trkpt lat="47.636123" lon="12.911516"><ele>986.2</ele></trkpt>
<trkpt lat="47.637513" lon="12.912361"><ele>977.3</ele></trkpt>
<trkpt lat="47.637793" lon="12.912492"><ele>973.4</ele></trkpt>
<trkpt lat="47.638986" lon="12.913582"><ele>967.7</ele></trkpt>
<trkpt lat="47.639138" lon="12.913737"><ele>966.1</ele></trkpt>
<trkpt lat="47.640538" lon="12.914495"><ele>949.0</ele></trkpt>
<trkpt lat="47.640616" lon="12.914568"><ele>949.6</ele></trkpt>
<trkpt lat="47.641469" lon="12.916172"><ele>951.4</ele></trkpt>
<trkpt lat="47.642556" lon="12.917647"><ele>941.1</ele></trkpt>
<trkpt lat="47.643436" lon="12.918919"><ele>936.0</ele></trkpt>
<trkpt lat="47.643551" lon="12.919230"><ele>933.3</ele></trkpt>
<trkpt lat="47.643407" lon="12.920255"><ele>935.7</ele></trkpt>
<trkpt lat="47.643497" lon="12.920576"><ele>929.8</ele></trkpt>
<trkpt lat="47.643616" lon="12.920823"><ele>923.8</ele></trkpt>
<trkpt lat="47.644050" lon="12.920925"><ele>911.8</ele></trkpt>
<trkpt lat="47.644364" lon="12.921858"><ele>901.9</ele></trkpt>
<trkpt lat="47.645167" lon="12.923012"><ele>893.6</ele></trkpt>
<trkpt lat="47.645480" lon="12.924212"><ele>891.5</ele></trkpt>
<trkpt lat="47.646011" lon="12.924340"><ele>886.8</ele></trkpt>
<trkpt lat="47.647111" lon="12.925529"><ele>871.2</ele></trkpt>
<trkpt lat="47.647204" lon="12.925627"><ele>870.2</ele></trkpt>
<trkpt lat="47.647243" lon="12.926480"><ele>874.3</ele></trkpt>
<trkpt lat="47.648181" lon="12.927107"><ele>867.3</ele></trkpt>
<trkpt lat="47.648680" lon="12.927944"><ele>873.0</ele></trkpt>
<trkpt lat="47.648839" lon="12.928598"><ele>871.5</ele></trkpt>
<trkpt lat="47.648499" lon="12.930058"><ele>872.9</ele></trkpt>
<trkpt lat="47.648882" lon="12.931513"><ele>869.1</ele></trkpt>
<trkpt lat="47.648977" lon="12.933567"><ele>879.2</ele></trkpt>
<trkpt lat="47.649020" lon="12.934628"><ele>874.1</ele></trkpt>
<trkpt lat="47.648856" lon="12.935676"><ele>873.7</ele></trkpt>
<trkpt lat="47.649527" lon="12.937210"><ele>875.0</ele></trkpt>
<trkpt lat="47.649716" lon="12.937260"><ele>874.9</ele></trkpt>
<trkpt lat="47.649342" lon="12.939274"><ele>878.7</ele></trkpt>
<trkpt lat="47.649080" lon="12.940407"><ele>885.3</ele></trkpt>
<trkpt lat="47.649348" lon="12.942427"><ele>869.8</ele></trkpt>
<trkpt lat="47.649441" lon="12.943657"><ele>873.2</ele></trkpt>
<trkpt lat="47.649816" lon="12.945145"><ele>862.1</ele></trkpt>
<trkpt lat="47.649394" lon="12.945893"><ele>859.4</ele></trkpt>
<trkpt lat="47.649393" lon="12.946738"><ele>842.4</ele></trkpt>
<trkpt lat="47.648977" lon="12.947001"><ele>841.6</ele></trkpt>
<trkpt lat="47.648971" lon="12.948081"><ele>819.3</ele></trkpt>
<trkpt lat="47.648618" lon="12.948238"><ele>824.2</ele></trkpt>
<trkpt lat="47.648993" lon="12.950046"><ele>803.4</ele></trkpt>
<trkpt lat="47.648813" lon="12.951478"><ele>784.8</ele></trkpt>
<trkpt lat="47.648673" lon="12.951566"><ele>781.0</ele></trkpt>
<trkpt lat="47.648445" lon="12.951122"><ele>783.5</ele></trkpt>
<trkpt lat="47.648061" lon="12.951268"><ele>781.0</ele></trkpt>
<trkpt lat="47.647650" lon="12.952669"><ele>760.8</ele></trkpt>
<trkpt lat="47.646613" lon="12.953732"><ele>752.3</ele></trkpt>
<trkpt lat="47.646161" lon="12.955717"><ele>735.2</ele></trkpt>
<trkpt lat="47.646105" lon="12.955886"><ele>732.0</ele></trkpt>
<trkpt lat="47.645256" lon="12.956598"><ele>714.6</ele></trkpt>
<trkpt lat="47.645079" lon="12.957074"><ele>707.7</ele></trkpt>
<trkpt lat="47.645031" lon="12.958756"><ele>683.3</ele></trkpt>
<trkpt lat="47.644665" lon="12.959586"><ele>677.3</ele></trkpt>
<trkpt lat="47.644680" lon="12.960434"><ele>663.8</ele></trkpt>
<trkpt lat="47.644877" lon="12.960758"><ele>655.4</ele></trkpt>
<trkpt lat="47.645590" lon="12.961088"><ele>652.0</ele></trkpt>
<trkpt lat="47.646503" lon="12.962591"><ele>635.2</ele></trkpt>
<trkpt lat="47.646614" lon="12.962859"><ele>632.1</ele></trkpt>
<trkpt lat="47.647100" lon="12.962344"><ele>635.8</ele></trkpt>
<trkpt lat="47.648323" lon="12.961764"><ele>629.8</ele></trkpt>
<trkpt lat="47.648711" lon="12.961860"><ele>626.7</ele></trkpt>
<trkpt lat="47.648950" lon="12.962405"><ele>624.2</ele></trkpt>
<trkpt lat="47.650113" lon="12.961482"><ele>613.4</ele></trkpt>
<trkpt lat="47.650636" lon="12.960998"><ele>614.4</ele></trkpt>
<trkpt lat="47.650761" lon="12.961257"><ele>613.1</ele></trkpt>
<trkpt lat="47.651605" lon="12.960620"><ele>615.4</ele></trkpt>
<trkpt lat="47.651992" lon="12.960475"><ele>614.6</ele></trkpt>
<trkpt lat="47.652088" lon="12.960768"><ele>617.0</ele></trkpt>
<trkpt lat="47.653013" lon="12.960347"><ele>616.3</ele></trkpt>
<trkpt lat="47.654382" lon="12.959376"><ele>619.6</ele></trkpt>
<trkpt lat="47.654421" lon="12.959339"><ele>619.8</ele></trkpt>
<trkpt lat="47.655434" lon="12.957953"><ele>619.4</ele></trkpt>
<trkpt lat="47.656538" lon="12.956621"><ele>628.4</ele></trkpt>
<trkpt lat="47.656807" lon="12.956318"><ele>629.4</ele></trkpt>
<trkpt lat="47.658112" lon="12.955690"><ele>628.0</ele></trkpt>
<trkpt lat="47.659465" lon="12.955114"><ele>627.5</ele></trkpt>
<trkpt lat="47.660928" lon="12.954491"><ele>634.6</ele></trkpt>
<trkpt lat="47.661584" lon="12.954177"><ele>635.8</ele></trkpt>
<trkpt lat="47.662939" lon="12.953178"><ele>637.3</ele></trkpt>
<trkpt lat="47.664176" lon="12.952246"><ele>638.9</ele></trkpt>
<trkpt lat="47.664715" lon="12.951869"><ele>639.0</ele></trkpt>
<trkpt lat="47.665673" lon="12.950496"><ele>642.5</ele></trkpt>
<trkpt lat="47.666288" lon="12.949677"><ele>644.5</ele></trkpt>
<trkpt lat="47.666919" lon="12.948066"><ele>642.0</ele></trkpt>
<trkpt lat="47.668181" lon="12.947181"><ele>649.5</ele></trkpt>
<trkpt lat="47.668734" lon="12.946959"><ele>648.5</ele></trkpt>
<trkpt lat="47.669558" lon="12.945134"><ele>651.6</ele></trkpt>
<trkpt lat="47.670355" lon="12.943347"><ele>655.4</ele></trkpt>
<trkpt lat="47.670373" lon="12.943309"><ele>655.7</ele></trkpt>
<trkpt lat="47.670267" lon="12.942321"><ele>655.6</ele></trkpt>
<trkpt lat="47.671515" lon="12.941504"><ele>657.9</ele></trkpt>
<trkpt lat="47.671668" lon="12.941379"><ele>660.0</ele></trkpt>
<trkpt lat="47.671658" lon="12.940558"><ele>659.9</ele></trkpt>
<trkpt lat="47.672854" lon="12.939501"><ele>664.0</ele></trkpt>
<trkpt lat="47.673146" lon="12.939220"><ele>665.5</ele></trkpt>
<trkpt lat="47.674008" lon="12.939042"><ele>668.5</ele></trkpt>
<trkpt lat="47.674662" lon="12.938243"><ele>668.0</ele></trkpt>
<trkpt lat="47.675478" lon="12.937707"><ele>670.7</ele></trkpt>
<trkpt lat="47.676057" lon="12.937694"><ele>669.8</ele></trkpt>
<trkpt lat="47.677333" lon="12.936955"><ele>664.1</ele></trkpt>
<trkpt lat="47.677626" lon="12.936625"><ele>667.4</ele></trkpt>
<trkpt lat="47.678956" lon="12.935941"><ele>672.7</ele></trkpt>
<trkpt lat="47.679969" lon="12.935569"><ele>680.2</ele></trkpt>
<trkpt lat="47.680492" lon="12.935608"><ele>683.0</ele></trkpt>
<trkpt lat="47.681827" lon="12.936315"><ele>687.8</ele></trkpt>
<trkpt lat="47.683093" lon="12.936822"><ele>681.0</ele></trkpt>
<trkpt lat="47.683364" lon="12.937213"><ele>680.4</ele></trkpt>
<trkpt lat="47.684750" lon="12.937683"><ele>683.4</ele></trkpt>
<trkpt lat="47.685066" lon="12.937761"><ele>684.3</ele></trkpt>
<trkpt lat="47.686285" lon="12.937844"><ele>681.6</ele></trkpt>
<trkpt lat="47.686246" lon="12.935821"><ele>693.6</ele></trkpt>
<trkpt lat="47.686267" lon="12.935703"><ele>694.5</ele></trkpt>
<trkpt lat="47.686820" lon="12.935196"><ele>703.1</ele></trkpt>
<trkpt lat="47.686610" lon="12.934353"><ele>710.4</ele></trkpt>
<trkpt lat="47.686723" lon="12.933550"><ele>719.0</ele></trkpt>
<trkpt lat="47.686932" lon="12.933601"><ele>720.0</ele></trkpt>
<trkpt lat="47.687036" lon="12.932809"><ele>722.1</ele></trkpt>
<trkpt lat="47.687245" lon="12.932609"><ele>726.7</ele></trkpt>
<trkpt lat="47.688184" lon="12.933185"><ele>739.8</ele></trkpt>
<trkpt lat="47.688553" lon="12.934035"><ele>743.1</ele></trkpt>
<trkpt lat="47.689825" lon="12.934848"><ele>773.9</ele></trkpt>
<trkpt lat="47.690066" lon="12.935085"><ele>776.8</ele></trkpt>
<trkpt lat="47.691439" lon="12.935723"><ele>765.0</ele></trkpt>
<trkpt lat="47.692206" lon="12.936005"><ele>764.4</ele></trkpt>
<trkpt lat="47.693307" lon="12.935804"><ele>744.5</ele></trkpt>
<trkpt lat="47.694158" lon="12.936112"><ele>729.1</ele></trkpt>
<trkpt lat="47.695480" lon="12.935262"><ele>706.7</ele></trkpt>
<trkpt lat="47.695895" lon="12.935061"><ele>704.1</ele></trkpt>
<trkpt lat="47.696303" lon="12.935376"><ele>696.3</ele></trkpt>
<trkpt lat="47.696877" lon="12.935472"><ele>691.4</ele></trkpt>
<trkpt lat="47.697122" lon="12.934498"><ele>706.1</ele></trkpt>
<trkpt lat="47.697490" lon="12.934247"><ele>714.8</ele></trkpt>
<trkpt lat="47.697901" lon="12.933602"><ele>723.7</ele></trkpt>
<trkpt lat="47.699075" lon="12.933010"><ele>719.9</ele></trkpt>
<trkpt lat="47.699454" lon="12.932192"><ele>722.5</ele></trkpt>
<trkpt lat="47.699843" lon="12.932565"><ele>720.5</ele></trkpt>
<trkpt lat="47.700290" lon="12.931930"><ele>733.6</ele></trkpt>
<trkpt lat="47.700670" lon="12.931706"><ele>740.3</ele></trkpt>
<trkpt lat="47.701610" lon="12.930089"><ele>751.6</ele></trkpt>
<trkpt lat="47.701638" lon="12.930037"><ele>751.5</ele></trkpt>
<trkpt lat="47.702763" lon="12.928705"><ele>724.8</ele></trkpt>
<trkpt lat="47.702791" lon="12.928672"><ele>724.2</ele></trkpt>
<trkpt lat="47.704101" lon="12.928210"><ele>692.5</ele></trkpt>
<trkpt lat="47.704630" lon="12.927966"><ele>687.4</ele></trkpt>
<trkpt lat="47.704980" lon="12.926769"><ele>686.3</ele></trkpt>
<trkpt lat="47.704954" lon="12.925879"><ele>688.8</ele></trkpt>
<trkpt lat="47.705605" lon="12.924048"><ele>697.9</ele></trkpt>
<trkpt lat="47.705698" lon="12.922847"><ele>690.2</ele></trkpt>
<trkpt lat="47.706172" lon="12.922236"><ele>683.7</ele></trkpt>
<trkpt lat="47.706274" lon="12.921676"><ele>681.9</ele></trkpt>
<trkpt lat="47.706505" lon="12.921494"><ele>676.2</ele></trkpt>
<trkpt lat="47.706686" lon="12.920936"><ele>675.4</ele></trkpt>
<trkpt lat="47.707261" lon="12.920346"><ele>667.6</ele></trkpt>
<trkpt lat="47.707357" lon="12.919627"><ele>666.9</ele></trkpt>
<trkpt lat="47.708186" lon="12.919478"><ele>661.1</ele></trkpt>
<trkpt lat="47.708843" lon="12.918911"><ele>652.3</ele></trkpt>
<trkpt lat="47.709659" lon="12.917350"><ele>645.2</ele></trkpt>
<trkpt lat="47.710353" lon="12.915858"><ele>639.5</ele></trkpt>
<trkpt lat="47.711167" lon="12.914764"><ele>631.4</ele></trkpt>
<trkpt lat="47.711530" lon="12.913797"><ele>629.4</ele></trkpt>
<trkpt lat="47.712546" lon="12.914730"><ele>604.3</ele></trkpt>
<trkpt lat="47.712516" lon="12.915061"><ele>604.8</ele></trkpt>
<trkpt lat="47.712707" lon="12.915345"><ele>602.7</ele></trkpt>
<trkpt lat="47.713807" lon="12.913986"><ele>588.4</ele></trkpt>
<trkpt lat="47.713880" lon="12.913911"><ele>586.4</ele></trkpt>
<trkpt lat="47.714981" lon="12.914021"><ele>579.4</ele></trkpt>
<trkpt lat="47.716229" lon="12.913677"><ele>563.0</ele></trkpt>
<trkpt lat="47.716337" lon="12.912816"><ele>561.3</ele></trkpt>
<trkpt lat="47.716870" lon="12.912714"><ele>559.6</ele></trkpt>
<trkpt lat="47.717527" lon="12.910766"><ele>555.4</ele></trkpt>
<trkpt lat="47.717627" lon="12.910396"><ele>553.2</ele></trkpt>
<trkpt lat="47.717941" lon="12.908346"><ele>547.8</ele></trkpt>
<trkpt lat="47.718067" lon="12.907380"><ele>545.1</ele></trkpt>
<trkpt lat="47.718676" lon="12.905567"><ele>536.9</ele></trkpt>
<trkpt lat="47.718796" lon="12.905148"><ele>534.2</ele></trkpt>
<trkpt lat="47.719001" lon="12.903546"><ele>541.2</ele></trkpt>
<trkpt lat="47.720070" lon="12.903340"><ele>537.7</ele></trkpt>
<trkpt lat="47.719944" lon="12.901454"><ele>541.0</ele></trkpt>
<trkpt lat="47.720319" lon="12.901365"><ele>539.0</ele></trkpt>
<trkpt lat="47.721460" lon="12.900213"><ele>537.5</ele></trkpt>
<trkpt lat="47.722229" lon="12.899246"><ele>535.0</ele></trkpt>
<trkpt lat="47.722310" lon="12.899358"><ele>535.0</ele></trkpt>
<trkpt lat="47.723309" lon="12.898620"><ele>529.2</ele></trkpt>
<trkpt lat="47.723911" lon="12.897993"><ele>523.2</ele></trkpt>
<trkpt lat="47.723568" lon="12.895892"><ele>518.6</ele></trkpt>
<trkpt lat="47.723313" lon="12.893661"><ele>518.0</ele></trkpt>
<trkpt lat="47.723243" lon="12.893164"><ele>517.6</ele></trkpt>
<trkpt lat="47.723304" lon="12.891044"><ele>521.7</ele></trkpt>
<trkpt lat="47.723289" lon="12.889793"><ele>525.9</ele></trkpt>
<trkpt lat="47.723140" lon="12.888319"><ele>529.3</ele></trkpt>
<trkpt lat="47.723279" lon="12.887616"><ele>530.3</ele></trkpt>
<trkpt lat="47.723889" lon="12.886863"><ele>525.7</ele></trkpt>
<trkpt lat="47.725168" lon="12.886404"><ele>509.7</ele></trkpt>
<trkpt lat="47.725966" lon="12.885604"><ele>497.4</ele></trkpt>
<trkpt lat="47.726011" lon="12.885221"><ele>494.8</ele></trkpt>
<trkpt lat="47.725770" lon="12.884096"><ele>486.8</ele></trkpt>
<trkpt lat="47.725849" lon="12.883854"><ele>483.2</ele></trkpt>
<trkpt lat="47.726118" lon="12.883872"><ele>478.7</ele></trkpt>
<trkpt lat="47.726551" lon="12.884389"><ele>479.4</ele></trkpt>
<trkpt lat="47.726900" lon="12.883842"><ele>474.7</ele></trkpt>
</trkseg></trk></gpx>