<?xml version="1.0" encoding="UTF-8"?>
<gpx version="1.1" creator="Bad Reichenhall gravel – saját gravel-router (OSM/Overture + SRTM)" xmlns="http://www.topografix.com/GPX/1/1">
<metadata><name>Röthelmoos–Weitsee tóvidék</name><desc>GENERÁLT NYOMVONAL – Inzellből Ruhpoldingon át az Urschlauer Achen völgyén fel a Röthelmoos lápos almvidékére, onnan erdészeti utakon le a Chiemgau „kanadai” tóláncához: Weitsee, Mittersee, Lödensee, Förchensee. A Laubau és a Taubensee érintésével gurulsz vissza Inzellbe. Az egyik legszebb gravel-terep a régióban.</desc><copyright author="OpenStreetMap contributors (via Overture Maps)"><license>https://opendatacommons.org/licenses/odbl/</license></copyright><time>2026-10-03T21:21:05Z</time></metadata>
<wpt lat="47.7622" lon="12.7517"><name>Inzell</name><type>town</type></wpt>
<wpt lat="47.7376" lon="12.6685"><name>Taubensee (Ruhpolding)</name><type>lake</type></wpt>
<wpt lat="47.7621" lon="12.6488"><name>Ruhpolding</name><type>town</type></wpt>
<wpt lat="47.715" lon="12.56"><name>Röthelmoos</name><type>hut</type></wpt>
<wpt lat="47.6826" lon="12.5604"><name>Weitsee</name><type>lake</type></wpt>
<wpt lat="47.6902" lon="12.5855"><name>Mittersee</name><type>lake</type></wpt>
<wpt lat="47.6939" lon="12.5946"><name>Lödensee</name><type>lake</type></wpt>
<wpt lat="47.7258" lon="12.658"><name>Laubau</name><type>hut</type></wpt>
<trk><name>Röthelmoos–Weitsee tóvidék</name><type>gravel</type><trkseg>
<trkpt lat="47.762307" lon="12.751706"><ele>696.0</ele></trkpt>
<trkpt lat="47.762512" lon="12.750263"><ele>693.0</ele></trkpt>
<trkpt lat="47.761811" lon="12.750143"><ele>691.0</ele></trkpt>
<trkpt lat="47.761398" lon="12.748206"><ele>688.0</ele></trkpt>
<trkpt lat="47.761380" lon="12.748178"><ele>688.0</ele></trkpt>
<trkpt lat="47.760503" lon="12.748771"><ele>685.7</ele></trkpt>
<trkpt lat="47.760045" lon="12.748270"><ele>687.0</ele></trkpt>
<trkpt lat="47.758696" lon="12.747478"><ele>687.6</ele></trkpt>
<trkpt lat="47.757849" lon="12.747065"><ele>687.5</ele></trkpt>
<trkpt lat="47.757811" lon="12.746621"><ele>685.9</ele></trkpt>
<trkpt lat="47.757223" lon="12.746742"><ele>690.0</ele></trkpt>
<trkpt lat="47.756768" lon="12.744732"><ele>689.5</ele></trkpt>
<trkpt lat="47.756746" lon="12.744321"><ele>692.3</ele></trkpt>
<trkpt lat="47.756132" lon="12.743962"><ele>700.1</ele></trkpt>
<trkpt lat="47.756317" lon="12.743957"><ele>699.0</ele></trkpt>
<trkpt lat="47.756242" lon="12.743606"><ele>702.5</ele></trkpt>
<trkpt lat="47.755028" lon="12.742475"><ele>700.1</ele></trkpt>
<trkpt lat="47.754577" lon="12.741997"><ele>695.8</ele></trkpt>
<trkpt lat="47.754346" lon="12.742142"><ele>694.3</ele></trkpt>
<trkpt lat="47.753241" lon="12.740842"><ele>696.3</ele></trkpt>
<trkpt lat="47.752048" lon="12.739731"><ele>701.5</ele></trkpt>
<trkpt lat="47.751830" lon="12.739512"><ele>709.2</ele></trkpt>
<trkpt lat="47.752041" lon="12.738257"><ele>715.2</ele></trkpt>
<trkpt lat="47.752587" lon="12.736424"><ele>707.2</ele></trkpt>
<trkpt lat="47.752654" lon="12.736220"><ele>708.2</ele></trkpt>
<trkpt lat="47.752274" lon="12.734799"><ele>736.4</ele></trkpt>
<trkpt lat="47.752396" lon="12.734199"><ele>731.8</ele></trkpt>
<trkpt lat="47.753141" lon="12.733159"><ele>735.9</ele></trkpt>
<trkpt lat="47.753549" lon="12.732948"><ele>733.8</ele></trkpt>
<trkpt lat="47.753787" lon="12.733002"><ele>731.4</ele></trkpt>
<trkpt lat="47.754821" lon="12.734367"><ele>722.5</ele></trkpt>
<trkpt lat="47.754869" lon="12.734408"><ele>722.8</ele></trkpt>
<trkpt lat="47.755048" lon="12.733912"><ele>714.8</ele></trkpt>
<trkpt lat="47.754677" lon="12.732639"><ele>718.9</ele></trkpt>
<trkpt lat="47.754281" lon="12.731876"><ele>724.6</ele></trkpt>
<trkpt lat="47.754194" lon="12.731182"><ele>727.5</ele></trkpt>
<trkpt lat="47.753451" lon="12.729683"><ele>738.0</ele></trkpt>
<trkpt lat="47.753319" lon="12.729117"><ele>729.7</ele></trkpt>
<trkpt lat="47.752349" lon="12.728267"><ele>742.0</ele></trkpt>
<trkpt lat="47.751680" lon="12.728461"><ele>745.9</ele></trkpt>
<trkpt lat="47.751339" lon="12.728883"><ele>741.7</ele></trkpt>
<trkpt lat="47.750572" lon="12.728407"><ele>751.3</ele></trkpt>
<trkpt lat="47.750910" lon="12.727898"><ele>757.8</ele></trkpt>
<trkpt lat="47.750783" lon="12.726455"><ele>768.2</ele></trkpt>
<trkpt lat="47.750189" lon="12.725642"><ele>770.3</ele></trkpt>
<trkpt lat="47.749496" lon="12.725341"><ele>788.1</ele></trkpt>
<trkpt lat="47.749221" lon="12.724685"><ele>799.6</ele></trkpt>
<trkpt lat="47.748957" lon="12.723129"><ele>820.2</ele></trkpt>
<trkpt lat="47.749195" lon="12.722298"><ele>824.0</ele></trkpt>
<trkpt lat="47.749205" lon="12.721681"><ele>828.6</ele></trkpt>
<trkpt lat="47.748985" lon="12.721132"><ele>834.8</ele></trkpt>
<trkpt lat="47.748622" lon="12.722128"><ele>837.1</ele></trkpt>
<trkpt lat="47.748087" lon="12.722426"><ele>848.0</ele></trkpt>
<trkpt lat="47.747666" lon="12.723006"><ele>851.2</ele></trkpt>
<trkpt lat="47.747573" lon="12.722900"><ele>854.3</ele></trkpt>
<trkpt lat="47.747576" lon="12.722234"><ele>859.7</ele></trkpt>
<trkpt lat="47.747352" lon="12.721811"><ele>867.7</ele></trkpt>
<trkpt lat="47.747063" lon="12.720309"><ele>877.1</ele></trkpt>
<trkpt lat="47.747358" lon="12.718280"><ele>884.5</ele></trkpt>
<trkpt lat="47.747397" lon="12.718043"><ele>884.8</ele></trkpt>
<trkpt lat="47.747272" lon="12.716165"><ele>897.6</ele></trkpt>
<trkpt lat="47.746818" lon="12.714247"><ele>906.7</ele></trkpt>
<trkpt lat="47.746726" lon="12.713926"><ele>908.2</ele></trkpt>
<trkpt lat="47.746627" lon="12.711820"><ele>919.1</ele></trkpt>
<trkpt lat="47.746622" lon="12.711610"><ele>918.1</ele></trkpt>
<trkpt lat="47.745986" lon="12.709714"><ele>915.4</ele></trkpt>
<trkpt lat="47.745714" lon="12.709023"><ele>911.7</ele></trkpt>
<trkpt lat="47.745928" lon="12.708357"><ele>907.0</ele></trkpt>
<trkpt lat="47.746746" lon="12.707405"><ele>896.1</ele></trkpt>
<trkpt lat="47.746799" lon="12.706878"><ele>894.2</ele></trkpt>
<trkpt lat="47.745912" lon="12.706422"><ele>906.7</ele></trkpt>
<trkpt lat="47.745207" lon="12.705324"><ele>908.4</ele></trkpt>
<trkpt lat="47.744568" lon="12.705167"><ele>915.0</ele></trkpt>
<trkpt lat="47.744378" lon="12.704719"><ele>918.7</ele></trkpt>
<trkpt lat="47.744466" lon="12.704316"><ele>921.8</ele></trkpt>
<trkpt lat="47.744931" lon="12.703831"><ele>919.1</ele></trkpt>
<trkpt lat="47.744868" lon="12.702464"><ele>939.7</ele></trkpt>
<trkpt lat="47.744965" lon="12.702167"><ele>944.1</ele></trkpt>
<trkpt lat="47.746399" lon="12.701870"><ele>942.5</ele></trkpt>
<trkpt lat="47.746438" lon="12.701860"><ele>942.3</ele></trkpt>
<trkpt lat="47.746557" lon="12.701687"><ele>943.7</ele></trkpt>
<trkpt lat="47.745351" lon="12.700653"><ele>970.0</ele></trkpt>
<trkpt lat="47.745019" lon="12.700307"><ele>973.0</ele></trkpt>
<trkpt lat="47.744300" lon="12.698575"><ele>978.8</ele></trkpt>
<trkpt lat="47.744301" lon="12.698527"><ele>979.0</ele></trkpt>
<trkpt lat="47.744815" lon="12.696502"><ele>963.9</ele></trkpt>
<trkpt lat="47.745181" lon="12.694647"><ele>957.8</ele></trkpt>
<trkpt lat="47.744955" lon="12.692685"><ele>948.8</ele></trkpt>
<trkpt lat="47.744933" lon="12.692309"><ele>944.6</ele></trkpt>
<trkpt lat="47.745466" lon="12.690466"><ele>921.3</ele></trkpt>
<trkpt lat="47.745491" lon="12.690319"><ele>921.9</ele></trkpt>
<trkpt lat="47.745245" lon="12.688344"><ele>920.8</ele></trkpt>
<trkpt lat="47.745347" lon="12.687717"><ele>921.4</ele></trkpt>
<trkpt lat="47.745666" lon="12.687118"><ele>921.8</ele></trkpt>
<trkpt lat="47.746494" lon="12.686604"><ele>914.9</ele></trkpt>
<trkpt lat="47.747050" lon="12.685925"><ele>913.3</ele></trkpt>
<trkpt lat="47.747454" lon="12.684845"><ele>902.1</ele></trkpt>
<trkpt lat="47.747288" lon="12.683527"><ele>895.3</ele></trkpt>
<trkpt lat="47.746734" lon="12.681928"><ele>877.1</ele></trkpt>
<trkpt lat="47.746412" lon="12.680431"><ele>854.1</ele></trkpt>
<trkpt lat="47.745544" lon="12.679778"><ele>846.6</ele></trkpt>
<trkpt lat="47.744977" lon="12.679591"><ele>835.0</ele></trkpt>
<trkpt lat="47.744652" lon="12.678048"><ele>817.4</ele></trkpt>
<trkpt lat="47.743696" lon="12.677058"><ele>819.0</ele></trkpt>
<trkpt lat="47.743504" lon="12.676645"><ele>816.0</ele></trkpt>
<trkpt lat="47.743412" lon="12.676110"><ele>806.2</ele></trkpt>
<trkpt lat="47.743620" lon="12.674623"><ele>783.6</ele></trkpt>
<trkpt lat="47.743181" lon="12.674602"><ele>780.8</ele></trkpt>
<trkpt lat="47.742873" lon="12.674978"><ele>793.5</ele></trkpt>
<trkpt lat="47.742589" lon="12.674749"><ele>788.5</ele></trkpt>
<trkpt lat="47.741936" lon="12.674693"><ele>789.3</ele></trkpt>
<trkpt lat="47.741543" lon="12.673366"><ele>759.5</ele></trkpt>
<trkpt lat="47.740648" lon="12.671768"><ele>729.9</ele></trkpt>
<trkpt lat="47.740035" lon="12.670406"><ele>709.4</ele></trkpt>
<trkpt lat="47.740071" lon="12.669947"><ele>700.6</ele></trkpt>
<trkpt lat="47.740779" lon="12.668224"><ele>690.2</ele></trkpt>
<trkpt lat="47.740771" lon="12.668142"><ele>690.0</ele></trkpt>
<trkpt lat="47.740199" lon="12.667715"><ele>691.8</ele></trkpt>
<trkpt lat="47.739353" lon="12.667990"><ele>695.4</ele></trkpt>
<trkpt lat="47.739000" lon="12.667756"><ele>696.0</ele></trkpt>
<trkpt lat="47.738308" lon="12.668115"><ele>697.6</ele></trkpt>
<trkpt lat="47.737831" lon="12.667937"><ele>693.3</ele></trkpt>
<trkpt lat="47.736993" lon="12.667229"><ele>691.0</ele></trkpt>
<trkpt lat="47.736245" lon="12.666095"><ele>694.5</ele></trkpt>
<trkpt lat="47.736210" lon="12.665608"><ele>695.2</ele></trkpt>
<trkpt lat="47.736440" lon="12.664332"><ele>695.6</ele></trkpt>
<trkpt lat="47.736386" lon="12.663522"><ele>692.6</ele></trkpt>
<trkpt lat="47.736799" lon="12.662501"><ele>700.4</ele></trkpt>
<trkpt lat="47.737072" lon="12.662156"><ele>703.5</ele></trkpt>
<trkpt lat="47.737383" lon="12.662168"><ele>707.8</ele></trkpt>
<trkpt lat="47.737425" lon="12.661046"><ele>689.5</ele></trkpt>
<trkpt lat="47.737771" lon="12.660309"><ele>679.4</ele></trkpt>
<trkpt lat="47.739077" lon="12.659558"><ele>677.6</ele></trkpt>
<trkpt lat="47.739233" lon="12.659477"><ele>678.4</ele></trkpt>
<trkpt lat="47.740619" lon="12.659485"><ele>675.4</ele></trkpt>
<trkpt lat="47.742060" lon="12.659408"><ele>675.6</ele></trkpt>
<trkpt lat="47.742112" lon="12.659403"><ele>675.0</ele></trkpt>
<trkpt lat="47.743586" lon="12.659114"><ele>670.5</ele></trkpt>
<trkpt lat="47.743969" lon="12.659025"><ele>670.8</ele></trkpt>
<trkpt lat="47.743911" lon="12.658351"><ele>670.2</ele></trkpt>
<trkpt lat="47.745360" lon="12.658205"><ele>675.9</ele></trkpt>
<trkpt lat="47.745397" lon="12.658179"><ele>675.7</ele></trkpt>
<trkpt lat="47.745792" lon="12.656795"><ele>672.6</ele></trkpt>
<trkpt lat="47.746352" lon="12.656246"><ele>675.3</ele></trkpt>
<trkpt lat="47.747698" lon="12.656182"><ele>664.2</ele></trkpt>
<trkpt lat="47.748761" lon="12.656214"><ele>664.5</ele></trkpt>
<trkpt lat="47.748821" lon="12.657377"><ele>664.1</ele></trkpt>
<trkpt lat="47.750005" lon="12.657560"><ele>662.0</ele></trkpt>
<trkpt lat="47.750316" lon="12.657227"><ele>662.0</ele></trkpt>
<trkpt lat="47.750381" lon="12.656309"><ele>661.4</ele></trkpt>
<trkpt lat="47.751471" lon="12.656431"><ele>663.0</ele></trkpt>
<trkpt lat="47.752740" lon="12.655717"><ele>663.1</ele></trkpt>
<trkpt lat="47.754014" lon="12.655069"><ele>667.2</ele></trkpt>
<trkpt lat="47.754551" lon="12.654861"><ele>669.6</ele></trkpt>
<trkpt lat="47.755665" lon="12.653585"><ele>668.1</ele></trkpt>
<trkpt lat="47.756787" lon="12.652190"><ele>662.2</ele></trkpt>
<trkpt lat="47.756859" lon="12.652121"><ele>661.7</ele></trkpt>
<trkpt lat="47.758263" lon="12.651617"><ele>657.3</ele></trkpt>
<trkpt lat="47.758597" lon="12.651447"><ele>655.3</ele></trkpt>
<trkpt lat="47.759754" lon="12.650326"><ele>655.0</ele></trkpt>
<trkpt lat="47.759887" lon="12.650267"><ele>655.0</ele></trkpt>
<trkpt lat="47.759836" lon="12.650096"><ele>654.7</ele></trkpt>
<trkpt lat="47.760759" lon="12.649580"><ele>654.6</ele></trkpt>
<trkpt lat="47.761053" lon="12.649018"><ele>654.5</ele></trkpt>
<trkpt lat="47.761408" lon="12.649147"><ele>653.0</ele></trkpt>
<trkpt lat="47.762199" lon="12.648645"><ele>653.9</ele></trkpt>
<trkpt lat="47.762199" lon="12.647168"><ele>658.0</ele></trkpt>
<trkpt lat="47.762439" lon="12.646300"><ele>659.6</ele></trkpt>
<trkpt lat="47.761801" lon="12.646142"><ele>659.8</ele></trkpt>
<trkpt lat="47.760741" lon="12.645049"><ele>666.2</ele></trkpt>
<trkpt lat="47.759763" lon="12.644637"><ele>674.4</ele></trkpt>
<trkpt lat="47.758743" lon="12.643864"><ele>675.0</ele></trkpt>
<trkpt lat="47.757318" lon="12.643538"><ele>676.4</ele></trkpt>
<trkpt lat="47.755855" lon="12.643106"><ele>676.6</ele></trkpt>
<trkpt lat="47.755433" lon="12.642973"><ele>673.1</ele></trkpt>
<trkpt lat="47.754255" lon="12.641990"><ele>677.3</ele></trkpt>
<trkpt lat="47.752989" lon="12.641158"><ele>674.5</ele></trkpt>
<trkpt lat="47.752824" lon="12.641037"><ele>674.2</ele></trkpt>
<trkpt lat="47.752171" lon="12.640352"><ele>669.6</ele></trkpt>
<trkpt lat="47.751777" lon="12.640357"><ele>667.4</ele></trkpt>
<trkpt lat="47.750687" lon="12.638988"><ele>669.5</ele></trkpt>
<trkpt lat="47.750381" lon="12.638499"><ele>669.2</ele></trkpt>
<trkpt lat="47.750226" lon="12.638630"><ele>670.6</ele></trkpt>
<trkpt lat="47.749418" lon="12.638396"><ele>677.8</ele></trkpt>
<trkpt lat="47.749164" lon="12.638015"><ele>682.5</ele></trkpt>
<trkpt lat="47.749016" lon="12.637020"><ele>688.6</ele></trkpt>
<trkpt lat="47.748544" lon="12.636029"><ele>693.8</ele></trkpt>
<trkpt lat="47.748562" lon="12.634542"><ele>701.4</ele></trkpt>
<trkpt lat="47.748865" lon="12.633964"><ele>704.0</ele></trkpt>
<trkpt lat="47.748838" lon="12.632631"><ele>704.1</ele></trkpt>
<trkpt lat="47.747867" lon="12.631209"><ele>714.6</ele></trkpt>
<trkpt lat="47.747267" lon="12.630032"><ele>706.7</ele></trkpt>
<trkpt lat="47.746200" lon="12.628787"><ele>713.8</ele></trkpt>
<trkpt lat="47.746143" lon="12.628730"><ele>713.3</ele></trkpt>
<trkpt lat="47.745622" lon="12.628410"><ele>709.3</ele></trkpt>
<trkpt lat="47.745376" lon="12.627556"><ele>710.2</ele></trkpt>
<trkpt lat="47.744611" lon="12.627519"><ele>714.0</ele></trkpt>
<trkpt lat="47.743898" lon="12.625683"><ele>717.3</ele></trkpt>
<trkpt lat="47.743655" lon="12.624750"><ele>722.0</ele></trkpt>
<trkpt lat="47.742839" lon="12.623001"><ele>720.5</ele></trkpt>
<trkpt lat="47.742641" lon="12.622617"><ele>725.9</ele></trkpt>
<trkpt lat="47.742539" lon="12.621257"><ele>729.8</ele></trkpt>
<trkpt lat="47.741945" lon="12.620042"><ele>734.4</ele></trkpt>
<trkpt lat="47.741640" lon="12.618676"><ele>728.7</ele></trkpt>
<trkpt lat="47.740797" lon="12.616959"><ele>738.2</ele></trkpt>
<trkpt lat="47.740359" lon="12.615985"><ele>753.7</ele></trkpt>
<trkpt lat="47.740210" lon="12.614918"><ele>756.3</ele></trkpt>
<trkpt lat="47.739868" lon="12.614373"><ele>759.3</ele></trkpt>
<trkpt lat="47.739235" lon="12.612491"><ele>736.7</ele></trkpt>
<trkpt lat="47.738936" lon="12.611749"><ele>732.6</ele></trkpt>
<trkpt lat="47.738561" lon="12.611181"><ele>735.0</ele></trkpt>
<trkpt lat="47.738281" lon="12.609223"><ele>738.0</ele></trkpt>
<trkpt lat="47.737938" lon="12.607227"><ele>732.8</ele></trkpt>
<trkpt lat="47.737730" lon="12.605644"><ele>725.4</ele></trkpt>
<trkpt lat="47.737116" lon="12.605472"><ele>738.3</ele></trkpt>
<trkpt lat="47.736349" lon="12.603824"><ele>730.8</ele></trkpt>
<trkpt lat="47.736205" lon="12.603604"><ele>735.1</ele></trkpt>
<trkpt lat="47.734982" lon="12.603454"><ele>744.8</ele></trkpt>
<trkpt lat="47.733890" lon="12.602092"><ele>774.9</ele></trkpt>
<trkpt lat="47.733584" lon="12.601641"><ele>795.6</ele></trkpt>
<trkpt lat="47.733512" lon="12.600948"><ele>784.3</ele></trkpt>
<trkpt lat="47.733289" lon="12.600480"><ele>787.8</ele></trkpt>
<trkpt lat="47.733512" lon="12.600948"><ele>784.3</ele></trkpt>
<trkpt lat="47.733671" lon="12.601918"><ele>788.7</ele></trkpt>
<trkpt lat="47.734274" lon="12.602385"><ele>769.9</ele></trkpt>
<trkpt lat="47.734982" lon="12.603454"><ele>744.8</ele></trkpt>
<trkpt lat="47.736205" lon="12.603604"><ele>735.1</ele></trkpt>
<trkpt lat="47.737019" lon="12.605240"><ele>739.3</ele></trkpt>
<trkpt lat="47.737116" lon="12.605472"><ele>738.3</ele></trkpt>
<trkpt lat="47.737702" lon="12.605605"><ele>725.3</ele></trkpt>
<trkpt lat="47.737801" lon="12.606143"><ele>725.4</ele></trkpt>
<trkpt lat="47.738843" lon="12.604674"><ele>716.1</ele></trkpt>
<trkpt lat="47.738988" lon="12.604472"><ele>718.5</ele></trkpt>
<trkpt lat="47.739045" lon="12.604770"><ele>716.2</ele></trkpt>
<trkpt lat="47.739193" lon="12.604589"><ele>718.6</ele></trkpt>
<trkpt lat="47.738924" lon="12.603088"><ele>719.2</ele></trkpt>
<trkpt lat="47.738510" lon="12.602716"><ele>719.6</ele></trkpt>
<trkpt lat="47.738354" lon="12.602167"><ele>722.3</ele></trkpt>
<trkpt lat="47.737083" lon="12.602519"><ele>728.6</ele></trkpt>
<trkpt lat="47.736733" lon="12.602320"><ele>735.5</ele></trkpt>
<trkpt lat="47.736151" lon="12.601212"><ele>736.1</ele></trkpt>
<trkpt lat="47.735089" lon="12.600631"><ele>738.9</ele></trkpt>
<trkpt lat="47.734446" lon="12.598857"><ele>735.8</ele></trkpt>
<trkpt lat="47.733284" lon="12.597703"><ele>735.0</ele></trkpt>
<trkpt lat="47.733245" lon="12.597646"><ele>735.7</ele></trkpt>
<trkpt lat="47.733107" lon="12.596915"><ele>732.0</ele></trkpt>
<trkpt lat="47.733160" lon="12.594733"><ele>740.6</ele></trkpt>
<trkpt lat="47.733164" lon="12.594351"><ele>742.9</ele></trkpt>
<trkpt lat="47.732734" lon="12.592788"><ele>761.6</ele></trkpt>
<trkpt lat="47.732018" lon="12.591732"><ele>759.2</ele></trkpt>
<trkpt lat="47.731857" lon="12.590400"><ele>764.1</ele></trkpt>
<trkpt lat="47.731079" lon="12.588622"><ele>760.7</ele></trkpt>
<trkpt lat="47.730900" lon="12.587890"><ele>759.0</ele></trkpt>
<trkpt lat="47.729755" lon="12.586638"><ele>757.9</ele></trkpt>
<trkpt lat="47.729129" lon="12.585821"><ele>753.3</ele></trkpt>
<trkpt lat="47.728271" lon="12.584014"><ele>755.7</ele></trkpt>
<trkpt lat="47.727993" lon="12.583261"><ele>764.3</ele></trkpt>
<trkpt lat="47.727923" lon="12.582731"><ele>760.8</ele></trkpt>
<trkpt lat="47.728282" lon="12.581464"><ele>765.8</ele></trkpt>
<trkpt lat="47.728083" lon="12.580256"><ele>765.6</ele></trkpt>
<trkpt lat="47.727556" lon="12.579372"><ele>761.5</ele></trkpt>
<trkpt lat="47.727241" lon="12.578292"><ele>772.4</ele></trkpt>
<trkpt lat="47.726078" lon="12.576987"><ele>771.9</ele></trkpt>
<trkpt lat="47.725684" lon="12.576520"><ele>772.2</ele></trkpt>
<trkpt lat="47.725023" lon="12.575420"><ele>771.5</ele></trkpt>
<trkpt lat="47.724350" lon="12.573651"><ele>775.5</ele></trkpt>
<trkpt lat="47.724304" lon="12.573555"><ele>775.5</ele></trkpt>
<trkpt lat="47.723131" lon="12.573043"><ele>779.3</ele></trkpt>
<trkpt lat="47.722181" lon="12.572056"><ele>786.8</ele></trkpt>
<trkpt lat="47.721867" lon="12.570267"><ele>800.8</ele></trkpt>
<trkpt lat="47.720929" lon="12.568485"><ele>803.1</ele></trkpt>
<trkpt lat="47.720776" lon="12.568137"><ele>805.4</ele></trkpt>
<trkpt lat="47.720768" lon="12.566742"><ele>808.7</ele></trkpt>
<trkpt lat="47.720193" lon="12.564666"><ele>821.9</ele></trkpt>
<trkpt lat="47.720167" lon="12.564593"><ele>822.3</ele></trkpt>
<trkpt lat="47.719936" lon="12.562705"><ele>840.2</ele></trkpt>
<trkpt lat="47.719377" lon="12.561160"><ele>847.3</ele></trkpt>
<trkpt lat="47.719227" lon="12.559251"><ele>863.5</ele></trkpt>
<trkpt lat="47.719516" lon="12.557491"><ele>866.9</ele></trkpt>
<trkpt lat="47.719603" lon="12.555323"><ele>880.8</ele></trkpt>
<trkpt lat="47.719647" lon="12.553404"><ele>891.8</ele></trkpt>
<trkpt lat="47.719817" lon="12.552205"><ele>880.6</ele></trkpt>
<trkpt lat="47.719394" lon="12.551958"><ele>883.9</ele></trkpt>
<trkpt lat="47.718488" lon="12.551960"><ele>889.8</ele></trkpt>
<trkpt lat="47.717142" lon="12.552597"><ele>883.1</ele></trkpt>
<trkpt lat="47.716073" lon="12.553132"><ele>880.6</ele></trkpt>
<trkpt lat="47.714870" lon="12.553364"><ele>872.8</ele></trkpt>
<trkpt lat="47.714703" lon="12.554253"><ele>868.9</ele></trkpt>
<trkpt lat="47.714821" lon="12.555217"><ele>880.2</ele></trkpt>
<trkpt lat="47.714551" lon="12.557219"><ele>876.2</ele></trkpt>
<trkpt lat="47.714438" lon="12.557908"><ele>875.5</ele></trkpt>
<trkpt lat="47.714454" lon="12.558993"><ele>867.3</ele></trkpt>
<trkpt lat="47.714223" lon="12.559679"><ele>876.0</ele></trkpt>
<trkpt lat="47.714458" lon="12.559977"><ele>877.1</ele></trkpt>
<trkpt lat="47.714588" lon="12.560570"><ele>881.1</ele></trkpt>
<trkpt lat="47.714458" lon="12.559977"><ele>877.1</ele></trkpt>
<trkpt lat="47.714223" lon="12.559678"><ele>876.0</ele></trkpt>
<trkpt lat="47.714454" lon="12.558993"><ele>867.3</ele></trkpt>
<trkpt lat="47.714438" lon="12.557908"><ele>875.5</ele></trkpt>
<trkpt lat="47.714756" lon="12.555919"><ele>879.1</ele></trkpt>
<trkpt lat="47.714821" lon="12.555217"><ele>880.2</ele></trkpt>
<trkpt lat="47.714703" lon="12.554253"><ele>868.9</ele></trkpt>
<trkpt lat="47.714870" lon="12.553364"><ele>872.8</ele></trkpt>
<trkpt lat="47.713536" lon="12.553648"><ele>877.7</ele></trkpt>
<trkpt lat="47.713364" lon="12.553641"><ele>877.8</ele></trkpt>
<trkpt lat="47.711947" lon="12.553390"><ele>871.8</ele></trkpt>
<trkpt lat="47.710517" lon="12.553256"><ele>870.5</ele></trkpt>
<trkpt lat="47.709030" lon="12.553110"><ele>881.0</ele></trkpt>
<trkpt lat="47.707576" lon="12.553004"><ele>878.5</ele></trkpt>
<trkpt lat="47.706380" lon="12.552801"><ele>885.6</ele></trkpt>
<trkpt lat="47.704899" lon="12.553253"><ele>886.0</ele></trkpt>
<trkpt lat="47.704450" lon="12.553482"><ele>888.9</ele></trkpt>
<trkpt lat="47.703607" lon="12.554872"><ele>889.1</ele></trkpt>
<trkpt lat="47.702813" lon="12.554849"><ele>891.9</ele></trkpt>
<trkpt lat="47.701475" lon="12.555822"><ele>887.5</ele></trkpt>
<trkpt lat="47.700965" lon="12.556220"><ele>883.3</ele></trkpt>
<trkpt lat="47.700008" lon="12.557248"><ele>875.6</ele></trkpt>
<trkpt lat="47.699792" lon="12.558753"><ele>864.1</ele></trkpt>
<trkpt lat="47.699530" lon="12.559511"><ele>857.8</ele></trkpt>
<trkpt lat="47.699014" lon="12.560028"><ele>857.1</ele></trkpt>
<trkpt lat="47.698880" lon="12.560912"><ele>847.7</ele></trkpt>
<trkpt lat="47.698019" lon="12.561689"><ele>847.2</ele></trkpt>
<trkpt lat="47.697800" lon="12.562161"><ele>848.0</ele></trkpt>
<trkpt lat="47.696421" lon="12.562769"><ele>851.7</ele></trkpt>
<trkpt lat="47.695554" lon="12.563496"><ele>844.9</ele></trkpt>
<trkpt lat="47.694947" lon="12.563552"><ele>828.0</ele></trkpt>
<trkpt lat="47.694049" lon="12.562636"><ele>830.7</ele></trkpt>
<trkpt lat="47.693300" lon="12.562582"><ele>833.0</ele></trkpt>
<trkpt lat="47.691993" lon="12.563092"><ele>824.1</ele></trkpt>
<trkpt lat="47.691252" lon="12.563310"><ele>809.8</ele></trkpt>
<trkpt lat="47.690536" lon="12.563163"><ele>805.0</ele></trkpt>
<trkpt lat="47.690009" lon="12.562739"><ele>803.2</ele></trkpt>
<trkpt lat="47.689392" lon="12.563234"><ele>805.6</ele></trkpt>
<trkpt lat="47.688060" lon="12.563505"><ele>797.2</ele></trkpt>
<trkpt lat="47.687696" lon="12.563298"><ele>792.5</ele></trkpt>
<trkpt lat="47.687428" lon="12.562828"><ele>786.5</ele></trkpt>
<trkpt lat="47.687000" lon="12.562841"><ele>783.2</ele></trkpt>
<trkpt lat="47.686496" lon="12.561730"><ele>772.9</ele></trkpt>
<trkpt lat="47.686003" lon="12.561145"><ele>765.5</ele></trkpt>
<trkpt lat="47.686056" lon="12.562733"><ele>766.7</ele></trkpt>
<trkpt lat="47.686277" lon="12.564842"><ele>772.0</ele></trkpt>
<trkpt lat="47.686503" lon="12.566274"><ele>772.3</ele></trkpt>
<trkpt lat="47.687089" lon="12.568228"><ele>772.9</ele></trkpt>
<trkpt lat="47.687584" lon="12.569990"><ele>777.3</ele></trkpt>
<trkpt lat="47.687963" lon="12.572100"><ele>771.2</ele></trkpt>
<trkpt lat="47.687618" lon="12.572413"><ele>758.5</ele></trkpt>
<trkpt lat="47.686132" lon="12.572225"><ele>757.8</ele></trkpt>
<trkpt lat="47.685584" lon="12.572128"><ele>760.3</ele></trkpt>
<trkpt lat="47.684436" lon="12.572830"><ele>769.2</ele></trkpt>
<trkpt lat="47.683634" lon="12.574021"><ele>776.4</ele></trkpt>
<trkpt lat="47.683230" lon="12.575462"><ele>784.6</ele></trkpt>
<trkpt lat="47.682554" lon="12.573722"><ele>787.9</ele></trkpt>
<trkpt lat="47.681898" lon="12.571843"><ele>787.5</ele></trkpt>
<trkpt lat="47.681526" lon="12.570903"><ele>788.2</ele></trkpt>
<trkpt lat="47.681257" lon="12.568708"><ele>774.5</ele></trkpt>
<trkpt lat="47.681725" lon="12.566955"><ele>767.8</ele></trkpt>
<trkpt lat="47.681569" lon="12.566384"><ele>766.4</ele></trkpt>
<trkpt lat="47.680781" lon="12.565964"><ele>771.0</ele></trkpt>
<trkpt lat="47.680059" lon="12.564256"><ele>778.8</ele></trkpt>
<trkpt lat="47.680058" lon="12.564251"><ele>778.8</ele></trkpt>
<trkpt lat="47.680391" lon="12.563449"><ele>768.8</ele></trkpt>
<trkpt lat="47.680416" lon="12.562949"><ele>768.8</ele></trkpt>
<trkpt lat="47.679833" lon="12.562090"><ele>780.6</ele></trkpt>
<trkpt lat="47.679850" lon="12.561332"><ele>770.9</ele></trkpt>
<trkpt lat="47.679596" lon="12.560607"><ele>782.5</ele></trkpt>
<trkpt lat="47.679550" lon="12.559085"><ele>785.7</ele></trkpt>
<trkpt lat="47.679933" lon="12.558740"><ele>780.1</ele></trkpt>
<trkpt lat="47.680257" lon="12.558873"><ele>766.2</ele></trkpt>
<trkpt lat="47.680524" lon="12.558249"><ele>774.2</ele></trkpt>
<trkpt lat="47.681945" lon="12.557518"><ele>786.6</ele></trkpt>
<trkpt lat="47.682085" lon="12.557426"><ele>784.4</ele></trkpt>
<trkpt lat="47.682651" lon="12.557543"><ele>763.2</ele></trkpt>
<trkpt lat="47.682738" lon="12.556868"><ele>777.9</ele></trkpt>
<trkpt lat="47.683107" lon="12.556142"><ele>779.9</ele></trkpt>
<trkpt lat="47.682738" lon="12.556868"><ele>777.9</ele></trkpt>
<trkpt lat="47.682651" lon="12.557543"><ele>763.2</ele></trkpt>
<trkpt lat="47.682085" lon="12.557426"><ele>784.4</ele></trkpt>
<trkpt lat="47.680728" lon="12.558204"><ele>773.8</ele></trkpt>
<trkpt lat="47.680524" lon="12.558249"><ele>774.2</ele></trkpt>
<trkpt lat="47.680257" lon="12.558873"><ele>766.2</ele></trkpt>
<trkpt lat="47.679933" lon="12.558740"><ele>780.1</ele></trkpt>
<trkpt lat="47.679550" lon="12.559085"><ele>785.7</ele></trkpt>
<trkpt lat="47.679596" lon="12.560607"><ele>782.5</ele></trkpt>
<trkpt lat="47.679850" lon="12.561332"><ele>770.9</ele></trkpt>
<trkpt lat="47.679833" lon="12.562090"><ele>780.6</ele></trkpt>
<trkpt lat="47.680416" lon="12.562949"><ele>768.8</ele></trkpt>
<trkpt lat="47.680391" lon="12.563449"><ele>768.8</ele></trkpt>
<trkpt lat="47.680058" lon="12.564251"><ele>778.8</ele></trkpt>
<trkpt lat="47.680781" lon="12.565964"><ele>771.0</ele></trkpt>
<trkpt lat="47.681191" lon="12.566089"><ele>767.2</ele></trkpt>
<trkpt lat="47.680972" lon="12.566836"><ele>774.5</ele></trkpt>
<trkpt lat="47.680441" lon="12.566967"><ele>785.9</ele></trkpt>
<trkpt lat="47.680956" lon="12.568882"><ele>784.5</ele></trkpt>
<trkpt lat="47.681418" lon="12.570721"><ele>788.6</ele></trkpt>
<trkpt lat="47.682133" lon="12.572564"><ele>785.0</ele></trkpt>
<trkpt lat="47.682774" lon="12.574326"><ele>787.0</ele></trkpt>
<trkpt lat="47.683120" lon="12.575245"><ele>784.4</ele></trkpt>
<trkpt lat="47.683933" lon="12.576857"><ele>786.9</ele></trkpt>
<trkpt lat="47.684705" lon="12.578650"><ele>778.9</ele></trkpt>
<trkpt lat="47.685211" lon="12.579881"><ele>775.6</ele></trkpt>
<trkpt lat="47.685857" lon="12.581832"><ele>770.9</ele></trkpt>
<trkpt lat="47.686468" lon="12.583694"><ele>771.9</ele></trkpt>
<trkpt lat="47.686649" lon="12.584284"><ele>766.5</ele></trkpt>
<trkpt lat="47.687105" lon="12.584095"><ele>759.2</ele></trkpt>
<trkpt lat="47.687275" lon="12.584845"><ele>759.3</ele></trkpt>
<trkpt lat="47.687589" lon="12.584842"><ele>756.2</ele></trkpt>
<trkpt lat="47.688288" lon="12.584083"><ele>755.1</ele></trkpt>
<trkpt lat="47.689044" lon="12.583627"><ele>754.0</ele></trkpt>
<trkpt lat="47.688288" lon="12.584083"><ele>755.1</ele></trkpt>
<trkpt lat="47.687589" lon="12.584842"><ele>756.2</ele></trkpt>
<trkpt lat="47.688028" lon="12.586764"><ele>761.2</ele></trkpt>
<trkpt lat="47.688152" lon="12.587987"><ele>763.2</ele></trkpt>
<trkpt lat="47.689241" lon="12.589282"><ele>758.2</ele></trkpt>
<trkpt lat="47.689412" lon="12.589446"><ele>760.1</ele></trkpt>
<trkpt lat="47.690758" lon="12.589920"><ele>759.6</ele></trkpt>
<trkpt lat="47.690909" lon="12.590037"><ele>759.8</ele></trkpt>
<trkpt lat="47.692024" lon="12.591491"><ele>764.8</ele></trkpt>
<trkpt lat="47.692227" lon="12.591767"><ele>762.5</ele></trkpt>
<trkpt lat="47.692574" lon="12.591996"><ele>762.0</ele></trkpt>
<trkpt lat="47.692831" lon="12.592691"><ele>765.0</ele></trkpt>
<trkpt lat="47.693063" lon="12.594822"><ele>760.9</ele></trkpt>
<trkpt lat="47.693181" lon="12.595746"><ele>761.4</ele></trkpt>
<trkpt lat="47.692672" lon="12.597547"><ele>762.3</ele></trkpt>
<trkpt lat="47.692004" lon="12.598596"><ele>771.7</ele></trkpt>
<trkpt lat="47.692107" lon="12.599347"><ele>765.6</ele></trkpt>
<trkpt lat="47.692757" lon="12.600499"><ele>762.6</ele></trkpt>
<trkpt lat="47.692275" lon="12.601159"><ele>767.6</ele></trkpt>
<trkpt lat="47.692187" lon="12.602153"><ele>774.4</ele></trkpt>
<trkpt lat="47.692626" lon="12.602729"><ele>777.3</ele></trkpt>
<trkpt lat="47.693330" lon="12.603084"><ele>775.4</ele></trkpt>
<trkpt lat="47.693522" lon="12.603398"><ele>780.5</ele></trkpt>
<trkpt lat="47.694159" lon="12.602849"><ele>777.5</ele></trkpt>
<trkpt lat="47.695351" lon="12.604046"><ele>789.7</ele></trkpt>
<trkpt lat="47.695674" lon="12.604416"><ele>791.4</ele></trkpt>
<trkpt lat="47.696121" lon="12.604209"><ele>787.1</ele></trkpt>
<trkpt lat="47.696411" lon="12.604460"><ele>786.9</ele></trkpt>
<trkpt lat="47.697099" lon="12.604399"><ele>784.0</ele></trkpt>
<trkpt lat="47.697706" lon="12.605078"><ele>780.7</ele></trkpt>
<trkpt lat="47.698313" lon="12.606133"><ele>784.1</ele></trkpt>
<trkpt lat="47.698110" lon="12.604513"><ele>778.0</ele></trkpt>
<trkpt lat="47.697524" lon="12.602648"><ele>781.1</ele></trkpt>
<trkpt lat="47.697401" lon="12.602391"><ele>780.0</ele></trkpt>
<trkpt lat="47.697599" lon="12.601457"><ele>787.0</ele></trkpt>
<trkpt lat="47.697053" lon="12.600017"><ele>784.1</ele></trkpt>
<trkpt lat="47.696571" lon="12.599579"><ele>781.0</ele></trkpt>
<trkpt lat="47.696028" lon="12.598701"><ele>776.3</ele></trkpt>
<trkpt lat="47.695767" lon="12.597278"><ele>776.2</ele></trkpt>
<trkpt lat="47.695744" lon="12.595173"><ele>770.2</ele></trkpt>
<trkpt lat="47.695180" lon="12.593512"><ele>767.5</ele></trkpt>
<trkpt lat="47.694464" lon="12.592129"><ele>779.0</ele></trkpt>
<trkpt lat="47.694053" lon="12.590210"><ele>782.7</ele></trkpt>
<trkpt lat="47.693943" lon="12.589985"><ele>778.0</ele></trkpt>
<trkpt lat="47.693775" lon="12.589718"><ele>776.0</ele></trkpt>
<trkpt lat="47.694191" lon="12.590620"><ele>785.0</ele></trkpt>
<trkpt lat="47.694464" lon="12.592129"><ele>779.0</ele></trkpt>
<trkpt lat="47.695180" lon="12.593512"><ele>767.5</ele></trkpt>
<trkpt lat="47.695744" lon="12.595173"><ele>770.2</ele></trkpt>
<trkpt lat="47.695767" lon="12.597278"><ele>776.2</ele></trkpt>
<trkpt lat="47.696028" lon="12.598701"><ele>776.3</ele></trkpt>
<trkpt lat="47.696571" lon="12.599579"><ele>781.0</ele></trkpt>
<trkpt lat="47.696984" lon="12.599901"><ele>782.7</ele></trkpt>
<trkpt lat="47.697272" lon="12.600534"><ele>785.2</ele></trkpt>
<trkpt lat="47.697954" lon="12.602408"><ele>785.8</ele></trkpt>
<trkpt lat="47.698102" lon="12.602882"><ele>785.8</ele></trkpt>
<trkpt lat="47.698513" lon="12.604548"><ele>781.7</ele></trkpt>
<trkpt lat="47.698956" lon="12.606580"><ele>785.5</ele></trkpt>
<trkpt lat="47.699147" lon="12.607469"><ele>785.1</ele></trkpt>
<trkpt lat="47.699138" lon="12.607738"><ele>781.7</ele></trkpt>
<trkpt lat="47.698932" lon="12.607904"><ele>782.1</ele></trkpt>
<trkpt lat="47.699301" lon="12.609419"><ele>778.9</ele></trkpt>
<trkpt lat="47.699299" lon="12.611496"><ele>781.9</ele></trkpt>
<trkpt lat="47.699292" lon="12.612787"><ele>783.2</ele></trkpt>
<trkpt lat="47.699710" lon="12.614564"><ele>772.0</ele></trkpt>
<trkpt lat="47.700350" lon="12.615603"><ele>770.9</ele></trkpt>
<trkpt lat="47.700850" lon="12.616054"><ele>773.1</ele></trkpt>
<trkpt lat="47.701816" lon="12.615744"><ele>756.5</ele></trkpt>
<trkpt lat="47.703014" lon="12.616903"><ele>747.0</ele></trkpt>
<trkpt lat="47.703688" lon="12.617417"><ele>754.7</ele></trkpt>
<trkpt lat="47.705017" lon="12.617906"><ele>757.5</ele></trkpt>
<trkpt lat="47.706361" lon="12.618232"><ele>738.7</ele></trkpt>
<trkpt lat="47.707636" lon="12.618663"><ele>759.4</ele></trkpt>
<trkpt lat="47.708721" lon="12.619924"><ele>756.6</ele></trkpt>
<trkpt lat="47.709823" lon="12.621242"><ele>748.3</ele></trkpt>
<trkpt lat="47.710523" lon="12.622053"><ele>745.4</ele></trkpt>
<trkpt lat="47.710884" lon="12.622798"><ele>745.8</ele></trkpt>
<trkpt lat="47.711259" lon="12.622744"><ele>744.7</ele></trkpt>
<trkpt lat="47.711856" lon="12.624276"><ele>748.1</ele></trkpt>
<trkpt lat="47.711904" lon="12.625108"><ele>744.2</ele></trkpt>
<trkpt lat="47.712326" lon="12.626032"><ele>747.7</ele></trkpt>
<trkpt lat="47.713409" lon="12.627227"><ele>745.5</ele></trkpt>
<trkpt lat="47.713958" lon="12.627793"><ele>745.5</ele></trkpt>
<trkpt lat="47.714224" lon="12.628774"><ele>742.0</ele></trkpt>
<trkpt lat="47.714165" lon="12.630868"><ele>728.9</ele></trkpt>
<trkpt lat="47.714166" lon="12.631544"><ele>726.4</ele></trkpt>
<trkpt lat="47.714272" lon="12.632249"><ele>724.4</ele></trkpt>
<trkpt lat="47.715021" lon="12.633980"><ele>726.1</ele></trkpt>
<trkpt lat="47.715049" lon="12.634040"><ele>726.2</ele></trkpt>
<trkpt lat="47.715278" lon="12.633636"><ele>727.9</ele></trkpt>
<trkpt lat="47.716220" lon="12.635051"><ele>726.8</ele></trkpt>
<trkpt lat="47.716204" lon="12.636561"><ele>726.2</ele></trkpt>
<trkpt lat="47.716450" lon="12.637367"><ele>719.7</ele></trkpt>
<trkpt lat="47.716438" lon="12.638429"><ele>713.5</ele></trkpt>
<trkpt lat="47.717002" lon="12.639213"><ele>715.2</ele></trkpt>
<trkpt lat="47.717556" lon="12.640548"><ele>712.1</ele></trkpt>
<trkpt lat="47.718074" lon="12.642555"><ele>714.3</ele></trkpt>
<trkpt lat="47.718233" lon="12.643461"><ele>711.2</ele></trkpt>
<trkpt lat="47.718858" lon="12.645392"><ele>710.2</ele></trkpt>
<trkpt lat="47.718928" lon="12.645628"><ele>709.7</ele></trkpt>
<trkpt lat="47.719338" lon="12.647528"><ele>708.6</ele></trkpt>
<trkpt lat="47.719628" lon="12.648822"><ele>707.4</ele></trkpt>
<trkpt lat="47.720216" lon="12.650765"><ele>703.2</ele></trkpt>
<trkpt lat="47.720785" lon="12.652587"><ele>708.1</ele></trkpt>
<trkpt lat="47.721257" lon="12.653999"><ele>704.0</ele></trkpt>
<trkpt lat="47.722064" lon="12.654596"><ele>698.5</ele></trkpt>
<trkpt lat="47.723152" lon="12.656168"><ele>700.9</ele></trkpt>
<trkpt lat="47.723415" lon="12.656432"><ele>700.7</ele></trkpt>
<trkpt lat="47.724791" lon="12.657411"><ele>698.5</ele></trkpt>
<trkpt lat="47.725071" lon="12.657606"><ele>695.7</ele></trkpt>
<trkpt lat="47.725357" lon="12.658019"><ele>694.7</ele></trkpt>
<trkpt lat="47.725462" lon="12.658081"><ele>694.4</ele></trkpt>
<trkpt lat="47.725649" lon="12.657688"><ele>694.0</ele></trkpt>
<trkpt lat="47.725969" lon="12.657778"><ele>694.0</ele></trkpt>
<trkpt lat="47.726024" lon="12.658024"><ele>694.0</ele></trkpt>
<trkpt lat="47.725969" lon="12.657778"><ele>694.0</ele></trkpt>
<trkpt lat="47.725649" lon="12.657688"><ele>694.0</ele></trkpt>
<trkpt lat="47.725461" lon="12.658081"><ele>694.4</ele></trkpt>
<trkpt lat="47.725571" lon="12.658348"><ele>695.1</ele></trkpt>
<trkpt lat="47.726070" lon="12.658320"><ele>695.0</ele></trkpt>
<trkpt lat="47.726734" lon="12.658629"><ele>697.7</ele></trkpt>
<trkpt lat="47.727750" lon="12.660151"><ele>702.9</ele></trkpt>
<trkpt lat="47.727849" lon="12.660257"><ele>703.5</ele></trkpt>
<trkpt lat="47.729181" lon="12.660946"><ele>703.7</ele></trkpt>
<trkpt lat="47.730186" lon="12.661566"><ele>695.6</ele></trkpt>
<trkpt lat="47.731267" lon="12.662832"><ele>692.5</ele></trkpt>
<trkpt lat="47.731576" lon="12.663272"><ele>692.3</ele></trkpt>
<trkpt lat="47.731395" lon="12.663728"><ele>693.0</ele></trkpt>
<trkpt lat="47.731524" lon="12.663811"><ele>692.0</ele></trkpt>
<trkpt lat="47.732664" lon="12.663395"><ele>692.2</ele></trkpt>
<trkpt lat="47.733823" lon="12.662135"><ele>686.4</ele></trkpt>
<trkpt lat="47.734873" lon="12.661073"><ele>680.5</ele></trkpt>
<trkpt lat="47.735456" lon="12.660842"><ele>681.9</ele></trkpt>
<trkpt lat="47.736230" lon="12.660884"><ele>678.1</ele></trkpt>
<trkpt lat="47.737453" lon="12.659952"><ele>687.2</ele></trkpt>
<trkpt lat="47.738796" lon="12.659171"><ele>673.4</ele></trkpt>
<trkpt lat="47.739328" lon="12.658857"><ele>677.0</ele></trkpt>
<trkpt lat="47.739618" lon="12.659062"><ele>676.5</ele></trkpt>
<trkpt lat="47.740969" lon="12.658996"><ele>675.2</ele></trkpt>
<trkpt lat="47.742392" lon="12.658791"><ele>673.7</ele></trkpt>
<trkpt lat="47.743823" lon="12.658560"><ele>668.9</ele></trkpt>
<trkpt lat="47.743931" lon="12.658543"><ele>669.7</ele></trkpt>
<trkpt lat="47.744188" lon="12.660767"><ele>666.1</ele></trkpt>
<trkpt lat="47.744319" lon="12.662149"><ele>668.9</ele></trkpt>
<trkpt lat="47.744573" lon="12.662788"><ele>669.0</ele></trkpt>
<trkpt lat="47.745815" lon="12.663045"><ele>668.0</ele></trkpt>
<trkpt lat="47.747068" lon="12.663743"><ele>664.2</ele></trkpt>
<trkpt lat="47.747491" lon="12.663965"><ele>663.1</ele></trkpt>
<trkpt lat="47.748391" lon="12.664052"><ele>663.7</ele></trkpt>
<trkpt lat="47.748582" lon="12.664788"><ele>662.9</ele></trkpt>
<trkpt lat="47.748477" lon="12.665271"><ele>663.0</ele></trkpt>
<trkpt lat="47.749412" lon="12.665792"><ele>664.7</ele></trkpt>
<trkpt lat="47.750377" lon="12.665792"><ele>663.5</ele></trkpt>
<trkpt lat="47.750638" lon="12.667929"><ele>665.8</ele></trkpt>
<trkpt lat="47.751454" lon="12.669697"><ele>671.7</ele></trkpt>
<trkpt lat="47.751700" lon="12.670323"><ele>672.0</ele></trkpt>
<trkpt lat="47.751997" lon="12.670680"><ele>673.6</ele></trkpt>
<trkpt lat="47.751922" lon="12.670909"><ele>673.8</ele></trkpt>
<trkpt lat="47.752397" lon="12.671270"><ele>674.8</ele></trkpt>
<trkpt lat="47.752985" lon="12.672950"><ele>680.0</ele></trkpt>
<trkpt lat="47.753334" lon="12.672649"><ele>681.1</ele></trkpt>
<trkpt lat="47.753699" lon="12.673879"><ele>688.3</ele></trkpt>
<trkpt lat="47.754645" lon="12.675424"><ele>693.1</ele></trkpt>
<trkpt lat="47.754962" lon="12.676174"><ele>698.5</ele></trkpt>
<trkpt lat="47.755428" lon="12.676552"><ele>694.3</ele></trkpt>
<trkpt lat="47.755804" lon="12.678574"><ele>708.4</ele></trkpt>
<trkpt lat="47.755788" lon="12.679828"><ele>718.1</ele></trkpt>
<trkpt lat="47.756534" lon="12.680841"><ele>722.5</ele></trkpt>
<trkpt lat="47.756938" lon="12.682907"><ele>724.2</ele></trkpt>
<trkpt lat="47.756774" lon="12.685034"><ele>737.8</ele></trkpt>
<trkpt lat="47.756724" lon="12.685669"><ele>741.5</ele></trkpt>
<trkpt lat="47.756446" lon="12.686375"><ele>746.1</ele></trkpt>
<trkpt lat="47.756538" lon="12.687022"><ele>747.9</ele></trkpt>
<trkpt lat="47.756849" lon="12.687318"><ele>751.9</ele></trkpt>
<trkpt lat="47.757228" lon="12.687193"><ele>755.0</ele></trkpt>
<trkpt lat="47.758376" lon="12.686058"><ele>749.2</ele></trkpt>
<trkpt lat="47.758724" lon="12.685867"><ele>749.7</ele></trkpt>
<trkpt lat="47.759658" lon="12.685878"><ele>758.1</ele></trkpt>
<trkpt lat="47.760260" lon="12.686471"><ele>767.0</ele></trkpt>
<trkpt lat="47.761173" lon="12.686346"><ele>770.9</ele></trkpt>
<trkpt lat="47.761567" lon="12.686805"><ele>771.4</ele></trkpt>
<trkpt lat="47.762115" lon="12.688148"><ele>766.5</ele></trkpt>
<trkpt lat="47.762837" lon="12.689014"><ele>777.5</ele></trkpt>
<trkpt lat="47.762910" lon="12.689564"><ele>778.1</ele></trkpt>
<trkpt lat="47.762482" lon="12.690585"><ele>786.1</ele></trkpt>
<trkpt lat="47.762455" lon="12.691189"><ele>785.4</ele></trkpt>
<trkpt lat="47.763082" lon="12.691927"><ele>789.8</ele></trkpt>
<trkpt lat="47.763360" lon="12.693125"><ele>794.2</ele></trkpt>
<trkpt lat="47.764046" lon="12.693912"><ele>808.6</ele></trkpt>
<trkpt lat="47.763815" lon="12.694174"><ele>808.2</ele></trkpt>
<trkpt lat="47.763754" lon="12.695227"><ele>812.8</ele></trkpt>
<trkpt lat="47.763456" lon="12.696309"><ele>808.3</ele></trkpt>
<trkpt lat="47.762828" lon="12.697754"><ele>810.3</ele></trkpt>
<trkpt lat="47.762721" lon="12.699912"><ele>805.2</ele></trkpt>
<trkpt lat="47.762758" lon="12.701159"><ele>816.4</ele></trkpt>
<trkpt lat="47.762473" lon="12.703186"><ele>817.9</ele></trkpt>
<trkpt lat="47.762401" lon="12.703523"><ele>818.0</ele></trkpt>
<trkpt lat="47.761784" lon="12.705324"><ele>805.6</ele></trkpt>
<trkpt lat="47.761299" lon="12.706640"><ele>795.7</ele></trkpt>
<trkpt lat="47.761045" lon="12.708709"><ele>781.3</ele></trkpt>
<trkpt lat="47.760975" lon="12.709033"><ele>777.7</ele></trkpt>
<trkpt lat="47.760642" lon="12.709883"><ele>764.6</ele></trkpt>
<trkpt lat="47.759982" lon="12.710584"><ele>758.7</ele></trkpt>
<trkpt lat="47.760113" lon="12.711087"><ele>756.6</ele></trkpt>
<trkpt lat="47.760042" lon="12.712896"><ele>746.8</ele></trkpt>
<trkpt lat="47.760284" lon="12.714190"><ele>745.0</ele></trkpt>
<trkpt lat="47.761021" lon="12.716051"><ele>744.8</ele></trkpt>
<trkpt lat="47.761293" lon="12.716981"><ele>746.4</ele></trkpt>
<trkpt lat="47.762279" lon="12.717973"><ele>743.8</ele></trkpt>
<trkpt lat="47.763036" lon="12.719751"><ele>734.3</ele></trkpt>
<trkpt lat="47.763314" lon="12.720586"><ele>734.5</ele></trkpt>
<trkpt lat="47.763154" lon="12.721643"><ele>734.8</ele></trkpt>
<trkpt lat="47.762687" lon="12.722935"><ele>733.9</ele></trkpt>
<trkpt lat="47.762572" lon="12.724243"><ele>729.3</ele></trkpt>
<trkpt lat="47.763661" lon="12.723579"><ele>733.7</ele></trkpt>
<trkpt lat="47.764400" lon="12.723484"><ele>732.3</ele></trkpt>
<trkpt lat="47.764787" lon="12.724513"><ele>721.5</ele></trkpt>
<trkpt lat="47.764733" lon="12.726631"><ele>707.9</ele></trkpt>
<trkpt lat="47.764795" lon="12.728351"><ele>694.4</ele></trkpt>
<trkpt lat="47.764586" lon="12.730256"><ele>686.5</ele></trkpt>
<trkpt lat="47.763737" lon="12.731973"><ele>687.7</ele></trkpt>
<trkpt lat="47.762777" lon="12.733717"><ele>685.8</ele></trkpt>
<trkpt lat="47.761983" lon="12.735468"><ele>689.8</ele></trkpt>
<trkpt lat="47.761527" lon="12.736231"><ele>691.6</ele></trkpt>
<trkpt lat="47.761543" lon="12.736735"><ele>690.1</ele></trkpt>
<trkpt lat="47.761186" lon="12.737149"><ele>693.4</ele></trkpt>
<trkpt lat="47.761257" lon="12.737634"><ele>692.0</ele></trkpt>
<trkpt lat="47.760918" lon="12.738368"><ele>690.4</ele></trkpt>
<trkpt lat="47.761172" lon="12.740348"><ele>688.0</ele></trkpt>
<trkpt lat="47.761478" lon="12.742383"><ele>687.0</ele></trkpt>
<trkpt lat="47.761719" lon="12.744169"><ele>686.4</ele></trkpt>
<trkpt lat="47.762129" lon="12.745184"><ele>684.8</ele></trkpt>
<trkpt lat="47.761652" lon="12.745988"><ele>687.6</ele></trkpt>
<trkpt lat="47.761264" lon="12.746092"><ele>688.0</ele></trkpt>
<trkpt lat="47.761130" lon="12.747214"><ele>689.1</ele></trkpt>
<trkpt lat="47.760538" lon="12.747911"><ele>687.0</ele></trkpt>
<trkpt lat="47.760503" lon="12.748771"><ele>685.7</ele></trkpt>
<trkpt lat="47.759780" lon="12.749490"><ele>687.2</ele></trkpt>
<trkpt lat="47.759935" lon="12.750275"><ele>690.0</ele></trkpt>
<trkpt lat="47.760439" lon="12.750874"><ele>690.8</ele></trkpt>
<trkpt lat="47.759979" lon="12.751496"><ele>696.8</ele></trkpt>
<trkpt lat="47.760748" lon="12.752098"><ele>698.9</ele></trkpt>
<trkpt lat="47.761176" lon="12.752161"><ele>698.7</ele></trkpt>
<trkpt lat="47.762228" lon="12.752087"><ele>696.0</ele></trkpt>
<trkpt lat="47.762307" lon="12.751706"><ele>696.0</ele></trkpt>
</trkseg></trk></gpx>