<?xml version="1.0" encoding="UTF-8"?>
<gpx version="1.1" creator="Bad Reichenhall gravel – saját gravel-router (OSM/Overture + SRTM)" xmlns="http://www.topografix.com/GPX/1/1">
<metadata><name>Rossfeld-kör a szállodától (gerinc + Bischofswiesen-völgy)</name><desc>GENERÁLT NYOMVONAL – Nagy körtúra a szállodától: Großgmainon és St. Leonhardon át a Berchtesgadeni-völgybe, Marktschellenbergtől kis aszfaltutakon (Steinerweg) fel Scheffauba, a Lindenwegen át a Roßfeldstraßéra – így kimarad az Oberau felé vezető, 26%-os murvás fal –, majd fel a Rossfeld-panorámaútra és végig a gerincen (≈1550 m) a Hoher Göll és a Tennengebirge között, a Dachsteinre néző kilátókkal. A Roßfeldstraße teljes gerincszakaszán végig (Almkiosk → a legmagasabb pont, ≈1540 m), majd a Purtschellerstraßén aszfalton le Hinterecken (Obersalzberg) át Berchtesgadenbe, onnan a Bischofswiesen-völgyön és a Hallthurm-hágón át gurulsz haza.</desc><copyright author="OpenStreetMap contributors (via Overture Maps)"><license>https://opendatacommons.org/licenses/odbl/</license></copyright><time>2026-10-04T23:02:56Z</time></metadata>
<wpt lat="47.7296" lon="12.918"><name>Großgmain</name><type>town</type></wpt>
<wpt lat="47.7262" lon="13.0444"><name>St. Leonhard – Untersbergbahn</name><type>view</type></wpt>
<wpt lat="47.697" lon="13.045"><name>Marktschellenberg</name><type>town</type></wpt>
<wpt lat="47.67" lon="13.065"><name>Scheffau</name><type>town</type></wpt>
<wpt lat="47.6312" lon="13.0929"><name>Rossfeld Almkiosk – panoráma</name><type>view</type></wpt>
<wpt lat="47.6185" lon="13.0847"><name>Roßfeldstraße – legmagasabb pont (≈1540 m)</name><type>view</type></wpt>
<wpt lat="47.6265" lon="13.048"><name>Hintereck / Obersalzberg</name><type>town</type></wpt>
<wpt lat="47.6263" lon="12.9993"><name>Berchtesgaden</name><type>town</type></wpt>
<wpt lat="47.652" lon="12.9604"><name>Bischofswiesen</name><type>town</type></wpt>
<wpt lat="47.6966" lon="12.9354"><name>Hallthurm-hágó</name><type>pass</type></wpt>
<trk><name>Rossfeld-kör a szállodától (gerinc + Bischofswiesen-völgy)</name><type>gravel</type><trkseg>
<trkpt lat="47.726900" lon="12.883842"><ele>474.7</ele></trkpt>
<trkpt lat="47.727494" lon="12.883113"><ele>470.2</ele></trkpt>
<trkpt lat="47.727719" lon="12.883943"><ele>471.1</ele></trkpt>
<trkpt lat="47.728704" lon="12.884653"><ele>467.7</ele></trkpt>
<trkpt lat="47.729731" lon="12.886062"><ele>468.9</ele></trkpt>
<trkpt lat="47.730708" lon="12.887277"><ele>466.8</ele></trkpt>
<trkpt lat="47.731702" lon="12.887899"><ele>465.8</ele></trkpt>
<trkpt lat="47.732859" lon="12.888988"><ele>463.3</ele></trkpt>
<trkpt lat="47.733919" lon="12.889805"><ele>464.0</ele></trkpt>
<trkpt lat="47.735182" lon="12.890496"><ele>464.3</ele></trkpt>
<trkpt lat="47.736108" lon="12.891201"><ele>461.0</ele></trkpt>
<trkpt lat="47.736845" lon="12.892688"><ele>464.9</ele></trkpt>
<trkpt lat="47.737294" lon="12.893123"><ele>465.8</ele></trkpt>
<trkpt lat="47.738134" lon="12.894843"><ele>466.4</ele></trkpt>
<trkpt lat="47.738164" lon="12.894899"><ele>466.6</ele></trkpt>
<trkpt lat="47.737894" lon="12.895352"><ele>467.3</ele></trkpt>
<trkpt lat="47.738650" lon="12.897144"><ele>470.9</ele></trkpt>
<trkpt lat="47.738788" lon="12.897543"><ele>470.3</ele></trkpt>
<trkpt lat="47.739379" lon="12.899503"><ele>477.8</ele></trkpt>
<trkpt lat="47.739922" lon="12.901399"><ele>472.8</ele></trkpt>
<trkpt lat="47.740880" lon="12.902811"><ele>473.4</ele></trkpt>
<trkpt lat="47.742113" lon="12.903418"><ele>457.9</ele></trkpt>
<trkpt lat="47.742269" lon="12.904485"><ele>456.8</ele></trkpt>
<trkpt lat="47.743073" lon="12.906108"><ele>458.0</ele></trkpt>
<trkpt lat="47.743086" lon="12.906136"><ele>458.0</ele></trkpt>
<trkpt lat="47.743652" lon="12.908136"><ele>459.6</ele></trkpt>
<trkpt lat="47.743740" lon="12.908499"><ele>459.7</ele></trkpt>
<trkpt lat="47.744516" lon="12.910379"><ele>463.3</ele></trkpt>
<trkpt lat="47.744616" lon="12.910747"><ele>463.0</ele></trkpt>
<trkpt lat="47.744926" lon="12.911017"><ele>460.8</ele></trkpt>
<trkpt lat="47.745145" lon="12.910917"><ele>460.3</ele></trkpt>
<trkpt lat="47.745786" lon="12.911876"><ele>461.9</ele></trkpt>
<trkpt lat="47.746457" lon="12.913586"><ele>464.7</ele></trkpt>
<trkpt lat="47.747458" lon="12.915029"><ele>465.2</ele></trkpt>
<trkpt lat="47.747630" lon="12.915237"><ele>465.9</ele></trkpt>
<trkpt lat="47.748835" lon="12.916243"><ele>463.4</ele></trkpt>
<trkpt lat="47.749601" lon="12.916973"><ele>463.3</ele></trkpt>
<trkpt lat="47.750296" lon="12.918382"><ele>461.2</ele></trkpt>
<trkpt lat="47.750568" lon="12.919192"><ele>463.1</ele></trkpt>
<trkpt lat="47.750886" lon="12.921149"><ele>463.0</ele></trkpt>
<trkpt lat="47.751332" lon="12.923297"><ele>463.1</ele></trkpt>
<trkpt lat="47.751392" lon="12.923816"><ele>464.0</ele></trkpt>
<trkpt lat="47.751236" lon="12.924807"><ele>464.3</ele></trkpt>
<trkpt lat="47.750565" lon="12.925964"><ele>469.0</ele></trkpt>
<trkpt lat="47.750191" lon="12.927537"><ele>475.8</ele></trkpt>
<trkpt lat="47.750099" lon="12.928393"><ele>477.0</ele></trkpt>
<trkpt lat="47.750430" lon="12.929747"><ele>472.5</ele></trkpt>
<trkpt lat="47.750372" lon="12.930403"><ele>473.9</ele></trkpt>
<trkpt lat="47.749440" lon="12.931833"><ele>484.6</ele></trkpt>
<trkpt lat="47.748481" lon="12.933487"><ele>483.2</ele></trkpt>
<trkpt lat="47.748399" lon="12.933614"><ele>483.0</ele></trkpt>
<trkpt lat="47.747524" lon="12.934447"><ele>492.6</ele></trkpt>
<trkpt lat="47.746911" lon="12.935918"><ele>490.3</ele></trkpt>
<trkpt lat="47.747796" lon="12.937439"><ele>494.8</ele></trkpt>
<trkpt lat="47.748415" lon="12.938724"><ele>493.3</ele></trkpt>
<trkpt lat="47.748872" lon="12.940631"><ele>489.8</ele></trkpt>
<trkpt lat="47.749116" lon="12.941807"><ele>485.8</ele></trkpt>
<trkpt lat="47.749628" lon="12.942952"><ele>485.7</ele></trkpt>
<trkpt lat="47.750659" lon="12.944045"><ele>485.3</ele></trkpt>
<trkpt lat="47.751471" lon="12.944369"><ele>483.0</ele></trkpt>
<trkpt lat="47.752865" lon="12.944325"><ele>482.8</ele></trkpt>
<trkpt lat="47.753869" lon="12.944420"><ele>490.2</ele></trkpt>
<trkpt lat="47.755220" lon="12.944675"><ele>480.7</ele></trkpt>
<trkpt lat="47.756563" lon="12.944934"><ele>480.2</ele></trkpt>
<trkpt lat="47.757911" lon="12.945193"><ele>486.2</ele></trkpt>
<trkpt lat="47.758510" lon="12.945216"><ele>483.6</ele></trkpt>
<trkpt lat="47.759836" lon="12.945654"><ele>477.7</ele></trkpt>
<trkpt lat="47.760216" lon="12.945914"><ele>478.0</ele></trkpt>
<trkpt lat="47.761491" lon="12.947070"><ele>476.4</ele></trkpt>
<trkpt lat="47.762517" lon="12.947905"><ele>477.8</ele></trkpt>
<trkpt lat="47.763567" lon="12.949247"><ele>485.2</ele></trkpt>
<trkpt lat="47.764639" lon="12.950711"><ele>482.1</ele></trkpt>
<trkpt lat="47.765403" lon="12.951633"><ele>491.0</ele></trkpt>
<trkpt lat="47.766548" lon="12.952938"><ele>477.2</ele></trkpt>
<trkpt lat="47.767636" lon="12.954171"><ele>459.6</ele></trkpt>
<trkpt lat="47.768004" lon="12.954510"><ele>450.9</ele></trkpt>
<trkpt lat="47.767418" lon="12.956298"><ele>444.0</ele></trkpt>
<trkpt lat="47.768277" lon="12.957779"><ele>436.2</ele></trkpt>
<trkpt lat="47.768535" lon="12.958843"><ele>436.8</ele></trkpt>
<trkpt lat="47.768005" lon="12.960277"><ele>437.0</ele></trkpt>
<trkpt lat="47.767467" lon="12.962238"><ele>443.1</ele></trkpt>
<trkpt lat="47.767302" lon="12.962950"><ele>441.6</ele></trkpt>
<trkpt lat="47.767466" lon="12.964149"><ele>438.8</ele></trkpt>
<trkpt lat="47.767307" lon="12.964873"><ele>438.0</ele></trkpt>
<trkpt lat="47.766504" lon="12.965809"><ele>436.8</ele></trkpt>
<trkpt lat="47.766359" lon="12.966323"><ele>436.0</ele></trkpt>
<trkpt lat="47.765016" lon="12.967353"><ele>436.0</ele></trkpt>
<trkpt lat="47.764525" lon="12.967713"><ele>435.2</ele></trkpt>
<trkpt lat="47.764884" lon="12.968884"><ele>438.6</ele></trkpt>
<trkpt lat="47.765063" lon="12.970258"><ele>436.8</ele></trkpt>
<trkpt lat="47.764592" lon="12.972257"><ele>436.6</ele></trkpt>
<trkpt lat="47.764108" lon="12.974001"><ele>438.8</ele></trkpt>
<trkpt lat="47.763091" lon="12.975581"><ele>440.9</ele></trkpt>
<trkpt lat="47.762198" lon="12.977095"><ele>438.0</ele></trkpt>
<trkpt lat="47.762024" lon="12.977421"><ele>438.7</ele></trkpt>
<trkpt lat="47.761535" lon="12.977771"><ele>440.0</ele></trkpt>
<trkpt lat="47.761285" lon="12.978304"><ele>440.0</ele></trkpt>
<trkpt lat="47.760633" lon="12.980234"><ele>438.2</ele></trkpt>
<trkpt lat="47.760109" lon="12.982199"><ele>440.9</ele></trkpt>
<trkpt lat="47.759805" lon="12.982750"><ele>441.0</ele></trkpt>
<trkpt lat="47.759355" lon="12.984657"><ele>443.5</ele></trkpt>
<trkpt lat="47.759284" lon="12.984841"><ele>443.1</ele></trkpt>
<trkpt lat="47.758946" lon="12.985293"><ele>443.6</ele></trkpt>
<trkpt lat="47.757647" lon="12.985917"><ele>449.2</ele></trkpt>
<trkpt lat="47.757100" lon="12.986289"><ele>450.9</ele></trkpt>
<trkpt lat="47.755957" lon="12.987547"><ele>459.2</ele></trkpt>
<trkpt lat="47.754765" lon="12.988522"><ele>465.0</ele></trkpt>
<trkpt lat="47.753634" lon="12.989641"><ele>467.0</ele></trkpt>
<trkpt lat="47.752456" lon="12.990828"><ele>476.1</ele></trkpt>
<trkpt lat="47.752223" lon="12.991067"><ele>471.0</ele></trkpt>
<trkpt lat="47.751629" lon="12.991861"><ele>460.0</ele></trkpt>
<trkpt lat="47.751159" lon="12.993294"><ele>441.1</ele></trkpt>
<trkpt lat="47.750091" lon="12.994641"><ele>443.2</ele></trkpt>
<trkpt lat="47.749543" lon="12.995451"><ele>441.3</ele></trkpt>
<trkpt lat="47.749156" lon="12.996344"><ele>441.0</ele></trkpt>
<trkpt lat="47.749100" lon="12.997049"><ele>442.4</ele></trkpt>
<trkpt lat="47.748573" lon="12.999040"><ele>441.1</ele></trkpt>
<trkpt lat="47.748558" lon="12.999128"><ele>441.2</ele></trkpt>
<trkpt lat="47.747931" lon="13.000357"><ele>446.3</ele></trkpt>
<trkpt lat="47.747948" lon="13.002037"><ele>450.6</ele></trkpt>
<trkpt lat="47.747368" lon="13.003967"><ele>441.8</ele></trkpt>
<trkpt lat="47.747262" lon="13.004461"><ele>441.7</ele></trkpt>
<trkpt lat="47.747119" lon="13.006243"><ele>446.4</ele></trkpt>
<trkpt lat="47.747193" lon="13.008344"><ele>448.0</ele></trkpt>
<trkpt lat="47.747278" lon="13.010351"><ele>449.2</ele></trkpt>
<trkpt lat="47.747398" lon="13.011971"><ele>454.8</ele></trkpt>
<trkpt lat="47.748007" lon="13.012719"><ele>459.8</ele></trkpt>
<trkpt lat="47.749275" lon="13.012797"><ele>448.9</ele></trkpt>
<trkpt lat="47.749589" lon="13.013051"><ele>443.5</ele></trkpt>
<trkpt lat="47.749379" lon="13.015071"><ele>442.0</ele></trkpt>
<trkpt lat="47.749336" lon="13.015324"><ele>441.2</ele></trkpt>
<trkpt lat="47.748869" lon="13.016815"><ele>442.8</ele></trkpt>
<trkpt lat="47.748067" lon="13.017824"><ele>441.6</ele></trkpt>
<trkpt lat="47.747711" lon="13.019057"><ele>438.8</ele></trkpt>
<trkpt lat="47.746898" lon="13.020831"><ele>452.8</ele></trkpt>
<trkpt lat="47.746665" lon="13.021374"><ele>449.1</ele></trkpt>
<trkpt lat="47.745997" lon="13.023239"><ele>452.0</ele></trkpt>
<trkpt lat="47.745366" lon="13.025026"><ele>450.5</ele></trkpt>
<trkpt lat="47.744696" lon="13.026916"><ele>450.6</ele></trkpt>
<trkpt lat="47.744206" lon="13.028215"><ele>447.4</ele></trkpt>
<trkpt lat="47.743793" lon="13.029719"><ele>448.5</ele></trkpt>
<trkpt lat="47.743016" lon="13.031474"><ele>443.9</ele></trkpt>
<trkpt lat="47.742254" lon="13.033133"><ele>445.9</ele></trkpt>
<trkpt lat="47.742275" lon="13.033711"><ele>444.7</ele></trkpt>
<trkpt lat="47.741303" lon="13.035087"><ele>448.0</ele></trkpt>
<trkpt lat="47.741174" lon="13.035255"><ele>448.0</ele></trkpt>
<trkpt lat="47.739909" lon="13.036120"><ele>446.7</ele></trkpt>
<trkpt lat="47.739251" lon="13.036562"><ele>446.4</ele></trkpt>
<trkpt lat="47.739367" lon="13.037102"><ele>447.4</ele></trkpt>
<trkpt lat="47.738831" lon="13.036985"><ele>446.9</ele></trkpt>
<trkpt lat="47.737459" lon="13.037166"><ele>451.2</ele></trkpt>
<trkpt lat="47.736745" lon="13.037643"><ele>448.1</ele></trkpt>
<trkpt lat="47.736028" lon="13.037649"><ele>451.3</ele></trkpt>
<trkpt lat="47.734665" lon="13.038015"><ele>446.6</ele></trkpt>
<trkpt lat="47.733210" lon="13.038453"><ele>450.0</ele></trkpt>
<trkpt lat="47.732186" lon="13.038790"><ele>453.8</ele></trkpt>
<trkpt lat="47.730922" lon="13.038930"><ele>451.3</ele></trkpt>
<trkpt lat="47.729688" lon="13.040061"><ele>453.7</ele></trkpt>
<trkpt lat="47.728544" lon="13.041150"><ele>459.8</ele></trkpt>
<trkpt lat="47.728302" lon="13.041359"><ele>459.4</ele></trkpt>
<trkpt lat="47.727219" lon="13.042665"><ele>457.2</ele></trkpt>
<trkpt lat="47.727072" lon="13.042810"><ele>457.5</ele></trkpt>
<trkpt lat="47.726653" lon="13.043738"><ele>452.5</ele></trkpt>
<trkpt lat="47.726493" lon="13.044612"><ele>450.9</ele></trkpt>
<trkpt lat="47.726078" lon="13.044519"><ele>450.1</ele></trkpt>
<trkpt lat="47.726489" lon="13.044776"><ele>451.4</ele></trkpt>
<trkpt lat="47.726520" lon="13.043728"><ele>452.4</ele></trkpt>
<trkpt lat="47.726278" lon="13.043519"><ele>453.1</ele></trkpt>
<trkpt lat="47.724949" lon="13.042594"><ele>451.5</ele></trkpt>
<trkpt lat="47.724382" lon="13.042243"><ele>449.9</ele></trkpt>
<trkpt lat="47.723038" lon="13.041877"><ele>453.3</ele></trkpt>
<trkpt lat="47.722999" lon="13.041875"><ele>453.4</ele></trkpt>
<trkpt lat="47.721766" lon="13.042113"><ele>452.6</ele></trkpt>
<trkpt lat="47.720319" lon="13.042705"><ele>453.1</ele></trkpt>
<trkpt lat="47.718919" lon="13.043298"><ele>458.0</ele></trkpt>
<trkpt lat="47.717549" lon="13.043916"><ele>463.3</ele></trkpt>
<trkpt lat="47.716868" lon="13.044209"><ele>466.2</ele></trkpt>
<trkpt lat="47.715911" lon="13.044287"><ele>465.1</ele></trkpt>
<trkpt lat="47.714621" lon="13.043410"><ele>471.3</ele></trkpt>
<trkpt lat="47.713384" lon="13.042437"><ele>468.1</ele></trkpt>
<trkpt lat="47.712240" lon="13.041736"><ele>472.6</ele></trkpt>
<trkpt lat="47.711079" lon="13.040355"><ele>468.9</ele></trkpt>
<trkpt lat="47.710259" lon="13.039226"><ele>471.6</ele></trkpt>
<trkpt lat="47.709655" lon="13.038785"><ele>471.2</ele></trkpt>
<trkpt lat="47.708825" lon="13.038620"><ele>464.5</ele></trkpt>
<trkpt lat="47.708737" lon="13.038822"><ele>465.4</ele></trkpt>
<trkpt lat="47.708188" lon="13.038980"><ele>467.2</ele></trkpt>
<trkpt lat="47.708015" lon="13.038827"><ele>466.2</ele></trkpt>
<trkpt lat="47.706654" lon="13.039006"><ele>465.4</ele></trkpt>
<trkpt lat="47.705854" lon="13.038986"><ele>466.8</ele></trkpt>
<trkpt lat="47.704565" lon="13.038486"><ele>474.4</ele></trkpt>
<trkpt lat="47.704410" lon="13.038457"><ele>475.2</ele></trkpt>
<trkpt lat="47.703012" lon="13.038555"><ele>469.0</ele></trkpt>
<trkpt lat="47.702832" lon="13.038586"><ele>469.1</ele></trkpt>
<trkpt lat="47.702252" lon="13.039093"><ele>472.3</ele></trkpt>
<trkpt lat="47.701552" lon="13.040626"><ele>471.3</ele></trkpt>
<trkpt lat="47.701273" lon="13.041736"><ele>475.3</ele></trkpt>
<trkpt lat="47.700500" lon="13.042974"><ele>472.5</ele></trkpt>
<trkpt lat="47.700079" lon="13.043202"><ele>472.5</ele></trkpt>
<trkpt lat="47.698681" lon="13.043225"><ele>481.1</ele></trkpt>
<trkpt lat="47.698443" lon="13.043268"><ele>487.1</ele></trkpt>
<trkpt lat="47.697531" lon="13.044913"><ele>481.9</ele></trkpt>
<trkpt lat="47.696481" lon="13.046190"><ele>479.6</ele></trkpt>
<trkpt lat="47.696404" lon="13.046265"><ele>479.4</ele></trkpt>
<trkpt lat="47.695110" lon="13.046915"><ele>483.6</ele></trkpt>
<trkpt lat="47.694510" lon="13.046973"><ele>483.9</ele></trkpt>
<trkpt lat="47.693840" lon="13.048521"><ele>503.2</ele></trkpt>
<trkpt lat="47.693009" lon="13.048048"><ele>508.2</ele></trkpt>
<trkpt lat="47.692423" lon="13.047990"><ele>508.4</ele></trkpt>
<trkpt lat="47.691474" lon="13.048313"><ele>513.3</ele></trkpt>
<trkpt lat="47.690553" lon="13.048929"><ele>519.3</ele></trkpt>
<trkpt lat="47.689439" lon="13.049080"><ele>515.7</ele></trkpt>
<trkpt lat="47.688847" lon="13.049575"><ele>523.4</ele></trkpt>
<trkpt lat="47.688609" lon="13.050240"><ele>535.9</ele></trkpt>
<trkpt lat="47.687875" lon="13.051400"><ele>559.6</ele></trkpt>
<trkpt lat="47.687626" lon="13.050865"><ele>560.8</ele></trkpt>
<trkpt lat="47.687659" lon="13.049665"><ele>555.9</ele></trkpt>
<trkpt lat="47.687511" lon="13.049052"><ele>552.6</ele></trkpt>
<trkpt lat="47.687148" lon="13.048820"><ele>553.4</ele></trkpt>
<trkpt lat="47.686371" lon="13.049019"><ele>575.3</ele></trkpt>
<trkpt lat="47.685938" lon="13.048557"><ele>571.8</ele></trkpt>
<trkpt lat="47.684957" lon="13.049020"><ele>573.2</ele></trkpt>
<trkpt lat="47.683992" lon="13.050475"><ele>578.4</ele></trkpt>
<trkpt lat="47.683898" lon="13.050585"><ele>578.8</ele></trkpt>
<trkpt lat="47.683193" lon="13.051042"><ele>588.5</ele></trkpt>
<trkpt lat="47.681772" lon="13.051469"><ele>606.0</ele></trkpt>
<trkpt lat="47.681532" lon="13.051514"><ele>606.6</ele></trkpt>
<trkpt lat="47.680215" lon="13.050650"><ele>612.1</ele></trkpt>
<trkpt lat="47.679860" lon="13.050533"><ele>614.7</ele></trkpt>
<trkpt lat="47.679230" lon="13.050904"><ele>621.7</ele></trkpt>
<trkpt lat="47.678642" lon="13.050794"><ele>624.7</ele></trkpt>
<trkpt lat="47.679664" lon="13.052064"><ele>633.0</ele></trkpt>
<trkpt lat="47.679731" lon="13.052174"><ele>634.8</ele></trkpt>
<trkpt lat="47.680084" lon="13.053211"><ele>649.1</ele></trkpt>
<trkpt lat="47.680151" lon="13.054154"><ele>653.5</ele></trkpt>
<trkpt lat="47.679925" lon="13.055534"><ele>661.6</ele></trkpt>
<trkpt lat="47.679632" lon="13.056014"><ele>665.2</ele></trkpt>
<trkpt lat="47.679325" lon="13.056143"><ele>664.0</ele></trkpt>
<trkpt lat="47.678345" lon="13.055409"><ele>659.4</ele></trkpt>
<trkpt lat="47.677678" lon="13.055152"><ele>660.8</ele></trkpt>
<trkpt lat="47.677380" lon="13.054639"><ele>675.4</ele></trkpt>
<trkpt lat="47.677272" lon="13.053603"><ele>670.1</ele></trkpt>
<trkpt lat="47.675792" lon="13.053283"><ele>697.1</ele></trkpt>
<trkpt lat="47.675458" lon="13.053137"><ele>705.0</ele></trkpt>
<trkpt lat="47.675038" lon="13.051991"><ele>698.5</ele></trkpt>
<trkpt lat="47.673840" lon="13.052015"><ele>711.5</ele></trkpt>
<trkpt lat="47.672460" lon="13.051339"><ele>712.6</ele></trkpt>
<trkpt lat="47.672432" lon="13.051324"><ele>712.1</ele></trkpt>
<trkpt lat="47.671715" lon="13.051328"><ele>705.9</ele></trkpt>
<trkpt lat="47.671145" lon="13.050844"><ele>700.3</ele></trkpt>
<trkpt lat="47.670636" lon="13.051969"><ele>704.7</ele></trkpt>
<trkpt lat="47.670896" lon="13.054005"><ele>715.8</ele></trkpt>
<trkpt lat="47.670935" lon="13.054436"><ele>715.9</ele></trkpt>
<trkpt lat="47.670812" lon="13.056236"><ele>718.0</ele></trkpt>
<trkpt lat="47.670399" lon="13.056938"><ele>722.0</ele></trkpt>
<trkpt lat="47.669763" lon="13.056240"><ele>710.6</ele></trkpt>
<trkpt lat="47.668330" lon="13.055790"><ele>681.4</ele></trkpt>
<trkpt lat="47.668869" lon="13.057410"><ele>679.0</ele></trkpt>
<trkpt lat="47.667879" lon="13.055920"><ele>665.8</ele></trkpt>
<trkpt lat="47.667711" lon="13.055691"><ele>664.2</ele></trkpt>
<trkpt lat="47.666488" lon="13.054846"><ele>656.7</ele></trkpt>
<trkpt lat="47.665591" lon="13.054330"><ele>657.7</ele></trkpt>
<trkpt lat="47.664148" lon="13.054073"><ele>666.7</ele></trkpt>
<trkpt lat="47.663939" lon="13.053972"><ele>665.4</ele></trkpt>
<trkpt lat="47.662674" lon="13.052974"><ele>651.1</ele></trkpt>
<trkpt lat="47.662286" lon="13.052676"><ele>664.6</ele></trkpt>
<trkpt lat="47.661665" lon="13.052427"><ele>664.2</ele></trkpt>
<trkpt lat="47.660393" lon="13.051265"><ele>673.4</ele></trkpt>
<trkpt lat="47.659698" lon="13.050708"><ele>678.6</ele></trkpt>
<trkpt lat="47.658329" lon="13.050406"><ele>699.2</ele></trkpt>
<trkpt lat="47.657580" lon="13.050304"><ele>693.9</ele></trkpt>
<trkpt lat="47.657195" lon="13.050673"><ele>691.3</ele></trkpt>
<trkpt lat="47.656669" lon="13.051854"><ele>715.8</ele></trkpt>
<trkpt lat="47.656176" lon="13.051730"><ele>702.9</ele></trkpt>
<trkpt lat="47.655657" lon="13.051959"><ele>697.5</ele></trkpt>
<trkpt lat="47.655265" lon="13.052855"><ele>693.6</ele></trkpt>
<trkpt lat="47.654485" lon="13.053477"><ele>700.2</ele></trkpt>
<trkpt lat="47.653220" lon="13.053506"><ele>698.8</ele></trkpt>
<trkpt lat="47.652232" lon="13.053970"><ele>703.1</ele></trkpt>
<trkpt lat="47.652161" lon="13.055515"><ele>714.2</ele></trkpt>
<trkpt lat="47.651865" lon="13.055976"><ele>715.2</ele></trkpt>
<trkpt lat="47.651767" lon="13.056475"><ele>712.8</ele></trkpt>
<trkpt lat="47.651787" lon="13.058597"><ele>721.7</ele></trkpt>
<trkpt lat="47.651755" lon="13.058982"><ele>725.9</ele></trkpt>
<trkpt lat="47.651588" lon="13.060012"><ele>727.8</ele></trkpt>
<trkpt lat="47.651372" lon="13.060199"><ele>725.6</ele></trkpt>
<trkpt lat="47.651882" lon="13.062273"><ele>730.8</ele></trkpt>
<trkpt lat="47.652472" lon="13.064160"><ele>746.5</ele></trkpt>
<trkpt lat="47.652529" lon="13.064436"><ele>749.9</ele></trkpt>
<trkpt lat="47.652521" lon="13.066591"><ele>760.0</ele></trkpt>
<trkpt lat="47.652526" lon="13.068224"><ele>766.7</ele></trkpt>
<trkpt lat="47.652737" lon="13.069441"><ele>782.1</ele></trkpt>
<trkpt lat="47.653010" lon="13.070144"><ele>791.9</ele></trkpt>
<trkpt lat="47.653700" lon="13.071108"><ele>804.9</ele></trkpt>
<trkpt lat="47.655053" lon="13.072077"><ele>819.1</ele></trkpt>
<trkpt lat="47.656421" lon="13.073024"><ele>841.3</ele></trkpt>
<trkpt lat="47.657784" lon="13.073806"><ele>860.4</ele></trkpt>
<trkpt lat="47.658739" lon="13.074385"><ele>858.3</ele></trkpt>
<trkpt lat="47.658945" lon="13.074687"><ele>853.6</ele></trkpt>
<trkpt lat="47.658956" lon="13.075121"><ele>858.3</ele></trkpt>
<trkpt lat="47.658687" lon="13.075463"><ele>864.9</ele></trkpt>
<trkpt lat="47.657236" lon="13.076054"><ele>890.0</ele></trkpt>
<trkpt lat="47.655764" lon="13.076620"><ele>898.6</ele></trkpt>
<trkpt lat="47.655457" lon="13.076735"><ele>899.2</ele></trkpt>
<trkpt lat="47.654992" lon="13.077094"><ele>900.9</ele></trkpt>
<trkpt lat="47.654766" lon="13.077692"><ele>897.3</ele></trkpt>
<trkpt lat="47.654630" lon="13.079061"><ele>912.9</ele></trkpt>
<trkpt lat="47.654833" lon="13.081111"><ele>921.4</ele></trkpt>
<trkpt lat="47.654534" lon="13.081623"><ele>920.4</ele></trkpt>
<trkpt lat="47.654253" lon="13.081575"><ele>925.2</ele></trkpt>
<trkpt lat="47.653273" lon="13.080452"><ele>945.3</ele></trkpt>
<trkpt lat="47.651986" lon="13.079740"><ele>954.8</ele></trkpt>
<trkpt lat="47.651778" lon="13.079646"><ele>954.8</ele></trkpt>
<trkpt lat="47.650398" lon="13.079859"><ele>962.4</ele></trkpt>
<trkpt lat="47.649728" lon="13.079776"><ele>971.6</ele></trkpt>
<trkpt lat="47.648364" lon="13.079099"><ele>993.2</ele></trkpt>
<trkpt lat="47.647006" lon="13.078360"><ele>1007.6</ele></trkpt>
<trkpt lat="47.645730" lon="13.077693"><ele>1022.8</ele></trkpt>
<trkpt lat="47.644931" lon="13.077276"><ele>1032.1</ele></trkpt>
<trkpt lat="47.644523" lon="13.077207"><ele>1039.2</ele></trkpt>
<trkpt lat="47.644107" lon="13.077447"><ele>1040.8</ele></trkpt>
<trkpt lat="47.643212" lon="13.078947"><ele>1055.8</ele></trkpt>
<trkpt lat="47.642219" lon="13.079943"><ele>1064.3</ele></trkpt>
<trkpt lat="47.641894" lon="13.080806"><ele>1067.0</ele></trkpt>
<trkpt lat="47.641819" lon="13.083070"><ele>1091.1</ele></trkpt>
<trkpt lat="47.641784" lon="13.084572"><ele>1106.3</ele></trkpt>
<trkpt lat="47.641931" lon="13.086774"><ele>1126.0</ele></trkpt>
<trkpt lat="47.641944" lon="13.087621"><ele>1132.3</ele></trkpt>
<trkpt lat="47.641245" lon="13.089587"><ele>1158.2</ele></trkpt>
<trkpt lat="47.641172" lon="13.089797"><ele>1159.1</ele></trkpt>
<trkpt lat="47.641050" lon="13.090811"><ele>1163.4</ele></trkpt>
<trkpt lat="47.641288" lon="13.091610"><ele>1172.1</ele></trkpt>
<trkpt lat="47.642053" lon="13.091986"><ele>1184.7</ele></trkpt>
<trkpt lat="47.642432" lon="13.092474"><ele>1189.6</ele></trkpt>
<trkpt lat="47.642549" lon="13.093711"><ele>1200.2</ele></trkpt>
<trkpt lat="47.642421" lon="13.094588"><ele>1203.6</ele></trkpt>
<trkpt lat="47.642143" lon="13.095269"><ele>1206.8</ele></trkpt>
<trkpt lat="47.640879" lon="13.095937"><ele>1222.4</ele></trkpt>
<trkpt lat="47.640468" lon="13.095955"><ele>1225.9</ele></trkpt>
<trkpt lat="47.640060" lon="13.095611"><ele>1234.5</ele></trkpt>
<trkpt lat="47.639481" lon="13.093749"><ele>1259.2</ele></trkpt>
<trkpt lat="47.639174" lon="13.092694"><ele>1266.4</ele></trkpt>
<trkpt lat="47.638553" lon="13.091838"><ele>1274.3</ele></trkpt>
<trkpt lat="47.637586" lon="13.091668"><ele>1286.6</ele></trkpt>
<trkpt lat="47.636280" lon="13.092406"><ele>1303.3</ele></trkpt>
<trkpt lat="47.636214" lon="13.092414"><ele>1303.8</ele></trkpt>
<trkpt lat="47.635671" lon="13.092062"><ele>1307.3</ele></trkpt>
<trkpt lat="47.634943" lon="13.090407"><ele>1325.4</ele></trkpt>
<trkpt lat="47.635033" lon="13.089840"><ele>1326.6</ele></trkpt>
<trkpt lat="47.635603" lon="13.088717"><ele>1329.5</ele></trkpt>
<trkpt lat="47.635619" lon="13.088153"><ele>1334.1</ele></trkpt>
<trkpt lat="47.635050" lon="13.086627"><ele>1350.8</ele></trkpt>
<trkpt lat="47.634569" lon="13.086060"><ele>1363.0</ele></trkpt>
<trkpt lat="47.634163" lon="13.086124"><ele>1363.2</ele></trkpt>
<trkpt lat="47.633889" lon="13.086610"><ele>1370.0</ele></trkpt>
<trkpt lat="47.633554" lon="13.088606"><ele>1393.1</ele></trkpt>
<trkpt lat="47.632903" lon="13.090424"><ele>1403.2</ele></trkpt>
<trkpt lat="47.632870" lon="13.090580"><ele>1406.1</ele></trkpt>
<trkpt lat="47.632927" lon="13.092624"><ele>1416.8</ele></trkpt>
<trkpt lat="47.632540" lon="13.093592"><ele>1421.7</ele></trkpt>
<trkpt lat="47.631548" lon="13.094694"><ele>1428.2</ele></trkpt>
<trkpt lat="47.631479" lon="13.094285"><ele>1435.1</ele></trkpt>
<trkpt lat="47.632299" lon="13.093111"><ele>1440.6</ele></trkpt>
<trkpt lat="47.632337" lon="13.092597"><ele>1442.7</ele></trkpt>
<trkpt lat="47.632173" lon="13.092175"><ele>1441.2</ele></trkpt>
<trkpt lat="47.631731" lon="13.092077"><ele>1439.7</ele></trkpt>
<trkpt lat="47.630518" lon="13.093285"><ele>1459.9</ele></trkpt>
<trkpt lat="47.630369" lon="13.093429"><ele>1463.3</ele></trkpt>
<trkpt lat="47.630068" lon="13.093517"><ele>1468.4</ele></trkpt>
<trkpt lat="47.629063" lon="13.091981"><ele>1483.1</ele></trkpt>
<trkpt lat="47.628820" lon="13.091647"><ele>1486.0</ele></trkpt>
<trkpt lat="47.628181" lon="13.091150"><ele>1489.8</ele></trkpt>
<trkpt lat="47.628041" lon="13.091459"><ele>1497.9</ele></trkpt>
<trkpt lat="47.628438" lon="13.092639"><ele>1505.1</ele></trkpt>
<trkpt lat="47.628606" lon="13.093715"><ele>1511.6</ele></trkpt>
<trkpt lat="47.628595" lon="13.094395"><ele>1513.3</ele></trkpt>
<trkpt lat="47.628445" lon="13.094596"><ele>1518.5</ele></trkpt>
<trkpt lat="47.627470" lon="13.093026"><ele>1528.5</ele></trkpt>
<trkpt lat="47.627062" lon="13.092415"><ele>1533.1</ele></trkpt>
<trkpt lat="47.625717" lon="13.091954"><ele>1535.7</ele></trkpt>
<trkpt lat="47.625517" lon="13.091878"><ele>1532.3</ele></trkpt>
<trkpt lat="47.624885" lon="13.091350"><ele>1521.8</ele></trkpt>
<trkpt lat="47.623958" lon="13.089775"><ele>1520.3</ele></trkpt>
<trkpt lat="47.623812" lon="13.089561"><ele>1523.2</ele></trkpt>
<trkpt lat="47.622693" lon="13.088308"><ele>1534.6</ele></trkpt>
<trkpt lat="47.622470" lon="13.087993"><ele>1536.7</ele></trkpt>
<trkpt lat="47.621722" lon="13.086237"><ele>1530.6</ele></trkpt>
<trkpt lat="47.621438" lon="13.085835"><ele>1523.9</ele></trkpt>
<trkpt lat="47.620274" lon="13.084779"><ele>1543.9</ele></trkpt>
<trkpt lat="47.620186" lon="13.084742"><ele>1543.6</ele></trkpt>
<trkpt lat="47.619083" lon="13.084976"><ele>1543.4</ele></trkpt>
<trkpt lat="47.618508" lon="13.084653"><ele>1544.6</ele></trkpt>
<trkpt lat="47.618214" lon="13.083925"><ele>1543.0</ele></trkpt>
<trkpt lat="47.618162" lon="13.081857"><ele>1540.4</ele></trkpt>
<trkpt lat="47.617477" lon="13.079986"><ele>1521.9</ele></trkpt>
<trkpt lat="47.617408" lon="13.079696"><ele>1522.2</ele></trkpt>
<trkpt lat="47.617579" lon="13.078601"><ele>1505.6</ele></trkpt>
<trkpt lat="47.618888" lon="13.077555"><ele>1496.6</ele></trkpt>
<trkpt lat="47.619365" lon="13.077261"><ele>1487.1</ele></trkpt>
<trkpt lat="47.620546" lon="13.077688"><ele>1469.9</ele></trkpt>
<trkpt lat="47.621104" lon="13.077371"><ele>1462.7</ele></trkpt>
<trkpt lat="47.621930" lon="13.076260"><ele>1445.4</ele></trkpt>
<trkpt lat="47.622801" lon="13.074697"><ele>1424.6</ele></trkpt>
<trkpt lat="47.622887" lon="13.074539"><ele>1422.0</ele></trkpt>
<trkpt lat="47.622834" lon="13.074214"><ele>1417.7</ele></trkpt>
<trkpt lat="47.622612" lon="13.074212"><ele>1415.9</ele></trkpt>
<trkpt lat="47.621848" lon="13.075251"><ele>1412.1</ele></trkpt>
<trkpt lat="47.620852" lon="13.076296"><ele>1411.3</ele></trkpt>
<trkpt lat="47.620706" lon="13.076224"><ele>1412.0</ele></trkpt>
<trkpt lat="47.621404" lon="13.075053"><ele>1393.1</ele></trkpt>
<trkpt lat="47.622056" lon="13.073214"><ele>1366.4</ele></trkpt>
<trkpt lat="47.622119" lon="13.073086"><ele>1364.9</ele></trkpt>
<trkpt lat="47.622778" lon="13.072248"><ele>1349.1</ele></trkpt>
<trkpt lat="47.623374" lon="13.072275"><ele>1336.2</ele></trkpt>
<trkpt lat="47.623905" lon="13.073434"><ele>1348.3</ele></trkpt>
<trkpt lat="47.624079" lon="13.073279"><ele>1328.5</ele></trkpt>
<trkpt lat="47.623672" lon="13.071928"><ele>1310.5</ele></trkpt>
<trkpt lat="47.622981" lon="13.071262"><ele>1309.8</ele></trkpt>
<trkpt lat="47.622521" lon="13.071263"><ele>1305.3</ele></trkpt>
<trkpt lat="47.621951" lon="13.071592"><ele>1303.7</ele></trkpt>
<trkpt lat="47.620754" lon="13.072757"><ele>1293.5</ele></trkpt>
<trkpt lat="47.620418" lon="13.072892"><ele>1291.9</ele></trkpt>
<trkpt lat="47.619242" lon="13.072074"><ele>1275.9</ele></trkpt>
<trkpt lat="47.617837" lon="13.071674"><ele>1263.6</ele></trkpt>
<trkpt lat="47.617415" lon="13.071313"><ele>1256.7</ele></trkpt>
<trkpt lat="47.617223" lon="13.070712"><ele>1253.1</ele></trkpt>
<trkpt lat="47.617279" lon="13.070026"><ele>1251.9</ele></trkpt>
<trkpt lat="47.617816" lon="13.068827"><ele>1240.3</ele></trkpt>
<trkpt lat="47.618543" lon="13.067817"><ele>1224.4</ele></trkpt>
<trkpt lat="47.618659" lon="13.067242"><ele>1220.8</ele></trkpt>
<trkpt lat="47.618426" lon="13.066568"><ele>1211.3</ele></trkpt>
<trkpt lat="47.617649" lon="13.065939"><ele>1218.4</ele></trkpt>
<trkpt lat="47.617393" lon="13.065495"><ele>1209.9</ele></trkpt>
<trkpt lat="47.617269" lon="13.064804"><ele>1200.8</ele></trkpt>
<trkpt lat="47.617386" lon="13.064079"><ele>1194.3</ele></trkpt>
<trkpt lat="47.617731" lon="13.063548"><ele>1188.4</ele></trkpt>
<trkpt lat="47.618180" lon="13.063334"><ele>1185.1</ele></trkpt>
<trkpt lat="47.619555" lon="13.063255"><ele>1177.9</ele></trkpt>
<trkpt lat="47.620874" lon="13.063179"><ele>1166.6</ele></trkpt>
<trkpt lat="47.622182" lon="13.063851"><ele>1156.7</ele></trkpt>
<trkpt lat="47.622328" lon="13.063913"><ele>1153.0</ele></trkpt>
<trkpt lat="47.622744" lon="13.063742"><ele>1146.7</ele></trkpt>
<trkpt lat="47.622975" lon="13.063280"><ele>1146.9</ele></trkpt>
<trkpt lat="47.623329" lon="13.061469"><ele>1144.8</ele></trkpt>
<trkpt lat="47.623098" lon="13.059370"><ele>1135.6</ele></trkpt>
<trkpt lat="47.623738" lon="13.057911"><ele>1130.9</ele></trkpt>
<trkpt lat="47.624517" lon="13.057021"><ele>1115.9</ele></trkpt>
<trkpt lat="47.624685" lon="13.055180"><ele>1115.4</ele></trkpt>
<trkpt lat="47.625311" lon="13.053904"><ele>1109.5</ele></trkpt>
<trkpt lat="47.626615" lon="13.052876"><ele>1088.2</ele></trkpt>
<trkpt lat="47.626912" lon="13.052595"><ele>1085.9</ele></trkpt>
<trkpt lat="47.627620" lon="13.051177"><ele>1074.7</ele></trkpt>
<trkpt lat="47.627841" lon="13.051184"><ele>1070.4</ele></trkpt>
<trkpt lat="47.627992" lon="13.051521"><ele>1070.0</ele></trkpt>
<trkpt lat="47.627933" lon="13.053518"><ele>1056.6</ele></trkpt>
<trkpt lat="47.628172" lon="13.055149"><ele>1037.8</ele></trkpt>
<trkpt lat="47.627997" lon="13.056425"><ele>1028.2</ele></trkpt>
<trkpt lat="47.628203" lon="13.056586"><ele>1023.1</ele></trkpt>
<trkpt lat="47.628489" lon="13.056350"><ele>1020.3</ele></trkpt>
<trkpt lat="47.629446" lon="13.054756"><ele>1007.6</ele></trkpt>
<trkpt lat="47.629588" lon="13.054520"><ele>1003.4</ele></trkpt>
<trkpt lat="47.630175" lon="13.052841"><ele>998.8</ele></trkpt>
<trkpt lat="47.630374" lon="13.053083"><ele>988.5</ele></trkpt>
<trkpt lat="47.630370" lon="13.054605"><ele>976.8</ele></trkpt>
<trkpt lat="47.630857" lon="13.055736"><ele>964.3</ele></trkpt>
<trkpt lat="47.631060" lon="13.055709"><ele>960.8</ele></trkpt>
<trkpt lat="47.631282" lon="13.053859"><ele>964.6</ele></trkpt>
<trkpt lat="47.631172" lon="13.052331"><ele>969.3</ele></trkpt>
<trkpt lat="47.631673" lon="13.051186"><ele>965.9</ele></trkpt>
<trkpt lat="47.632088" lon="13.049518"><ele>949.7</ele></trkpt>
<trkpt lat="47.632345" lon="13.047534"><ele>948.5</ele></trkpt>
<trkpt lat="47.632486" lon="13.046019"><ele>947.0</ele></trkpt>
<trkpt lat="47.632728" lon="13.045386"><ele>945.6</ele></trkpt>
<trkpt lat="47.633751" lon="13.044080"><ele>929.2</ele></trkpt>
<trkpt lat="47.633752" lon="13.044079"><ele>929.2</ele></trkpt>
<trkpt lat="47.633947" lon="13.043497"><ele>919.1</ele></trkpt>
<trkpt lat="47.633899" lon="13.042854"><ele>906.7</ele></trkpt>
<trkpt lat="47.634040" lon="13.042229"><ele>903.6</ele></trkpt>
<trkpt lat="47.633892" lon="13.040710"><ele>892.1</ele></trkpt>
<trkpt lat="47.633329" lon="13.038754"><ele>874.6</ele></trkpt>
<trkpt lat="47.633230" lon="13.038219"><ele>867.2</ele></trkpt>
<trkpt lat="47.632853" lon="13.037608"><ele>864.5</ele></trkpt>
<trkpt lat="47.633067" lon="13.036889"><ele>851.2</ele></trkpt>
<trkpt lat="47.633246" lon="13.034867"><ele>832.7</ele></trkpt>
<trkpt lat="47.633260" lon="13.034696"><ele>832.5</ele></trkpt>
<trkpt lat="47.633202" lon="13.032626"><ele>816.0</ele></trkpt>
<trkpt lat="47.633121" lon="13.032009"><ele>812.1</ele></trkpt>
<trkpt lat="47.632829" lon="13.031193"><ele>810.5</ele></trkpt>
<trkpt lat="47.632102" lon="13.030276"><ele>809.7</ele></trkpt>
<trkpt lat="47.631408" lon="13.028518"><ele>786.9</ele></trkpt>
<trkpt lat="47.631166" lon="13.028205"><ele>778.5</ele></trkpt>
<trkpt lat="47.630731" lon="13.028132"><ele>779.2</ele></trkpt>
<trkpt lat="47.630616" lon="13.027772"><ele>776.9</ele></trkpt>
<trkpt lat="47.630683" lon="13.027397"><ele>773.8</ele></trkpt>
<trkpt lat="47.631171" lon="13.026619"><ele>754.7</ele></trkpt>
<trkpt lat="47.630988" lon="13.024583"><ele>732.4</ele></trkpt>
<trkpt lat="47.630949" lon="13.023757"><ele>728.0</ele></trkpt>
<trkpt lat="47.631636" lon="13.022054"><ele>699.0</ele></trkpt>
<trkpt lat="47.631157" lon="13.020503"><ele>700.2</ele></trkpt>
<trkpt lat="47.631554" lon="13.019620"><ele>681.6</ele></trkpt>
<trkpt lat="47.631374" lon="13.017485"><ele>666.5</ele></trkpt>
<trkpt lat="47.631382" lon="13.017137"><ele>663.7</ele></trkpt>
<trkpt lat="47.632002" lon="13.015270"><ele>638.2</ele></trkpt>
<trkpt lat="47.632428" lon="13.013774"><ele>637.0</ele></trkpt>
<trkpt lat="47.632405" lon="13.012557"><ele>623.1</ele></trkpt>
<trkpt lat="47.631933" lon="13.011651"><ele>603.2</ele></trkpt>
<trkpt lat="47.631499" lon="13.011432"><ele>613.5</ele></trkpt>
<trkpt lat="47.631202" lon="13.010296"><ele>603.3</ele></trkpt>
<trkpt lat="47.630668" lon="13.009828"><ele>596.6</ele></trkpt>
<trkpt lat="47.630467" lon="13.008104"><ele>555.5</ele></trkpt>
<trkpt lat="47.630143" lon="13.007311"><ele>551.3</ele></trkpt>
<trkpt lat="47.630598" lon="13.006105"><ele>531.3</ele></trkpt>
<trkpt lat="47.629600" lon="13.004605"><ele>538.3</ele></trkpt>
<trkpt lat="47.628881" lon="13.003556"><ele>537.0</ele></trkpt>
<trkpt lat="47.628327" lon="13.002262"><ele>536.9</ele></trkpt>
<trkpt lat="47.627367" lon="13.001432"><ele>540.1</ele></trkpt>
<trkpt lat="47.627056" lon="13.000810"><ele>540.0</ele></trkpt>
<trkpt lat="47.626464" lon="13.000316"><ele>540.1</ele></trkpt>
<trkpt lat="47.626085" lon="12.999324"><ele>539.5</ele></trkpt>
<trkpt lat="47.625908" lon="12.999437"><ele>539.3</ele></trkpt>
<trkpt lat="47.626473" lon="13.000502"><ele>539.5</ele></trkpt>
<trkpt lat="47.627676" lon="13.001704"><ele>540.2</ele></trkpt>
<trkpt lat="47.628730" lon="13.002742"><ele>540.3</ele></trkpt>
<trkpt lat="47.629900" lon="13.003304"><ele>554.8</ele></trkpt>
<trkpt lat="47.630616" lon="13.003128"><ele>567.7</ele></trkpt>
<trkpt lat="47.630106" lon="13.002080"><ele>575.2</ele></trkpt>
<trkpt lat="47.630204" lon="13.001439"><ele>577.4</ele></trkpt>
<trkpt lat="47.630084" lon="13.001190"><ele>578.9</ele></trkpt>
<trkpt lat="47.629263" lon="13.000936"><ele>579.8</ele></trkpt>
<trkpt lat="47.628535" lon="13.000116"><ele>575.7</ele></trkpt>
<trkpt lat="47.628489" lon="12.998435"><ele>578.7</ele></trkpt>
<trkpt lat="47.627945" lon="12.996476"><ele>588.0</ele></trkpt>
<trkpt lat="47.627708" lon="12.995862"><ele>588.1</ele></trkpt>
<trkpt lat="47.627783" lon="12.995228"><ele>596.2</ele></trkpt>
<trkpt lat="47.627566" lon="12.994369"><ele>598.3</ele></trkpt>
<trkpt lat="47.627189" lon="12.993695"><ele>604.0</ele></trkpt>
<trkpt lat="47.627296" lon="12.991623"><ele>616.9</ele></trkpt>
<trkpt lat="47.627298" lon="12.991590"><ele>617.0</ele></trkpt>
<trkpt lat="47.626636" lon="12.991083"><ele>613.1</ele></trkpt>
<trkpt lat="47.626250" lon="12.990050"><ele>612.0</ele></trkpt>
<trkpt lat="47.626560" lon="12.989312"><ele>612.3</ele></trkpt>
<trkpt lat="47.627813" lon="12.988788"><ele>612.5</ele></trkpt>
<trkpt lat="47.628198" lon="12.988348"><ele>611.7</ele></trkpt>
<trkpt lat="47.628389" lon="12.987663"><ele>612.7</ele></trkpt>
<trkpt lat="47.628490" lon="12.985662"><ele>617.0</ele></trkpt>
<trkpt lat="47.628527" lon="12.985542"><ele>617.4</ele></trkpt>
<trkpt lat="47.629443" lon="12.984397"><ele>625.5</ele></trkpt>
<trkpt lat="47.630122" lon="12.982405"><ele>621.7</ele></trkpt>
<trkpt lat="47.630286" lon="12.982058"><ele>623.0</ele></trkpt>
<trkpt lat="47.630635" lon="12.981606"><ele>624.7</ele></trkpt>
<trkpt lat="47.631944" lon="12.980651"><ele>621.3</ele></trkpt>
<trkpt lat="47.633252" lon="12.979600"><ele>623.9</ele></trkpt>
<trkpt lat="47.633549" lon="12.979295"><ele>621.7</ele></trkpt>
<trkpt lat="47.634429" lon="12.977663"><ele>619.9</ele></trkpt>
<trkpt lat="47.634613" lon="12.977333"><ele>620.5</ele></trkpt>
<trkpt lat="47.635702" lon="12.975898"><ele>614.6</ele></trkpt>
<trkpt lat="47.636063" lon="12.975456"><ele>612.3</ele></trkpt>
<trkpt lat="47.636702" lon="12.974239"><ele>615.4</ele></trkpt>
<trkpt lat="47.637979" lon="12.973103"><ele>616.7</ele></trkpt>
<trkpt lat="47.638300" lon="12.972807"><ele>616.0</ele></trkpt>
<trkpt lat="47.638318" lon="12.972978"><ele>616.0</ele></trkpt>
<trkpt lat="47.639695" lon="12.972535"><ele>608.0</ele></trkpt>
<trkpt lat="47.639984" lon="12.972540"><ele>608.0</ele></trkpt>
<trkpt lat="47.641168" lon="12.971932"><ele>610.2</ele></trkpt>
<trkpt lat="47.642478" lon="12.971810"><ele>607.5</ele></trkpt>
<trkpt lat="47.643796" lon="12.971209"><ele>613.1</ele></trkpt>
<trkpt lat="47.644709" lon="12.970859"><ele>611.3</ele></trkpt>
<trkpt lat="47.645992" lon="12.970130"><ele>612.3</ele></trkpt>
<trkpt lat="47.646890" lon="12.969522"><ele>603.5</ele></trkpt>
<trkpt lat="47.647157" lon="12.969183"><ele>603.1</ele></trkpt>
<trkpt lat="47.647706" lon="12.967421"><ele>607.7</ele></trkpt>
<trkpt lat="47.647730" lon="12.967361"><ele>607.8</ele></trkpt>
<trkpt lat="47.648487" lon="12.965634"><ele>606.2</ele></trkpt>
<trkpt lat="47.649322" lon="12.963752"><ele>611.8</ele></trkpt>
<trkpt lat="47.649790" lon="12.962506"><ele>613.0</ele></trkpt>
<trkpt lat="47.650417" lon="12.961878"><ele>611.4</ele></trkpt>
<trkpt lat="47.651669" lon="12.961037"><ele>615.0</ele></trkpt>
<trkpt lat="47.652914" lon="12.960395"><ele>616.4</ele></trkpt>
<trkpt lat="47.654231" lon="12.959519"><ele>619.7</ele></trkpt>
<trkpt lat="47.655297" lon="12.958126"><ele>619.1</ele></trkpt>
<trkpt lat="47.656410" lon="12.956809"><ele>626.2</ele></trkpt>
<trkpt lat="47.656807" lon="12.956318"><ele>629.4</ele></trkpt>
<trkpt lat="47.658112" lon="12.955690"><ele>628.0</ele></trkpt>
<trkpt lat="47.659465" lon="12.955114"><ele>627.5</ele></trkpt>
<trkpt lat="47.660928" lon="12.954491"><ele>634.6</ele></trkpt>
<trkpt lat="47.661411" lon="12.954270"><ele>635.5</ele></trkpt>
<trkpt lat="47.662620" lon="12.953385"><ele>635.9</ele></trkpt>
<trkpt lat="47.663951" lon="12.952515"><ele>637.3</ele></trkpt>
<trkpt lat="47.664051" lon="12.952420"><ele>637.9</ele></trkpt>
<trkpt lat="47.665212" lon="12.951108"><ele>637.8</ele></trkpt>
<trkpt lat="47.666228" lon="12.949775"><ele>644.6</ele></trkpt>
<trkpt lat="47.666353" lon="12.949542"><ele>644.8</ele></trkpt>
<trkpt lat="47.666951" lon="12.947923"><ele>642.5</ele></trkpt>
<trkpt lat="47.667055" lon="12.945892"><ele>647.3</ele></trkpt>
<trkpt lat="47.667106" lon="12.945195"><ele>648.8</ele></trkpt>
<trkpt lat="47.667399" lon="12.944288"><ele>651.6</ele></trkpt>
<trkpt lat="47.668576" lon="12.943302"><ele>649.9</ele></trkpt>
<trkpt lat="47.669868" lon="12.942606"><ele>652.2</ele></trkpt>
<trkpt lat="47.671141" lon="12.941822"><ele>658.7</ele></trkpt>
<trkpt lat="47.671214" lon="12.941794"><ele>658.5</ele></trkpt>
<trkpt lat="47.671668" lon="12.941379"><ele>660.0</ele></trkpt>
<trkpt lat="47.671658" lon="12.940558"><ele>659.9</ele></trkpt>
<trkpt lat="47.672854" lon="12.939501"><ele>664.0</ele></trkpt>
<trkpt lat="47.673236" lon="12.939152"><ele>666.5</ele></trkpt>
<trkpt lat="47.674008" lon="12.939042"><ele>668.5</ele></trkpt>
<trkpt lat="47.674662" lon="12.938243"><ele>668.0</ele></trkpt>
<trkpt lat="47.675478" lon="12.937707"><ele>670.7</ele></trkpt>
<trkpt lat="47.676057" lon="12.937694"><ele>669.8</ele></trkpt>
<trkpt lat="47.677333" lon="12.936955"><ele>664.1</ele></trkpt>
<trkpt lat="47.677626" lon="12.936625"><ele>667.4</ele></trkpt>
<trkpt lat="47.678956" lon="12.935941"><ele>672.7</ele></trkpt>
<trkpt lat="47.679969" lon="12.935569"><ele>680.2</ele></trkpt>
<trkpt lat="47.680492" lon="12.935608"><ele>683.0</ele></trkpt>
<trkpt lat="47.681827" lon="12.936315"><ele>687.8</ele></trkpt>
<trkpt lat="47.683093" lon="12.936822"><ele>681.0</ele></trkpt>
<trkpt lat="47.683364" lon="12.937213"><ele>680.4</ele></trkpt>
<trkpt lat="47.684750" lon="12.937683"><ele>683.4</ele></trkpt>
<trkpt lat="47.685246" lon="12.937791"><ele>684.8</ele></trkpt>
<trkpt lat="47.685202" lon="12.938191"><ele>682.5</ele></trkpt>
<trkpt lat="47.685390" lon="12.938277"><ele>681.8</ele></trkpt>
<trkpt lat="47.686795" lon="12.938754"><ele>679.0</ele></trkpt>
<trkpt lat="47.687250" lon="12.938899"><ele>679.9</ele></trkpt>
<trkpt lat="47.687586" lon="12.938911"><ele>678.4</ele></trkpt>
<trkpt lat="47.687718" lon="12.938089"><ele>681.0</ele></trkpt>
<trkpt lat="47.689064" lon="12.938335"><ele>678.2</ele></trkpt>
<trkpt lat="47.690484" lon="12.938579"><ele>698.9</ele></trkpt>
<trkpt lat="47.691000" lon="12.938520"><ele>700.6</ele></trkpt>
<trkpt lat="47.692296" lon="12.937919"><ele>699.7</ele></trkpt>
<trkpt lat="47.693703" lon="12.937460"><ele>708.7</ele></trkpt>
<trkpt lat="47.693931" lon="12.937355"><ele>708.2</ele></trkpt>
<trkpt lat="47.695245" lon="12.936256"><ele>702.1</ele></trkpt>
<trkpt lat="47.696000" lon="12.935852"><ele>689.7</ele></trkpt>
<trkpt lat="47.697427" lon="12.935630"><ele>694.3</ele></trkpt>
<trkpt lat="47.697585" lon="12.935643"><ele>694.1</ele></trkpt>
<trkpt lat="47.697526" lon="12.935857"><ele>690.1</ele></trkpt>
<trkpt lat="47.698578" lon="12.935997"><ele>685.2</ele></trkpt>
<trkpt lat="47.699588" lon="12.935723"><ele>685.6</ele></trkpt>
<trkpt lat="47.700094" lon="12.935312"><ele>693.2</ele></trkpt>
<trkpt lat="47.700308" lon="12.935477"><ele>696.0</ele></trkpt>
<trkpt lat="47.700440" lon="12.935018"><ele>699.9</ele></trkpt>
<trkpt lat="47.700857" lon="12.934811"><ele>705.6</ele></trkpt>
<trkpt lat="47.701403" lon="12.934005"><ele>701.7</ele></trkpt>
<trkpt lat="47.702730" lon="12.933255"><ele>699.2</ele></trkpt>
<trkpt lat="47.703786" lon="12.932457"><ele>700.2</ele></trkpt>
<trkpt lat="47.704837" lon="12.931176"><ele>693.1</ele></trkpt>
<trkpt lat="47.705527" lon="12.930357"><ele>685.1</ele></trkpt>
<trkpt lat="47.706892" lon="12.929727"><ele>678.4</ele></trkpt>
<trkpt lat="47.707469" lon="12.929520"><ele>677.6</ele></trkpt>
<trkpt lat="47.708199" lon="12.927977"><ele>658.0</ele></trkpt>
<trkpt lat="47.709183" lon="12.927877"><ele>644.6</ele></trkpt>
<trkpt lat="47.709493" lon="12.927662"><ele>632.4</ele></trkpt>
<trkpt lat="47.710165" lon="12.926078"><ele>620.4</ele></trkpt>
<trkpt lat="47.710357" lon="12.924460"><ele>610.6</ele></trkpt>
<trkpt lat="47.711010" lon="12.924141"><ele>607.1</ele></trkpt>
<trkpt lat="47.712235" lon="12.923026"><ele>598.9</ele></trkpt>
<trkpt lat="47.712486" lon="12.922821"><ele>598.0</ele></trkpt>
<trkpt lat="47.713167" lon="12.921802"><ele>593.5</ele></trkpt>
<trkpt lat="47.713900" lon="12.920002"><ele>590.9</ele></trkpt>
<trkpt lat="47.714658" lon="12.918040"><ele>582.9</ele></trkpt>
<trkpt lat="47.715296" lon="12.916445"><ele>570.6</ele></trkpt>
<trkpt lat="47.716082" lon="12.914746"><ele>563.6</ele></trkpt>
<trkpt lat="47.716953" lon="12.912961"><ele>560.6</ele></trkpt>
<trkpt lat="47.717240" lon="12.912294"><ele>557.2</ele></trkpt>
<trkpt lat="47.717594" lon="12.910518"><ele>553.6</ele></trkpt>
<trkpt lat="47.717941" lon="12.908346"><ele>547.8</ele></trkpt>
<trkpt lat="47.718067" lon="12.907380"><ele>545.1</ele></trkpt>
<trkpt lat="47.718676" lon="12.905567"><ele>536.9</ele></trkpt>
<trkpt lat="47.718902" lon="12.904634"><ele>534.7</ele></trkpt>
<trkpt lat="47.719114" lon="12.902436"><ele>542.0</ele></trkpt>
<trkpt lat="47.719345" lon="12.901194"><ele>543.2</ele></trkpt>
<trkpt lat="47.719944" lon="12.901454"><ele>541.0</ele></trkpt>
<trkpt lat="47.720319" lon="12.901365"><ele>539.0</ele></trkpt>
<trkpt lat="47.721460" lon="12.900213"><ele>537.5</ele></trkpt>
<trkpt lat="47.722229" lon="12.899246"><ele>535.0</ele></trkpt>
<trkpt lat="47.721730" lon="12.897264"><ele>534.5</ele></trkpt>
<trkpt lat="47.721621" lon="12.896038"><ele>531.5</ele></trkpt>
<trkpt lat="47.721983" lon="12.894019"><ele>523.8</ele></trkpt>
<trkpt lat="47.722106" lon="12.893191"><ele>523.3</ele></trkpt>
<trkpt lat="47.722215" lon="12.890967"><ele>524.6</ele></trkpt>
<trkpt lat="47.722294" lon="12.890050"><ele>529.4</ele></trkpt>
<trkpt lat="47.722997" lon="12.889164"><ele>529.4</ele></trkpt>
<trkpt lat="47.723461" lon="12.887252"><ele>529.1</ele></trkpt>
<trkpt lat="47.723889" lon="12.886863"><ele>525.7</ele></trkpt>
<trkpt lat="47.725168" lon="12.886404"><ele>509.7</ele></trkpt>
<trkpt lat="47.725966" lon="12.885604"><ele>497.4</ele></trkpt>
<trkpt lat="47.725788" lon="12.883935"><ele>485.1</ele></trkpt>
<trkpt lat="47.726118" lon="12.883872"><ele>478.7</ele></trkpt>
<trkpt lat="47.726551" lon="12.884389"><ele>479.4</ele></trkpt>
<trkpt lat="47.726900" lon="12.883842"><ele>474.7</ele></trkpt>
</trkseg></trk></gpx>