<?xml version="1.0" encoding="UTF-8"?>
<gpx version="1.1" creator="Bad Reichenhall gravel – saját gravel-router (OSM/Overture + SRTM)" xmlns="http://www.topografix.com/GPX/1/1">
<metadata><name>Rossfeld-panorámaút – vonattal oda, bringával haza</name><desc>GENERÁLT NYOMVONAL – Vonattal Berchtesgadenbe, onnan Oberaun át fel a Rossfeld-panorámaútra (≈1550 m, Németország egyik legmagasabb útja) – a Tennengebirge és a Dachstein felett. A Zinken alatt Bad Dürrnbergbe és Halleinbe ereszkedsz, majd a Salzach és az Untersberg lábán, Grödigen és Großgmainon át tekersz haza a szállodáig.</desc><copyright author="OpenStreetMap contributors (via Overture Maps)"><license>https://opendatacommons.org/licenses/odbl/</license></copyright><time>2026-10-03T21:47:34Z</time></metadata>
<wpt lat="47.6263" lon="12.9993"><name>Berchtesgaden Hbf</name><type>station</type></wpt>
<wpt lat="47.645" lon="13.045"><name>Oberau</name><type>town</type></wpt>
<wpt lat="47.6514" lon="13.0618"><name>Rossfeld – Skihütte</name><type>view</type></wpt>
<wpt lat="47.6312" lon="13.0929"><name>Rossfeld Almkiosk – panoráma</name><type>view</type></wpt>
<wpt lat="47.6494" lon="13.0889"><name>Zinken</name><type>view</type></wpt>
<wpt lat="47.6661" lon="13.09"><name>Bad Dürrnberg – sóbánya</name><type>history</type></wpt>
<wpt lat="47.6849" lon="13.0992"><name>Hallein</name><type>town</type></wpt>
<wpt lat="47.7262" lon="13.0444"><name>St. Leonhard</name><type>town</type></wpt>
<wpt lat="47.7433" lon="12.9915"><name>Fürstenbrunn</name><type>history</type></wpt>
<wpt lat="47.7296" lon="12.918"><name>Großgmain</name><type>town</type></wpt>
<trk><name>Rossfeld-panorámaút – vonattal oda, bringával haza</name><type>gravel</type><trkseg>
<trkpt lat="47.626085" lon="12.999324"><ele>539.5</ele></trkpt>
<trkpt lat="47.625908" lon="12.999437"><ele>539.3</ele></trkpt>
<trkpt lat="47.626144" lon="12.999928"><ele>539.1</ele></trkpt>
<trkpt lat="47.626089" lon="13.000238"><ele>539.8</ele></trkpt>
<trkpt lat="47.625797" lon="13.000609"><ele>542.2</ele></trkpt>
<trkpt lat="47.625720" lon="13.001228"><ele>544.7</ele></trkpt>
<trkpt lat="47.627020" lon="13.001973"><ele>546.2</ele></trkpt>
<trkpt lat="47.627590" lon="13.002278"><ele>543.4</ele></trkpt>
<trkpt lat="47.628319" lon="13.004047"><ele>556.5</ele></trkpt>
<trkpt lat="47.628377" lon="13.004149"><ele>557.5</ele></trkpt>
<trkpt lat="47.629516" lon="13.005633"><ele>537.9</ele></trkpt>
<trkpt lat="47.630573" lon="13.007082"><ele>535.3</ele></trkpt>
<trkpt lat="47.630853" lon="13.007445"><ele>534.6</ele></trkpt>
<trkpt lat="47.631879" lon="13.008376"><ele>538.8</ele></trkpt>
<trkpt lat="47.633057" lon="13.008794"><ele>540.9</ele></trkpt>
<trkpt lat="47.634023" lon="13.009754"><ele>536.2</ele></trkpt>
<trkpt lat="47.634790" lon="13.009738"><ele>531.6</ele></trkpt>
<trkpt lat="47.635149" lon="13.010800"><ele>531.3</ele></trkpt>
<trkpt lat="47.635300" lon="13.010691"><ele>529.5</ele></trkpt>
<trkpt lat="47.635692" lon="13.012675"><ele>530.5</ele></trkpt>
<trkpt lat="47.636136" lon="13.014793"><ele>538.1</ele></trkpt>
<trkpt lat="47.636290" lon="13.015344"><ele>547.8</ele></trkpt>
<trkpt lat="47.637277" lon="13.016910"><ele>539.9</ele></trkpt>
<trkpt lat="47.637692" lon="13.017587"><ele>535.8</ele></trkpt>
<trkpt lat="47.638478" lon="13.018186"><ele>536.0</ele></trkpt>
<trkpt lat="47.639747" lon="13.017950"><ele>529.4</ele></trkpt>
<trkpt lat="47.640372" lon="13.017572"><ele>525.4</ele></trkpt>
<trkpt lat="47.641464" lon="13.017708"><ele>526.2</ele></trkpt>
<trkpt lat="47.641583" lon="13.018571"><ele>524.4</ele></trkpt>
<trkpt lat="47.641490" lon="13.020704"><ele>522.3</ele></trkpt>
<trkpt lat="47.641496" lon="13.020858"><ele>522.6</ele></trkpt>
<trkpt lat="47.641726" lon="13.022093"><ele>522.2</ele></trkpt>
<trkpt lat="47.642252" lon="13.023297"><ele>525.7</ele></trkpt>
<trkpt lat="47.643078" lon="13.023702"><ele>528.4</ele></trkpt>
<trkpt lat="47.643852" lon="13.024939"><ele>519.8</ele></trkpt>
<trkpt lat="47.644305" lon="13.026880"><ele>515.6</ele></trkpt>
<trkpt lat="47.644586" lon="13.028909"><ele>517.5</ele></trkpt>
<trkpt lat="47.644973" lon="13.030858"><ele>514.8</ele></trkpt>
<trkpt lat="47.645203" lon="13.031818"><ele>518.5</ele></trkpt>
<trkpt lat="47.645971" lon="13.033582"><ele>536.4</ele></trkpt>
<trkpt lat="47.645991" lon="13.033615"><ele>536.2</ele></trkpt>
<trkpt lat="47.646892" lon="13.034349"><ele>516.7</ele></trkpt>
<trkpt lat="47.648235" lon="13.034660"><ele>516.4</ele></trkpt>
<trkpt lat="47.649497" lon="13.034813"><ele>521.0</ele></trkpt>
<trkpt lat="47.650109" lon="13.035702"><ele>521.2</ele></trkpt>
<trkpt lat="47.651410" lon="13.036848"><ele>523.8</ele></trkpt>
<trkpt lat="47.652345" lon="13.037821"><ele>508.8</ele></trkpt>
<trkpt lat="47.653335" lon="13.039245"><ele>511.3</ele></trkpt>
<trkpt lat="47.652298" lon="13.037911"><ele>509.4</ele></trkpt>
<trkpt lat="47.652282" lon="13.037890"><ele>509.3</ele></trkpt>
<trkpt lat="47.651081" lon="13.039047"><ele>531.4</ele></trkpt>
<trkpt lat="47.650820" lon="13.039253"><ele>533.1</ele></trkpt>
<trkpt lat="47.649929" lon="13.040836"><ele>546.0</ele></trkpt>
<trkpt lat="47.649784" lon="13.041205"><ele>548.8</ele></trkpt>
<trkpt lat="47.649051" lon="13.041917"><ele>551.9</ele></trkpt>
<trkpt lat="47.648056" lon="13.043458"><ele>594.5</ele></trkpt>
<trkpt lat="47.648012" lon="13.043662"><ele>602.0</ele></trkpt>
<trkpt lat="47.647686" lon="13.043849"><ele>611.2</ele></trkpt>
<trkpt lat="47.647403" lon="13.044892"><ele>638.2</ele></trkpt>
<trkpt lat="47.647000" lon="13.044856"><ele>630.5</ele></trkpt>
<trkpt lat="47.646766" lon="13.045547"><ele>640.3</ele></trkpt>
<trkpt lat="47.646985" lon="13.045670"><ele>648.9</ele></trkpt>
<trkpt lat="47.646571" lon="13.046011"><ele>640.4</ele></trkpt>
<trkpt lat="47.646436" lon="13.046590"><ele>647.0</ele></trkpt>
<trkpt lat="47.646042" lon="13.046829"><ele>642.6</ele></trkpt>
<trkpt lat="47.646436" lon="13.046590"><ele>647.0</ele></trkpt>
<trkpt lat="47.646571" lon="13.046011"><ele>640.4</ele></trkpt>
<trkpt lat="47.646834" lon="13.045731"><ele>645.2</ele></trkpt>
<trkpt lat="47.647677" lon="13.045668"><ele>655.7</ele></trkpt>
<trkpt lat="47.648507" lon="13.046921"><ele>655.3</ele></trkpt>
<trkpt lat="47.649036" lon="13.047325"><ele>658.5</ele></trkpt>
<trkpt lat="47.649560" lon="13.048437"><ele>669.2</ele></trkpt>
<trkpt lat="47.650297" lon="13.049352"><ele>661.1</ele></trkpt>
<trkpt lat="47.650578" lon="13.050389"><ele>669.8</ele></trkpt>
<trkpt lat="47.650368" lon="13.050423"><ele>675.7</ele></trkpt>
<trkpt lat="47.650243" lon="13.051226"><ele>683.4</ele></trkpt>
<trkpt lat="47.649852" lon="13.051854"><ele>695.7</ele></trkpt>
<trkpt lat="47.649474" lon="13.053798"><ele>703.7</ele></trkpt>
<trkpt lat="47.649434" lon="13.053899"><ele>704.0</ele></trkpt>
<trkpt lat="47.648538" lon="13.054372"><ele>703.7</ele></trkpt>
<trkpt lat="47.648358" lon="13.054787"><ele>704.3</ele></trkpt>
<trkpt lat="47.648887" lon="13.056424"><ele>709.2</ele></trkpt>
<trkpt lat="47.649310" lon="13.058447"><ele>716.8</ele></trkpt>
<trkpt lat="47.649481" lon="13.059203"><ele>717.0</ele></trkpt>
<trkpt lat="47.650065" lon="13.060620"><ele>723.4</ele></trkpt>
<trkpt lat="47.650708" lon="13.061115"><ele>728.1</ele></trkpt>
<trkpt lat="47.651322" lon="13.062217"><ele>733.4</ele></trkpt>
<trkpt lat="47.651685" lon="13.064179"><ele>744.1</ele></trkpt>
<trkpt lat="47.651820" lon="13.065361"><ele>749.7</ele></trkpt>
<trkpt lat="47.652069" lon="13.066244"><ele>759.0</ele></trkpt>
<trkpt lat="47.652326" lon="13.066475"><ele>759.1</ele></trkpt>
<trkpt lat="47.652100" lon="13.068315"><ele>767.2</ele></trkpt>
<trkpt lat="47.652692" lon="13.070018"><ele>783.9</ele></trkpt>
<trkpt lat="47.653594" lon="13.071653"><ele>805.8</ele></trkpt>
<trkpt lat="47.653594" lon="13.071653"><ele>805.8</ele></trkpt>
<trkpt lat="47.653251" lon="13.073034"><ele>814.7</ele></trkpt>
<trkpt lat="47.653636" lon="13.075151"><ele>843.4</ele></trkpt>
<trkpt lat="47.653746" lon="13.075931"><ele>859.3</ele></trkpt>
<trkpt lat="47.653654" lon="13.077553"><ele>881.9</ele></trkpt>
<trkpt lat="47.653963" lon="13.077974"><ele>881.8</ele></trkpt>
<trkpt lat="47.654047" lon="13.078493"><ele>893.7</ele></trkpt>
<trkpt lat="47.653948" lon="13.078682"><ele>897.1</ele></trkpt>
<trkpt lat="47.653438" lon="13.078459"><ele>894.2</ele></trkpt>
<trkpt lat="47.653217" lon="13.078721"><ele>902.9</ele></trkpt>
<trkpt lat="47.653566" lon="13.079572"><ele>918.1</ele></trkpt>
<trkpt lat="47.653602" lon="13.080215"><ele>926.4</ele></trkpt>
<trkpt lat="47.653422" lon="13.080221"><ele>932.7</ele></trkpt>
<trkpt lat="47.653191" lon="13.079805"><ele>929.7</ele></trkpt>
<trkpt lat="47.652840" lon="13.079876"><ele>939.4</ele></trkpt>
<trkpt lat="47.651981" lon="13.079506"><ele>951.1</ele></trkpt>
<trkpt lat="47.650575" lon="13.079257"><ele>949.6</ele></trkpt>
<trkpt lat="47.649247" lon="13.078982"><ele>968.3</ele></trkpt>
<trkpt lat="47.648028" lon="13.077874"><ele>983.2</ele></trkpt>
<trkpt lat="47.647022" lon="13.077097"><ele>986.2</ele></trkpt>
<trkpt lat="47.646266" lon="13.077032"><ele>993.2</ele></trkpt>
<trkpt lat="47.645032" lon="13.075826"><ele>989.9</ele></trkpt>
<trkpt lat="47.644963" lon="13.075766"><ele>988.8</ele></trkpt>
<trkpt lat="47.643555" lon="13.075173"><ele>973.1</ele></trkpt>
<trkpt lat="47.643273" lon="13.075029"><ele>969.7</ele></trkpt>
<trkpt lat="47.642125" lon="13.075968"><ele>990.4</ele></trkpt>
<trkpt lat="47.642017" lon="13.074584"><ele>997.5</ele></trkpt>
<trkpt lat="47.641660" lon="13.073376"><ele>1018.2</ele></trkpt>
<trkpt lat="47.641646" lon="13.072503"><ele>1014.4</ele></trkpt>
<trkpt lat="47.641050" lon="13.070887"><ele>1024.3</ele></trkpt>
<trkpt lat="47.640134" lon="13.069261"><ele>1048.5</ele></trkpt>
<trkpt lat="47.640049" lon="13.069102"><ele>1049.5</ele></trkpt>
<trkpt lat="47.638972" lon="13.067872"><ele>1073.3</ele></trkpt>
<trkpt lat="47.638789" lon="13.067668"><ele>1074.6</ele></trkpt>
<trkpt lat="47.638327" lon="13.067447"><ele>1084.7</ele></trkpt>
<trkpt lat="47.637929" lon="13.067518"><ele>1085.8</ele></trkpt>
<trkpt lat="47.637806" lon="13.068066"><ele>1092.4</ele></trkpt>
<trkpt lat="47.636986" lon="13.069744"><ele>1108.0</ele></trkpt>
<trkpt lat="47.636303" lon="13.071296"><ele>1108.5</ele></trkpt>
<trkpt lat="47.635825" lon="13.072993"><ele>1136.4</ele></trkpt>
<trkpt lat="47.634744" lon="13.074402"><ele>1158.0</ele></trkpt>
<trkpt lat="47.634606" lon="13.074625"><ele>1159.4</ele></trkpt>
<trkpt lat="47.634036" lon="13.076460"><ele>1189.5</ele></trkpt>
<trkpt lat="47.633678" lon="13.076776"><ele>1188.8</ele></trkpt>
<trkpt lat="47.633285" lon="13.077630"><ele>1206.2</ele></trkpt>
<trkpt lat="47.632621" lon="13.079523"><ele>1231.1</ele></trkpt>
<trkpt lat="47.632252" lon="13.080972"><ele>1232.8</ele></trkpt>
<trkpt lat="47.632489" lon="13.082048"><ele>1248.5</ele></trkpt>
<trkpt lat="47.632331" lon="13.082402"><ele>1241.1</ele></trkpt>
<trkpt lat="47.632115" lon="13.084323"><ele>1269.1</ele></trkpt>
<trkpt lat="47.631705" lon="13.085017"><ele>1277.6</ele></trkpt>
<trkpt lat="47.631692" lon="13.085535"><ele>1287.4</ele></trkpt>
<trkpt lat="47.631325" lon="13.086498"><ele>1306.0</ele></trkpt>
<trkpt lat="47.631092" lon="13.086688"><ele>1310.9</ele></trkpt>
<trkpt lat="47.631169" lon="13.086894"><ele>1317.0</ele></trkpt>
<trkpt lat="47.631616" lon="13.087070"><ele>1323.2</ele></trkpt>
<trkpt lat="47.631876" lon="13.087661"><ele>1331.5</ele></trkpt>
<trkpt lat="47.631872" lon="13.088012"><ele>1336.8</ele></trkpt>
<trkpt lat="47.631337" lon="13.088638"><ele>1344.7</ele></trkpt>
<trkpt lat="47.630961" lon="13.088772"><ele>1348.7</ele></trkpt>
<trkpt lat="47.630991" lon="13.089411"><ele>1361.6</ele></trkpt>
<trkpt lat="47.630830" lon="13.089712"><ele>1370.8</ele></trkpt>
<trkpt lat="47.631021" lon="13.089974"><ele>1377.3</ele></trkpt>
<trkpt lat="47.631469" lon="13.089802"><ele>1380.4</ele></trkpt>
<trkpt lat="47.632924" lon="13.089976"><ele>1397.3</ele></trkpt>
<trkpt lat="47.633052" lon="13.089998"><ele>1397.0</ele></trkpt>
<trkpt lat="47.632857" lon="13.090704"><ele>1408.5</ele></trkpt>
<trkpt lat="47.632927" lon="13.092624"><ele>1416.8</ele></trkpt>
<trkpt lat="47.632633" lon="13.093454"><ele>1420.3</ele></trkpt>
<trkpt lat="47.631637" lon="13.094701"><ele>1426.0</ele></trkpt>
<trkpt lat="47.631454" lon="13.094571"><ele>1431.6</ele></trkpt>
<trkpt lat="47.631479" lon="13.094285"><ele>1435.1</ele></trkpt>
<trkpt lat="47.632299" lon="13.093111"><ele>1440.6</ele></trkpt>
<trkpt lat="47.632210" lon="13.092227"><ele>1442.1</ele></trkpt>
<trkpt lat="47.631731" lon="13.092077"><ele>1439.7</ele></trkpt>
<trkpt lat="47.630666" lon="13.093133"><ele>1457.8</ele></trkpt>
<trkpt lat="47.631264" lon="13.092820"><ele>1452.8</ele></trkpt>
<trkpt lat="47.631557" lon="13.092892"><ele>1452.7</ele></trkpt>
<trkpt lat="47.631375" lon="13.093012"><ele>1456.2</ele></trkpt>
<trkpt lat="47.631557" lon="13.092829"><ele>1452.0</ele></trkpt>
<trkpt lat="47.631264" lon="13.092820"><ele>1452.8</ele></trkpt>
<trkpt lat="47.630666" lon="13.093133"><ele>1457.8</ele></trkpt>
<trkpt lat="47.631731" lon="13.092077"><ele>1439.7</ele></trkpt>
<trkpt lat="47.632243" lon="13.092286"><ele>1442.2</ele></trkpt>
<trkpt lat="47.632343" lon="13.092691"><ele>1442.8</ele></trkpt>
<trkpt lat="47.632243" lon="13.093295"><ele>1438.9</ele></trkpt>
<trkpt lat="47.631440" lon="13.094406"><ele>1433.7</ele></trkpt>
<trkpt lat="47.631635" lon="13.094702"><ele>1426.0</ele></trkpt>
<trkpt lat="47.631561" lon="13.095279"><ele>1423.7</ele></trkpt>
<trkpt lat="47.631957" lon="13.095803"><ele>1413.5</ele></trkpt>
<trkpt lat="47.632406" lon="13.096003"><ele>1404.9</ele></trkpt>
<trkpt lat="47.633888" lon="13.095975"><ele>1378.5</ele></trkpt>
<trkpt lat="47.634465" lon="13.095906"><ele>1369.3</ele></trkpt>
<trkpt lat="47.635187" lon="13.096075"><ele>1361.8</ele></trkpt>
<trkpt lat="47.636356" lon="13.094951"><ele>1347.1</ele></trkpt>
<trkpt lat="47.636820" lon="13.094497"><ele>1335.7</ele></trkpt>
<trkpt lat="47.637820" lon="13.092783"><ele>1302.2</ele></trkpt>
<trkpt lat="47.638391" lon="13.091956"><ele>1278.6</ele></trkpt>
<trkpt lat="47.638868" lon="13.092134"><ele>1273.3</ele></trkpt>
<trkpt lat="47.639073" lon="13.092468"><ele>1269.7</ele></trkpt>
<trkpt lat="47.639663" lon="13.094401"><ele>1255.7</ele></trkpt>
<trkpt lat="47.639894" lon="13.095229"><ele>1241.0</ele></trkpt>
<trkpt lat="47.640184" lon="13.095766"><ele>1231.6</ele></trkpt>
<trkpt lat="47.640746" lon="13.095977"><ele>1223.1</ele></trkpt>
<trkpt lat="47.641876" lon="13.095519"><ele>1206.3</ele></trkpt>
<trkpt lat="47.642241" lon="13.095113"><ele>1206.5</ele></trkpt>
<trkpt lat="47.642421" lon="13.094588"><ele>1203.6</ele></trkpt>
<trkpt lat="47.642537" lon="13.093065"><ele>1196.7</ele></trkpt>
<trkpt lat="47.642224" lon="13.092152"><ele>1186.5</ele></trkpt>
<trkpt lat="47.641412" lon="13.091724"><ele>1174.5</ele></trkpt>
<trkpt lat="47.641169" lon="13.091357"><ele>1168.6</ele></trkpt>
<trkpt lat="47.641044" lon="13.090603"><ele>1162.1</ele></trkpt>
<trkpt lat="47.641194" lon="13.089730"><ele>1158.9</ele></trkpt>
<trkpt lat="47.641342" lon="13.090958"><ele>1168.7</ele></trkpt>
<trkpt lat="47.641958" lon="13.089355"><ele>1168.0</ele></trkpt>
<trkpt lat="47.643347" lon="13.089022"><ele>1179.4</ele></trkpt>
<trkpt lat="47.643569" lon="13.088929"><ele>1177.2</ele></trkpt>
<trkpt lat="47.644154" lon="13.087820"><ele>1170.2</ele></trkpt>
<trkpt lat="47.644476" lon="13.088420"><ele>1186.4</ele></trkpt>
<trkpt lat="47.644691" lon="13.088356"><ele>1191.4</ele></trkpt>
<trkpt lat="47.644982" lon="13.086278"><ele>1212.6</ele></trkpt>
<trkpt lat="47.645022" lon="13.086208"><ele>1214.3</ele></trkpt>
<trkpt lat="47.645658" lon="13.087581"><ele>1230.0</ele></trkpt>
<trkpt lat="47.645628" lon="13.085948"><ele>1249.6</ele></trkpt>
<trkpt lat="47.646291" lon="13.087082"><ele>1266.1</ele></trkpt>
<trkpt lat="47.647484" lon="13.088303"><ele>1284.8</ele></trkpt>
<trkpt lat="47.648528" lon="13.089247"><ele>1295.4</ele></trkpt>
<trkpt lat="47.649454" lon="13.088918"><ele>1305.1</ele></trkpt>
<trkpt lat="47.649333" lon="13.088356"><ele>1316.4</ele></trkpt>
<trkpt lat="47.649194" lon="13.088755"><ele>1316.9</ele></trkpt>
<trkpt lat="47.649292" lon="13.088313"><ele>1318.6</ele></trkpt>
<trkpt lat="47.649488" lon="13.088638"><ele>1308.3</ele></trkpt>
<trkpt lat="47.649454" lon="13.088918"><ele>1305.1</ele></trkpt>
<trkpt lat="47.648721" lon="13.089296"><ele>1297.4</ele></trkpt>
<trkpt lat="47.647535" lon="13.088302"><ele>1287.1</ele></trkpt>
<trkpt lat="47.647455" lon="13.088348"><ele>1283.1</ele></trkpt>
<trkpt lat="47.647716" lon="13.089375"><ele>1266.2</ele></trkpt>
<trkpt lat="47.648424" lon="13.090043"><ele>1250.7</ele></trkpt>
<trkpt lat="47.649785" lon="13.090491"><ele>1231.9</ele></trkpt>
<trkpt lat="47.649990" lon="13.090630"><ele>1217.7</ele></trkpt>
<trkpt lat="47.651422" lon="13.090839"><ele>1171.8</ele></trkpt>
<trkpt lat="47.651939" lon="13.090960"><ele>1154.2</ele></trkpt>
<trkpt lat="47.652338" lon="13.089935"><ele>1146.2</ele></trkpt>
<trkpt lat="47.653079" lon="13.090180"><ele>1126.5</ele></trkpt>
<trkpt lat="47.653488" lon="13.089911"><ele>1114.0</ele></trkpt>
<trkpt lat="47.653616" lon="13.090524"><ele>1102.2</ele></trkpt>
<trkpt lat="47.653294" lon="13.092248"><ele>1085.1</ele></trkpt>
<trkpt lat="47.653440" lon="13.092387"><ele>1074.7</ele></trkpt>
<trkpt lat="47.653693" lon="13.092082"><ele>1068.5</ele></trkpt>
<trkpt lat="47.654365" lon="13.090849"><ele>1063.9</ele></trkpt>
<trkpt lat="47.654475" lon="13.092916"><ele>1022.5</ele></trkpt>
<trkpt lat="47.654448" lon="13.093052"><ele>1019.0</ele></trkpt>
<trkpt lat="47.654675" lon="13.092983"><ele>1014.4</ele></trkpt>
<trkpt lat="47.655269" lon="13.091903"><ele>997.9</ele></trkpt>
<trkpt lat="47.655577" lon="13.089924"><ele>975.0</ele></trkpt>
<trkpt lat="47.655713" lon="13.089106"><ele>964.3</ele></trkpt>
<trkpt lat="47.656479" lon="13.089165"><ele>928.4</ele></trkpt>
<trkpt lat="47.657692" lon="13.088153"><ele>905.5</ele></trkpt>
<trkpt lat="47.658046" lon="13.087858"><ele>902.0</ele></trkpt>
<trkpt lat="47.658412" lon="13.089915"><ele>871.7</ele></trkpt>
<trkpt lat="47.658625" lon="13.090394"><ele>865.6</ele></trkpt>
<trkpt lat="47.659221" lon="13.090015"><ele>861.4</ele></trkpt>
<trkpt lat="47.660353" lon="13.090277"><ele>836.8</ele></trkpt>
<trkpt lat="47.660426" lon="13.091032"><ele>831.1</ele></trkpt>
<trkpt lat="47.660225" lon="13.092121"><ele>826.3</ele></trkpt>
<trkpt lat="47.660411" lon="13.091634"><ele>826.0</ele></trkpt>
<trkpt lat="47.660581" lon="13.091658"><ele>822.6</ele></trkpt>
<trkpt lat="47.661023" lon="13.090920"><ele>822.0</ele></trkpt>
<trkpt lat="47.661460" lon="13.090900"><ele>816.0</ele></trkpt>
<trkpt lat="47.661994" lon="13.090538"><ele>808.8</ele></trkpt>
<trkpt lat="47.663469" lon="13.090522"><ele>799.1</ele></trkpt>
<trkpt lat="47.663742" lon="13.090473"><ele>797.4</ele></trkpt>
<trkpt lat="47.664996" lon="13.089899"><ele>788.8</ele></trkpt>
<trkpt lat="47.665418" lon="13.089192"><ele>770.7</ele></trkpt>
<trkpt lat="47.665530" lon="13.089391"><ele>769.5</ele></trkpt>
<trkpt lat="47.666064" lon="13.089428"><ele>753.6</ele></trkpt>
<trkpt lat="47.666074" lon="13.089716"><ele>753.6</ele></trkpt>
<trkpt lat="47.666064" lon="13.089428"><ele>753.6</ele></trkpt>
<trkpt lat="47.667127" lon="13.089478"><ele>722.9</ele></trkpt>
<trkpt lat="47.668117" lon="13.088525"><ele>706.0</ele></trkpt>
<trkpt lat="47.669422" lon="13.088092"><ele>687.9</ele></trkpt>
<trkpt lat="47.669772" lon="13.087931"><ele>687.2</ele></trkpt>
<trkpt lat="47.670112" lon="13.087995"><ele>682.7</ele></trkpt>
<trkpt lat="47.671138" lon="13.087157"><ele>670.6</ele></trkpt>
<trkpt lat="47.671877" lon="13.085774"><ele>651.5</ele></trkpt>
<trkpt lat="47.672026" lon="13.086582"><ele>647.4</ele></trkpt>
<trkpt lat="47.672480" lon="13.087260"><ele>634.2</ele></trkpt>
<trkpt lat="47.672875" lon="13.085633"><ele>630.9</ele></trkpt>
<trkpt lat="47.673446" lon="13.084486"><ele>616.1</ele></trkpt>
<trkpt lat="47.674831" lon="13.084635"><ele>602.5</ele></trkpt>
<trkpt lat="47.675202" lon="13.084324"><ele>600.1</ele></trkpt>
<trkpt lat="47.675631" lon="13.084309"><ele>599.5</ele></trkpt>
<trkpt lat="47.676890" lon="13.084949"><ele>594.4</ele></trkpt>
<trkpt lat="47.676978" lon="13.085008"><ele>595.5</ele></trkpt>
<trkpt lat="47.676886" lon="13.085812"><ele>605.4</ele></trkpt>
<trkpt lat="47.677013" lon="13.086315"><ele>609.7</ele></trkpt>
<trkpt lat="47.678124" lon="13.087629"><ele>587.0</ele></trkpt>
<trkpt lat="47.678549" lon="13.088063"><ele>564.5</ele></trkpt>
<trkpt lat="47.679112" lon="13.088305"><ele>555.9</ele></trkpt>
<trkpt lat="47.679862" lon="13.088217"><ele>550.8</ele></trkpt>
<trkpt lat="47.679499" lon="13.088562"><ele>542.3</ele></trkpt>
<trkpt lat="47.680720" lon="13.088394"><ele>538.3</ele></trkpt>
<trkpt lat="47.680704" lon="13.088766"><ele>538.7</ele></trkpt>
<trkpt lat="47.680918" lon="13.088942"><ele>539.0</ele></trkpt>
<trkpt lat="47.680772" lon="13.090082"><ele>514.1</ele></trkpt>
<trkpt lat="47.680915" lon="13.090537"><ele>505.4</ele></trkpt>
<trkpt lat="47.681400" lon="13.090844"><ele>498.3</ele></trkpt>
<trkpt lat="47.682097" lon="13.090713"><ele>482.2</ele></trkpt>
<trkpt lat="47.680967" lon="13.091434"><ele>473.9</ele></trkpt>
<trkpt lat="47.680918" lon="13.091659"><ele>470.8</ele></trkpt>
<trkpt lat="47.681226" lon="13.091997"><ele>465.9</ele></trkpt>
<trkpt lat="47.681121" lon="13.092577"><ele>462.4</ele></trkpt>
<trkpt lat="47.681442" lon="13.092813"><ele>458.7</ele></trkpt>
<trkpt lat="47.681398" lon="13.092970"><ele>457.6</ele></trkpt>
<trkpt lat="47.682106" lon="13.094266"><ele>451.8</ele></trkpt>
<trkpt lat="47.682738" lon="13.096048"><ele>448.7</ele></trkpt>
<trkpt lat="47.683178" lon="13.097696"><ele>445.1</ele></trkpt>
<trkpt lat="47.683956" lon="13.097738"><ele>445.4</ele></trkpt>
<trkpt lat="47.684817" lon="13.099210"><ele>444.4</ele></trkpt>
<trkpt lat="47.684844" lon="13.099260"><ele>444.3</ele></trkpt>
<trkpt lat="47.684961" lon="13.099010"><ele>443.2</ele></trkpt>
<trkpt lat="47.684061" lon="13.097766"><ele>445.6</ele></trkpt>
<trkpt lat="47.683811" lon="13.096615"><ele>445.5</ele></trkpt>
<trkpt lat="47.684334" lon="13.096197"><ele>443.7</ele></trkpt>
<trkpt lat="47.685137" lon="13.094959"><ele>440.1</ele></trkpt>
<trkpt lat="47.684801" lon="13.094371"><ele>439.1</ele></trkpt>
<trkpt lat="47.685462" lon="13.092504"><ele>443.6</ele></trkpt>
<trkpt lat="47.685591" lon="13.092205"><ele>444.6</ele></trkpt>
<trkpt lat="47.685560" lon="13.091939"><ele>443.9</ele></trkpt>
<trkpt lat="47.685281" lon="13.091958"><ele>445.0</ele></trkpt>
<trkpt lat="47.684802" lon="13.091544"><ele>442.7</ele></trkpt>
<trkpt lat="47.684902" lon="13.090937"><ele>441.7</ele></trkpt>
<trkpt lat="47.684695" lon="13.089966"><ele>445.6</ele></trkpt>
<trkpt lat="47.684801" lon="13.089479"><ele>448.6</ele></trkpt>
<trkpt lat="47.684935" lon="13.089625"><ele>447.6</ele></trkpt>
<trkpt lat="47.686054" lon="13.088228"><ele>445.3</ele></trkpt>
<trkpt lat="47.686703" lon="13.087376"><ele>455.1</ele></trkpt>
<trkpt lat="47.687880" lon="13.086077"><ele>452.5</ele></trkpt>
<trkpt lat="47.689086" lon="13.084845"><ele>452.4</ele></trkpt>
<trkpt lat="47.689499" lon="13.084447"><ele>446.2</ele></trkpt>
<trkpt lat="47.690744" lon="13.083568"><ele>440.8</ele></trkpt>
<trkpt lat="47.691728" lon="13.082921"><ele>440.9</ele></trkpt>
<trkpt lat="47.693123" lon="13.082256"><ele>438.7</ele></trkpt>
<trkpt lat="47.694465" lon="13.081760"><ele>441.7</ele></trkpt>
<trkpt lat="47.695606" lon="13.081137"><ele>443.4</ele></trkpt>
<trkpt lat="47.696829" lon="13.080149"><ele>439.5</ele></trkpt>
<trkpt lat="47.698094" lon="13.079075"><ele>440.0</ele></trkpt>
<trkpt lat="47.699287" lon="13.078064"><ele>441.0</ele></trkpt>
<trkpt lat="47.699782" lon="13.077653"><ele>440.6</ele></trkpt>
<trkpt lat="47.699499" lon="13.076685"><ele>443.6</ele></trkpt>
<trkpt lat="47.699188" lon="13.076870"><ele>443.3</ele></trkpt>
<trkpt lat="47.698910" lon="13.075817"><ele>443.8</ele></trkpt>
<trkpt lat="47.700201" lon="13.074750"><ele>441.6</ele></trkpt>
<trkpt lat="47.701318" lon="13.073803"><ele>443.7</ele></trkpt>
<trkpt lat="47.702158" lon="13.072000"><ele>441.2</ele></trkpt>
<trkpt lat="47.702546" lon="13.071184"><ele>437.8</ele></trkpt>
<trkpt lat="47.703561" lon="13.069492"><ele>437.5</ele></trkpt>
<trkpt lat="47.704419" lon="13.068367"><ele>443.0</ele></trkpt>
<trkpt lat="47.705676" lon="13.067850"><ele>438.9</ele></trkpt>
<trkpt lat="47.707198" lon="13.067893"><ele>436.2</ele></trkpt>
<trkpt lat="47.708551" lon="13.067894"><ele>435.8</ele></trkpt>
<trkpt lat="47.709136" lon="13.067778"><ele>437.0</ele></trkpt>
<trkpt lat="47.710080" lon="13.067192"><ele>436.2</ele></trkpt>
<trkpt lat="47.711170" lon="13.065875"><ele>436.8</ele></trkpt>
<trkpt lat="47.712080" lon="13.064851"><ele>435.8</ele></trkpt>
<trkpt lat="47.713267" lon="13.063863"><ele>435.2</ele></trkpt>
<trkpt lat="47.714565" lon="13.062787"><ele>438.4</ele></trkpt>
<trkpt lat="47.715141" lon="13.062366"><ele>436.3</ele></trkpt>
<trkpt lat="47.716393" lon="13.061550"><ele>439.4</ele></trkpt>
<trkpt lat="47.716775" lon="13.061307"><ele>443.3</ele></trkpt>
<trkpt lat="47.718157" lon="13.061217"><ele>445.4</ele></trkpt>
<trkpt lat="47.718608" lon="13.061282"><ele>442.0</ele></trkpt>
<trkpt lat="47.718642" lon="13.060947"><ele>442.1</ele></trkpt>
<trkpt lat="47.719701" lon="13.059556"><ele>440.0</ele></trkpt>
<trkpt lat="47.720689" lon="13.058095"><ele>443.9</ele></trkpt>
<trkpt lat="47.720793" lon="13.057924"><ele>444.5</ele></trkpt>
<trkpt lat="47.721193" lon="13.057053"><ele>447.5</ele></trkpt>
<trkpt lat="47.721233" lon="13.056133"><ele>447.6</ele></trkpt>
<trkpt lat="47.721542" lon="13.055540"><ele>449.5</ele></trkpt>
<trkpt lat="47.722889" lon="13.054777"><ele>444.1</ele></trkpt>
<trkpt lat="47.723058" lon="13.054637"><ele>443.7</ele></trkpt>
<trkpt lat="47.723579" lon="13.052645"><ele>446.5</ele></trkpt>
<trkpt lat="47.724099" lon="13.050654"><ele>445.9</ele></trkpt>
<trkpt lat="47.724620" lon="13.048662"><ele>447.9</ele></trkpt>
<trkpt lat="47.724849" lon="13.047786"><ele>448.1</ele></trkpt>
<trkpt lat="47.725111" lon="13.045787"><ele>450.4</ele></trkpt>
<trkpt lat="47.725760" lon="13.045819"><ele>449.5</ele></trkpt>
<trkpt lat="47.725955" lon="13.046008"><ele>450.4</ele></trkpt>
<trkpt lat="47.725855" lon="13.044654"><ele>448.0</ele></trkpt>
<trkpt lat="47.726493" lon="13.044612"><ele>450.9</ele></trkpt>
<trkpt lat="47.726653" lon="13.043738"><ele>452.5</ele></trkpt>
<trkpt lat="47.727585" lon="13.044504"><ele>459.9</ele></trkpt>
<trkpt lat="47.728347" lon="13.044560"><ele>458.4</ele></trkpt>
<trkpt lat="47.729777" lon="13.043968"><ele>454.7</ele></trkpt>
<trkpt lat="47.730206" lon="13.043747"><ele>454.1</ele></trkpt>
<trkpt lat="47.731353" lon="13.042693"><ele>450.2</ele></trkpt>
<trkpt lat="47.732686" lon="13.041737"><ele>451.3</ele></trkpt>
<trkpt lat="47.733309" lon="13.041268"><ele>450.6</ele></trkpt>
<trkpt lat="47.734454" lon="13.039875"><ele>445.0</ele></trkpt>
<trkpt lat="47.735008" lon="13.039290"><ele>447.6</ele></trkpt>
<trkpt lat="47.735063" lon="13.037940"><ele>446.8</ele></trkpt>
<trkpt lat="47.736436" lon="13.037645"><ele>450.5</ele></trkpt>
<trkpt lat="47.736745" lon="13.037643"><ele>448.1</ele></trkpt>
<trkpt lat="47.737459" lon="13.037166"><ele>451.2</ele></trkpt>
<trkpt lat="47.738831" lon="13.036985"><ele>446.9</ele></trkpt>
<trkpt lat="47.739367" lon="13.037102"><ele>447.4</ele></trkpt>
<trkpt lat="47.739251" lon="13.036562"><ele>446.4</ele></trkpt>
<trkpt lat="47.739619" lon="13.036243"><ele>446.0</ele></trkpt>
<trkpt lat="47.738946" lon="13.035163"><ele>446.8</ele></trkpt>
<trkpt lat="47.739428" lon="13.034304"><ele>449.5</ele></trkpt>
<trkpt lat="47.739067" lon="13.033051"><ele>447.8</ele></trkpt>
<trkpt lat="47.739256" lon="13.032163"><ele>456.0</ele></trkpt>
<trkpt lat="47.740545" lon="13.031350"><ele>452.4</ele></trkpt>
<trkpt lat="47.741906" lon="13.030511"><ele>450.5</ele></trkpt>
<trkpt lat="47.742478" lon="13.030167"><ele>449.3</ele></trkpt>
<trkpt lat="47.743644" lon="13.030116"><ele>444.8</ele></trkpt>
<trkpt lat="47.744200" lon="13.028233"><ele>447.3</ele></trkpt>
<trkpt lat="47.744852" lon="13.026477"><ele>454.5</ele></trkpt>
<trkpt lat="47.745521" lon="13.024586"><ele>451.4</ele></trkpt>
<trkpt lat="47.746200" lon="13.022660"><ele>448.2</ele></trkpt>
<trkpt lat="47.746665" lon="13.021374"><ele>449.1</ele></trkpt>
<trkpt lat="47.747447" lon="13.019614"><ele>446.0</ele></trkpt>
<trkpt lat="47.747711" lon="13.019057"><ele>438.8</ele></trkpt>
<trkpt lat="47.748067" lon="13.017824"><ele>441.6</ele></trkpt>
<trkpt lat="47.748767" lon="13.016984"><ele>440.6</ele></trkpt>
<trkpt lat="47.749026" lon="13.016407"><ele>444.9</ele></trkpt>
<trkpt lat="47.749379" lon="13.015071"><ele>442.0</ele></trkpt>
<trkpt lat="47.749589" lon="13.013051"><ele>443.5</ele></trkpt>
<trkpt lat="47.749275" lon="13.012797"><ele>448.9</ele></trkpt>
<trkpt lat="47.747946" lon="13.012685"><ele>459.8</ele></trkpt>
<trkpt lat="47.747453" lon="13.012129"><ele>456.2</ele></trkpt>
<trkpt lat="47.747340" lon="13.011674"><ele>452.1</ele></trkpt>
<trkpt lat="47.747244" lon="13.009551"><ele>448.8</ele></trkpt>
<trkpt lat="47.747152" lon="13.007425"><ele>445.3</ele></trkpt>
<trkpt lat="47.747136" lon="13.005586"><ele>446.0</ele></trkpt>
<trkpt lat="47.747488" lon="13.003523"><ele>444.9</ele></trkpt>
<trkpt lat="47.747642" lon="13.002834"><ele>452.4</ele></trkpt>
<trkpt lat="47.747341" lon="13.002462"><ele>452.8</ele></trkpt>
<trkpt lat="47.747451" lon="13.002248"><ele>453.2</ele></trkpt>
<trkpt lat="47.746953" lon="13.000727"><ele>459.1</ele></trkpt>
<trkpt lat="47.745957" lon="12.999215"><ele>462.1</ele></trkpt>
<trkpt lat="47.745107" lon="12.997650"><ele>457.8</ele></trkpt>
<trkpt lat="47.744085" lon="12.996326"><ele>459.4</ele></trkpt>
<trkpt lat="47.743557" lon="12.995140"><ele>465.1</ele></trkpt>
<trkpt lat="47.743667" lon="12.994073"><ele>462.1</ele></trkpt>
<trkpt lat="47.743164" lon="12.993906"><ele>471.2</ele></trkpt>
<trkpt lat="47.742673" lon="12.993285"><ele>468.1</ele></trkpt>
<trkpt lat="47.742470" lon="12.992626"><ele>462.5</ele></trkpt>
<trkpt lat="47.742061" lon="12.992594"><ele>463.0</ele></trkpt>
<trkpt lat="47.742003" lon="12.992246"><ele>463.3</ele></trkpt>
<trkpt lat="47.743029" lon="12.991661"><ele>459.1</ele></trkpt>
<trkpt lat="47.744464" lon="12.992112"><ele>452.9</ele></trkpt>
<trkpt lat="47.745807" lon="12.992670"><ele>450.1</ele></trkpt>
<trkpt lat="47.746200" lon="12.992831"><ele>449.9</ele></trkpt>
<trkpt lat="47.746895" lon="12.992957"><ele>449.9</ele></trkpt>
<trkpt lat="47.747123" lon="12.992647"><ele>452.3</ele></trkpt>
<trkpt lat="47.747890" lon="12.992745"><ele>445.3</ele></trkpt>
<trkpt lat="47.748439" lon="12.993133"><ele>444.1</ele></trkpt>
<trkpt lat="47.748646" lon="12.994091"><ele>445.6</ele></trkpt>
<trkpt lat="47.749950" lon="12.994585"><ele>443.5</ele></trkpt>
<trkpt lat="47.750236" lon="12.994630"><ele>443.1</ele></trkpt>
<trkpt lat="47.751159" lon="12.993294"><ele>441.1</ele></trkpt>
<trkpt lat="47.751629" lon="12.991861"><ele>460.0</ele></trkpt>
<trkpt lat="47.752223" lon="12.991067"><ele>471.0</ele></trkpt>
<trkpt lat="47.753356" lon="12.989925"><ele>474.7</ele></trkpt>
<trkpt lat="47.754594" lon="12.988660"><ele>465.9</ele></trkpt>
<trkpt lat="47.755880" lon="12.987616"><ele>460.2</ele></trkpt>
<trkpt lat="47.757054" lon="12.986330"><ele>450.8</ele></trkpt>
<trkpt lat="47.757100" lon="12.986289"><ele>450.9</ele></trkpt>
<trkpt lat="47.758516" lon="12.985495"><ele>447.0</ele></trkpt>
<trkpt lat="47.759082" lon="12.985155"><ele>443.2</ele></trkpt>
<trkpt lat="47.759427" lon="12.984441"><ele>444.3</ele></trkpt>
<trkpt lat="47.759805" lon="12.982750"><ele>441.0</ele></trkpt>
<trkpt lat="47.760109" lon="12.982199"><ele>440.9</ele></trkpt>
<trkpt lat="47.760647" lon="12.980188"><ele>438.2</ele></trkpt>
<trkpt lat="47.761260" lon="12.978377"><ele>439.8</ele></trkpt>
<trkpt lat="47.761285" lon="12.978304"><ele>440.0</ele></trkpt>
<trkpt lat="47.761535" lon="12.977771"><ele>440.0</ele></trkpt>
<trkpt lat="47.762024" lon="12.977421"><ele>438.7</ele></trkpt>
<trkpt lat="47.762940" lon="12.975809"><ele>439.3</ele></trkpt>
<trkpt lat="47.763929" lon="12.974435"><ele>438.9</ele></trkpt>
<trkpt lat="47.764108" lon="12.974001"><ele>438.8</ele></trkpt>
<trkpt lat="47.764659" lon="12.972009"><ele>436.9</ele></trkpt>
<trkpt lat="47.765063" lon="12.970258"><ele>436.8</ele></trkpt>
<trkpt lat="47.764884" lon="12.968884"><ele>438.6</ele></trkpt>
<trkpt lat="47.764525" lon="12.967713"><ele>435.2</ele></trkpt>
<trkpt lat="47.765821" lon="12.966758"><ele>435.0</ele></trkpt>
<trkpt lat="47.766359" lon="12.966323"><ele>436.0</ele></trkpt>
<trkpt lat="47.766504" lon="12.965809"><ele>436.8</ele></trkpt>
<trkpt lat="47.767307" lon="12.964873"><ele>438.0</ele></trkpt>
<trkpt lat="47.767466" lon="12.964149"><ele>438.8</ele></trkpt>
<trkpt lat="47.767302" lon="12.962950"><ele>441.6</ele></trkpt>
<trkpt lat="47.767804" lon="12.961000"><ele>443.1</ele></trkpt>
<trkpt lat="47.768005" lon="12.960277"><ele>437.0</ele></trkpt>
<trkpt lat="47.768535" lon="12.958843"><ele>436.8</ele></trkpt>
<trkpt lat="47.768277" lon="12.957779"><ele>436.2</ele></trkpt>
<trkpt lat="47.767418" lon="12.956298"><ele>444.0</ele></trkpt>
<trkpt lat="47.768004" lon="12.954510"><ele>450.9</ele></trkpt>
<trkpt lat="47.766819" lon="12.953256"><ele>473.6</ele></trkpt>
<trkpt lat="47.765695" lon="12.951957"><ele>486.6</ele></trkpt>
<trkpt lat="47.765403" lon="12.951633"><ele>491.0</ele></trkpt>
<trkpt lat="47.764258" lon="12.950244"><ele>480.9</ele></trkpt>
<trkpt lat="47.763188" lon="12.948721"><ele>489.1</ele></trkpt>
<trkpt lat="47.762517" lon="12.947905"><ele>477.8</ele></trkpt>
<trkpt lat="47.761347" lon="12.946939"><ele>476.1</ele></trkpt>
<trkpt lat="47.760061" lon="12.945789"><ele>477.9</ele></trkpt>
<trkpt lat="47.759127" lon="12.945347"><ele>480.9</ele></trkpt>
<trkpt lat="47.757734" lon="12.945176"><ele>486.6</ele></trkpt>
<trkpt lat="47.756265" lon="12.944877"><ele>480.0</ele></trkpt>
<trkpt lat="47.754779" lon="12.944589"><ele>480.5</ele></trkpt>
<trkpt lat="47.753869" lon="12.944420"><ele>490.2</ele></trkpt>
<trkpt lat="47.752505" lon="12.944300"><ele>482.4</ele></trkpt>
<trkpt lat="47.751471" lon="12.944369"><ele>483.0</ele></trkpt>
<trkpt lat="47.750577" lon="12.943973"><ele>486.5</ele></trkpt>
<trkpt lat="47.749514" lon="12.942745"><ele>485.3</ele></trkpt>
<trkpt lat="47.749413" lon="12.942561"><ele>485.8</ele></trkpt>
<trkpt lat="47.749116" lon="12.941807"><ele>485.8</ele></trkpt>
<trkpt lat="47.748706" lon="12.939737"><ele>490.3</ele></trkpt>
<trkpt lat="47.748415" lon="12.938724"><ele>493.3</ele></trkpt>
<trkpt lat="47.747560" lon="12.937036"><ele>494.2</ele></trkpt>
<trkpt lat="47.746955" lon="12.936038"><ele>491.4</ele></trkpt>
<trkpt lat="47.746279" lon="12.934060"><ele>491.0</ele></trkpt>
<trkpt lat="47.745997" lon="12.933445"><ele>491.8</ele></trkpt>
<trkpt lat="47.745108" lon="12.932049"><ele>499.5</ele></trkpt>
<trkpt lat="47.744226" lon="12.931150"><ele>506.8</ele></trkpt>
<trkpt lat="47.743619" lon="12.930804"><ele>509.4</ele></trkpt>
<trkpt lat="47.742276" lon="12.930587"><ele>519.2</ele></trkpt>
<trkpt lat="47.741783" lon="12.930535"><ele>521.5</ele></trkpt>
<trkpt lat="47.740874" lon="12.930055"><ele>530.9</ele></trkpt>
<trkpt lat="47.740162" lon="12.929012"><ele>535.8</ele></trkpt>
<trkpt lat="47.739550" lon="12.927018"><ele>536.7</ele></trkpt>
<trkpt lat="47.739400" lon="12.926687"><ele>537.8</ele></trkpt>
<trkpt lat="47.738462" lon="12.925320"><ele>538.4</ele></trkpt>
<trkpt lat="47.737958" lon="12.924249"><ele>538.7</ele></trkpt>
<trkpt lat="47.736607" lon="12.924005"><ele>542.7</ele></trkpt>
<trkpt lat="47.736062" lon="12.923835"><ele>550.9</ele></trkpt>
<trkpt lat="47.735891" lon="12.923196"><ele>546.3</ele></trkpt>
<trkpt lat="47.735688" lon="12.923016"><ele>545.1</ele></trkpt>
<trkpt lat="47.734284" lon="12.922359"><ele>562.6</ele></trkpt>
<trkpt lat="47.732990" lon="12.921817"><ele>575.1</ele></trkpt>
<trkpt lat="47.732756" lon="12.921788"><ele>571.7</ele></trkpt>
<trkpt lat="47.731994" lon="12.920758"><ele>563.4</ele></trkpt>
<trkpt lat="47.731616" lon="12.919500"><ele>553.1</ele></trkpt>
<trkpt lat="47.730230" lon="12.919169"><ele>545.8</ele></trkpt>
<trkpt lat="47.730013" lon="12.919124"><ele>545.0</ele></trkpt>
<trkpt lat="47.730129" lon="12.918141"><ele>547.3</ele></trkpt>
<trkpt lat="47.729815" lon="12.917865"><ele>546.2</ele></trkpt>
<trkpt lat="47.729908" lon="12.917122"><ele>550.7</ele></trkpt>
<trkpt lat="47.729441" lon="12.916610"><ele>547.4</ele></trkpt>
<trkpt lat="47.728115" lon="12.916082"><ele>533.6</ele></trkpt>
<trkpt lat="47.728115" lon="12.916082"><ele>533.6</ele></trkpt>
<trkpt lat="47.728029" lon="12.915656"><ele>535.1</ele></trkpt>
<trkpt lat="47.726973" lon="12.914500"><ele>530.5</ele></trkpt>
<trkpt lat="47.726831" lon="12.914290"><ele>530.9</ele></trkpt>
<trkpt lat="47.726342" lon="12.913132"><ele>533.8</ele></trkpt>
<trkpt lat="47.726927" lon="12.912532"><ele>532.0</ele></trkpt>
<trkpt lat="47.726592" lon="12.910496"><ele>525.6</ele></trkpt>
<trkpt lat="47.726250" lon="12.909189"><ele>528.0</ele></trkpt>
<trkpt lat="47.726264" lon="12.908442"><ele>526.9</ele></trkpt>
<trkpt lat="47.725999" lon="12.907854"><ele>523.9</ele></trkpt>
<trkpt lat="47.725708" lon="12.907874"><ele>523.8</ele></trkpt>
<trkpt lat="47.725460" lon="12.907184"><ele>522.3</ele></trkpt>
<trkpt lat="47.725175" lon="12.907376"><ele>524.3</ele></trkpt>
<trkpt lat="47.725077" lon="12.906975"><ele>523.8</ele></trkpt>
<trkpt lat="47.724741" lon="12.907242"><ele>525.0</ele></trkpt>
<trkpt lat="47.724342" lon="12.905774"><ele>523.6</ele></trkpt>
<trkpt lat="47.724433" lon="12.904563"><ele>517.1</ele></trkpt>
<trkpt lat="47.724666" lon="12.904631"><ele>517.0</ele></trkpt>
<trkpt lat="47.726119" lon="12.904016"><ele>514.4</ele></trkpt>
<trkpt lat="47.726775" lon="12.903780"><ele>509.4</ele></trkpt>
<trkpt lat="47.726141" lon="12.902601"><ele>511.2</ele></trkpt>
<trkpt lat="47.725862" lon="12.901486"><ele>511.1</ele></trkpt>
<trkpt lat="47.724820" lon="12.899949"><ele>516.4</ele></trkpt>
<trkpt lat="47.724419" lon="12.899550"><ele>521.2</ele></trkpt>
<trkpt lat="47.723974" lon="12.898381"><ele>523.6</ele></trkpt>
<trkpt lat="47.723615" lon="12.896421"><ele>522.0</ele></trkpt>
<trkpt lat="47.723393" lon="12.894388"><ele>518.7</ele></trkpt>
<trkpt lat="47.723243" lon="12.893164"><ele>517.6</ele></trkpt>
<trkpt lat="47.723304" lon="12.891044"><ele>521.7</ele></trkpt>
<trkpt lat="47.723289" lon="12.889793"><ele>525.9</ele></trkpt>
<trkpt lat="47.723140" lon="12.888319"><ele>529.3</ele></trkpt>
<trkpt lat="47.723461" lon="12.887252"><ele>529.1</ele></trkpt>
<trkpt lat="47.723889" lon="12.886863"><ele>525.7</ele></trkpt>
<trkpt lat="47.725168" lon="12.886404"><ele>509.7</ele></trkpt>
<trkpt lat="47.725966" lon="12.885604"><ele>497.4</ele></trkpt>
<trkpt lat="47.726011" lon="12.885221"><ele>494.8</ele></trkpt>
<trkpt lat="47.725770" lon="12.884096"><ele>486.8</ele></trkpt>
<trkpt lat="47.725849" lon="12.883854"><ele>483.2</ele></trkpt>
<trkpt lat="47.726118" lon="12.883872"><ele>478.7</ele></trkpt>
<trkpt lat="47.726551" lon="12.884389"><ele>479.4</ele></trkpt>
<trkpt lat="47.726900" lon="12.883842"><ele>474.7</ele></trkpt>
</trkseg></trk></gpx>