<?xml version="1.0" encoding="UTF-8"?>
<gpx version="1.1" creator="Bad Reichenhall gravel – saját gravel-router (OSM/Overture + SRTM)" xmlns="http://www.topografix.com/GPX/1/1">
<metadata><name>Saalach–Mußbach kör</name><desc>GENERÁLT NYOMVONAL – Csendes völgyi kör a Saalach mentén délre. A Saalachsee gátja után a régi völgyi utakon Jettenbergbe, majd a Mußbach erdei murvaútján kapaszkodsz, és a folyó túlsó partján gurulsz vissza. Kevés szint, sok murva – kezdőknek is jó.</desc><copyright author="OpenStreetMap contributors (via Overture Maps)"><license>https://opendatacommons.org/licenses/odbl/</license></copyright><time>2026-10-04T18:10:20Z</time></metadata>
<wpt lat="47.7086" lon="12.8573"><name>Saalachsee</name><type>lake</type></wpt>
<wpt lat="47.6905" lon="12.7999"><name>Schneizlreuth</name><type>town</type></wpt>
<wpt lat="47.6806" lon="12.7811"><name>Mußbach</name><type>gorge</type></wpt>
<wpt lat="47.6711" lon="12.794"><name>Oberjettenberg</name><type>view</type></wpt>
<wpt lat="47.7126" lon="12.8145"><name>Nesselgraben (sóvezeték)</name><type>history</type></wpt>
<trk><name>Saalach–Mußbach kör</name><type>gravel</type><trkseg>
<trkpt lat="47.726900" lon="12.883842"><ele>474.7</ele></trkpt>
<trkpt lat="47.726618" lon="12.884372"><ele>478.2</ele></trkpt>
<trkpt lat="47.726415" lon="12.884346"><ele>480.9</ele></trkpt>
<trkpt lat="47.726118" lon="12.883872"><ele>478.7</ele></trkpt>
<trkpt lat="47.725662" lon="12.883798"><ele>485.2</ele></trkpt>
<trkpt lat="47.724996" lon="12.883195"><ele>481.5</ele></trkpt>
<trkpt lat="47.724541" lon="12.882248"><ele>476.1</ele></trkpt>
<trkpt lat="47.724935" lon="12.881320"><ele>473.9</ele></trkpt>
<trkpt lat="47.724408" lon="12.880823"><ele>471.3</ele></trkpt>
<trkpt lat="47.724405" lon="12.880228"><ele>469.2</ele></trkpt>
<trkpt lat="47.723321" lon="12.879027"><ele>472.5</ele></trkpt>
<trkpt lat="47.722405" lon="12.877908"><ele>475.0</ele></trkpt>
<trkpt lat="47.722643" lon="12.877188"><ele>474.5</ele></trkpt>
<trkpt lat="47.721432" lon="12.876214"><ele>473.8</ele></trkpt>
<trkpt lat="47.720980" lon="12.875902"><ele>474.1</ele></trkpt>
<trkpt lat="47.719662" lon="12.875133"><ele>475.0</ele></trkpt>
<trkpt lat="47.719071" lon="12.874906"><ele>474.0</ele></trkpt>
<trkpt lat="47.719013" lon="12.874041"><ele>473.5</ele></trkpt>
<trkpt lat="47.718862" lon="12.873988"><ele>473.5</ele></trkpt>
<trkpt lat="47.718701" lon="12.873208"><ele>472.2</ele></trkpt>
<trkpt lat="47.718795" lon="12.872987"><ele>472.0</ele></trkpt>
<trkpt lat="47.718210" lon="12.871326"><ele>471.9</ele></trkpt>
<trkpt lat="47.717198" lon="12.871147"><ele>472.3</ele></trkpt>
<trkpt lat="47.716622" lon="12.871827"><ele>476.5</ele></trkpt>
<trkpt lat="47.716326" lon="12.871935"><ele>478.7</ele></trkpt>
<trkpt lat="47.715181" lon="12.870608"><ele>494.4</ele></trkpt>
<trkpt lat="47.715086" lon="12.870465"><ele>493.6</ele></trkpt>
<trkpt lat="47.714607" lon="12.868544"><ele>505.8</ele></trkpt>
<trkpt lat="47.714415" lon="12.868056"><ele>506.8</ele></trkpt>
<trkpt lat="47.714100" lon="12.867572"><ele>511.9</ele></trkpt>
<trkpt lat="47.713417" lon="12.867130"><ele>493.0</ele></trkpt>
<trkpt lat="47.713177" lon="12.866096"><ele>500.6</ele></trkpt>
<trkpt lat="47.712663" lon="12.865415"><ele>486.8</ele></trkpt>
<trkpt lat="47.712598" lon="12.863369"><ele>498.4</ele></trkpt>
<trkpt lat="47.712081" lon="12.861504"><ele>519.8</ele></trkpt>
<trkpt lat="47.711914" lon="12.860534"><ele>532.9</ele></trkpt>
<trkpt lat="47.711623" lon="12.859634"><ele>514.3</ele></trkpt>
<trkpt lat="47.710768" lon="12.857903"><ele>513.0</ele></trkpt>
<trkpt lat="47.710486" lon="12.857321"><ele>511.4</ele></trkpt>
<trkpt lat="47.710017" lon="12.855380"><ele>531.0</ele></trkpt>
<trkpt lat="47.709778" lon="12.854735"><ele>529.7</ele></trkpt>
<trkpt lat="47.709023" lon="12.853081"><ele>516.9</ele></trkpt>
<trkpt lat="47.708778" lon="12.852737"><ele>501.6</ele></trkpt>
<trkpt lat="47.707472" lon="12.851849"><ele>501.4</ele></trkpt>
<trkpt lat="47.706503" lon="12.851254"><ele>502.9</ele></trkpt>
<trkpt lat="47.705374" lon="12.849818"><ele>503.0</ele></trkpt>
<trkpt lat="47.704740" lon="12.849087"><ele>502.9</ele></trkpt>
<trkpt lat="47.703585" lon="12.848463"><ele>503.8</ele></trkpt>
<trkpt lat="47.702267" lon="12.847343"><ele>499.6</ele></trkpt>
<trkpt lat="47.700957" lon="12.846256"><ele>502.9</ele></trkpt>
<trkpt lat="47.699900" lon="12.845203"><ele>502.5</ele></trkpt>
<trkpt lat="47.698605" lon="12.844553"><ele>509.4</ele></trkpt>
<trkpt lat="47.698554" lon="12.844528"><ele>509.6</ele></trkpt>
<trkpt lat="47.697140" lon="12.844275"><ele>508.8</ele></trkpt>
<trkpt lat="47.696956" lon="12.844225"><ele>512.2</ele></trkpt>
<trkpt lat="47.695536" lon="12.844284"><ele>506.8</ele></trkpt>
<trkpt lat="47.695030" lon="12.844173"><ele>505.7</ele></trkpt>
<trkpt lat="47.693696" lon="12.843210"><ele>505.8</ele></trkpt>
<trkpt lat="47.693165" lon="12.842793"><ele>507.9</ele></trkpt>
<trkpt lat="47.691823" lon="12.842552"><ele>507.8</ele></trkpt>
<trkpt lat="47.691291" lon="12.842746"><ele>503.1</ele></trkpt>
<trkpt lat="47.690636" lon="12.842294"><ele>508.9</ele></trkpt>
<trkpt lat="47.689523" lon="12.841075"><ele>501.3</ele></trkpt>
<trkpt lat="47.688743" lon="12.840063"><ele>503.2</ele></trkpt>
<trkpt lat="47.687762" lon="12.838550"><ele>505.9</ele></trkpt>
<trkpt lat="47.686749" lon="12.836884"><ele>505.7</ele></trkpt>
<trkpt lat="47.686742" lon="12.836873"><ele>505.6</ele></trkpt>
<trkpt lat="47.685923" lon="12.835278"><ele>510.6</ele></trkpt>
<trkpt lat="47.685390" lon="12.833246"><ele>507.8</ele></trkpt>
<trkpt lat="47.685071" lon="12.831918"><ele>516.1</ele></trkpt>
<trkpt lat="47.684642" lon="12.830901"><ele>515.9</ele></trkpt>
<trkpt lat="47.684153" lon="12.830463"><ele>510.0</ele></trkpt>
<trkpt lat="47.683452" lon="12.829178"><ele>518.9</ele></trkpt>
<trkpt lat="47.682274" lon="12.827879"><ele>508.5</ele></trkpt>
<trkpt lat="47.682023" lon="12.827519"><ele>507.5</ele></trkpt>
<trkpt lat="47.681789" lon="12.826468"><ele>514.2</ele></trkpt>
<trkpt lat="47.681713" lon="12.824229"><ele>512.8</ele></trkpt>
<trkpt lat="47.681702" lon="12.824078"><ele>513.2</ele></trkpt>
<trkpt lat="47.681771" lon="12.823028"><ele>512.9</ele></trkpt>
<trkpt lat="47.682045" lon="12.821872"><ele>508.7</ele></trkpt>
<trkpt lat="47.682607" lon="12.820563"><ele>509.9</ele></trkpt>
<trkpt lat="47.682975" lon="12.818990"><ele>504.6</ele></trkpt>
<trkpt lat="47.683727" lon="12.817306"><ele>516.4</ele></trkpt>
<trkpt lat="47.684469" lon="12.815474"><ele>509.8</ele></trkpt>
<trkpt lat="47.684828" lon="12.814768"><ele>512.4</ele></trkpt>
<trkpt lat="47.685468" lon="12.813909"><ele>513.0</ele></trkpt>
<trkpt lat="47.686795" lon="12.813181"><ele>516.0</ele></trkpt>
<trkpt lat="47.686927" lon="12.813088"><ele>517.4</ele></trkpt>
<trkpt lat="47.687554" lon="12.812316"><ele>526.7</ele></trkpt>
<trkpt lat="47.687680" lon="12.811754"><ele>521.6</ele></trkpt>
<trkpt lat="47.687625" lon="12.811050"><ele>517.7</ele></trkpt>
<trkpt lat="47.687018" lon="12.809314"><ele>510.8</ele></trkpt>
<trkpt lat="47.687216" lon="12.807335"><ele>512.9</ele></trkpt>
<trkpt lat="47.687256" lon="12.807135"><ele>513.5</ele></trkpt>
<trkpt lat="47.687914" lon="12.805361"><ele>513.5</ele></trkpt>
<trkpt lat="47.688016" lon="12.805151"><ele>513.8</ele></trkpt>
<trkpt lat="47.688909" lon="12.804260"><ele>513.3</ele></trkpt>
<trkpt lat="47.689952" lon="12.802744"><ele>515.5</ele></trkpt>
<trkpt lat="47.690153" lon="12.802132"><ele>512.3</ele></trkpt>
<trkpt lat="47.689934" lon="12.800667"><ele>513.2</ele></trkpt>
<trkpt lat="47.690141" lon="12.799715"><ele>517.7</ele></trkpt>
<trkpt lat="47.689499" lon="12.799610"><ele>512.9</ele></trkpt>
<trkpt lat="47.688568" lon="12.797914"><ele>516.2</ele></trkpt>
<trkpt lat="47.687960" lon="12.797038"><ele>513.4</ele></trkpt>
<trkpt lat="47.687916" lon="12.796638"><ele>513.5</ele></trkpt>
<trkpt lat="47.687404" lon="12.796340"><ele>512.4</ele></trkpt>
<trkpt lat="47.686305" lon="12.794961"><ele>518.8</ele></trkpt>
<trkpt lat="47.685200" lon="12.793519"><ele>526.9</ele></trkpt>
<trkpt lat="47.684537" lon="12.792819"><ele>525.2</ele></trkpt>
<trkpt lat="47.685621" lon="12.794209"><ele>523.5</ele></trkpt>
<trkpt lat="47.686723" lon="12.795652"><ele>513.7</ele></trkpt>
<trkpt lat="47.687816" lon="12.796857"><ele>511.8</ele></trkpt>
<trkpt lat="47.688175" lon="12.797307"><ele>515.2</ele></trkpt>
<trkpt lat="47.689077" lon="12.798835"><ele>509.6</ele></trkpt>
<trkpt lat="47.689499" lon="12.799610"><ele>512.9</ele></trkpt>
<trkpt lat="47.690233" lon="12.799670"><ele>520.9</ele></trkpt>
<trkpt lat="47.691323" lon="12.800783"><ele>519.4</ele></trkpt>
<trkpt lat="47.691973" lon="12.800639"><ele>524.8</ele></trkpt>
<trkpt lat="47.693044" lon="12.801137"><ele>527.8</ele></trkpt>
<trkpt lat="47.693879" lon="12.802038"><ele>519.2</ele></trkpt>
<trkpt lat="47.693869" lon="12.802404"><ele>515.9</ele></trkpt>
<trkpt lat="47.695019" lon="12.802709"><ele>524.8</ele></trkpt>
<trkpt lat="47.695811" lon="12.802558"><ele>548.5</ele></trkpt>
<trkpt lat="47.697090" lon="12.801831"><ele>534.6</ele></trkpt>
<trkpt lat="47.698021" lon="12.801210"><ele>532.0</ele></trkpt>
<trkpt lat="47.698734" lon="12.800986"><ele>545.4</ele></trkpt>
<trkpt lat="47.700085" lon="12.800995"><ele>571.3</ele></trkpt>
<trkpt lat="47.701463" lon="12.800827"><ele>576.5</ele></trkpt>
<trkpt lat="47.702460" lon="12.801327"><ele>594.2</ele></trkpt>
<trkpt lat="47.703589" lon="12.802420"><ele>607.5</ele></trkpt>
<trkpt lat="47.703957" lon="12.802728"><ele>614.0</ele></trkpt>
<trkpt lat="47.704307" lon="12.804469"><ele>625.0</ele></trkpt>
<trkpt lat="47.704922" lon="12.805084"><ele>628.6</ele></trkpt>
<trkpt lat="47.705123" lon="12.805555"><ele>630.9</ele></trkpt>
<trkpt lat="47.704907" lon="12.806915"><ele>625.1</ele></trkpt>
<trkpt lat="47.704979" lon="12.807462"><ele>626.1</ele></trkpt>
<trkpt lat="47.705752" lon="12.808832"><ele>625.4</ele></trkpt>
<trkpt lat="47.706523" lon="12.809296"><ele>625.6</ele></trkpt>
<trkpt lat="47.708010" lon="12.808942"><ele>644.1</ele></trkpt>
<trkpt lat="47.708551" lon="12.808979"><ele>626.0</ele></trkpt>
<trkpt lat="47.709833" lon="12.809976"><ele>597.1</ele></trkpt>
<trkpt lat="47.710704" lon="12.810407"><ele>604.2</ele></trkpt>
<trkpt lat="47.711546" lon="12.811746"><ele>591.5</ele></trkpt>
<trkpt lat="47.712533" lon="12.812863"><ele>587.6</ele></trkpt>
<trkpt lat="47.713113" lon="12.814081"><ele>575.2</ele></trkpt>
<trkpt lat="47.714115" lon="12.815596"><ele>566.2</ele></trkpt>
<trkpt lat="47.714343" lon="12.815928"><ele>562.1</ele></trkpt>
<trkpt lat="47.715448" lon="12.817295"><ele>548.4</ele></trkpt>
<trkpt lat="47.716194" lon="12.819247"><ele>541.7</ele></trkpt>
<trkpt lat="47.716701" lon="12.820515"><ele>540.9</ele></trkpt>
<trkpt lat="47.717279" lon="12.822557"><ele>543.0</ele></trkpt>
<trkpt lat="47.717786" lon="12.824528"><ele>545.9</ele></trkpt>
<trkpt lat="47.718143" lon="12.825712"><ele>546.0</ele></trkpt>
<trkpt lat="47.717896" lon="12.827738"><ele>546.4</ele></trkpt>
<trkpt lat="47.717734" lon="12.829377"><ele>545.9</ele></trkpt>
<trkpt lat="47.718313" lon="12.831364"><ele>538.2</ele></trkpt>
<trkpt lat="47.718429" lon="12.831845"><ele>539.4</ele></trkpt>
<trkpt lat="47.718296" lon="12.833994"><ele>541.0</ele></trkpt>
<trkpt lat="47.718257" lon="12.836048"><ele>543.4</ele></trkpt>
<trkpt lat="47.718253" lon="12.836588"><ele>533.5</ele></trkpt>
<trkpt lat="47.717739" lon="12.838622"><ele>516.9</ele></trkpt>
<trkpt lat="47.717731" lon="12.840686"><ele>529.3</ele></trkpt>
<trkpt lat="47.717740" lon="12.840867"><ele>530.7</ele></trkpt>
<trkpt lat="47.718240" lon="12.842846"><ele>516.1</ele></trkpt>
<trkpt lat="47.718710" lon="12.844736"><ele>499.7</ele></trkpt>
<trkpt lat="47.719617" lon="12.845690"><ele>489.8</ele></trkpt>
<trkpt lat="47.719854" lon="12.846180"><ele>485.0</ele></trkpt>
<trkpt lat="47.720155" lon="12.848331"><ele>481.9</ele></trkpt>
<trkpt lat="47.720430" lon="12.850055"><ele>473.7</ele></trkpt>
<trkpt lat="47.720279" lon="12.852100"><ele>466.0</ele></trkpt>
<trkpt lat="47.720191" lon="12.854211"><ele>466.4</ele></trkpt>
<trkpt lat="47.720185" lon="12.854434"><ele>466.7</ele></trkpt>
<trkpt lat="47.720282" lon="12.856532"><ele>466.0</ele></trkpt>
<trkpt lat="47.720475" lon="12.858605"><ele>465.0</ele></trkpt>
<trkpt lat="47.720882" lon="12.860575"><ele>467.7</ele></trkpt>
<trkpt lat="47.720964" lon="12.860885"><ele>467.5</ele></trkpt>
<trkpt lat="47.721586" lon="12.862816"><ele>467.7</ele></trkpt>
<trkpt lat="47.722175" lon="12.864214"><ele>469.8</ele></trkpt>
<trkpt lat="47.722574" lon="12.866050"><ele>470.3</ele></trkpt>
<trkpt lat="47.722774" lon="12.868141"><ele>470.3</ele></trkpt>
<trkpt lat="47.722792" lon="12.868990"><ele>469.7</ele></trkpt>
<trkpt lat="47.722760" lon="12.870441"><ele>468.5</ele></trkpt>
<trkpt lat="47.722524" lon="12.871530"><ele>471.0</ele></trkpt>
<trkpt lat="47.722782" lon="12.871867"><ele>471.4</ele></trkpt>
<trkpt lat="47.721992" lon="12.873068"><ele>473.2</ele></trkpt>
<trkpt lat="47.721734" lon="12.873819"><ele>470.7</ele></trkpt>
<trkpt lat="47.722979" lon="12.874459"><ele>473.7</ele></trkpt>
<trkpt lat="47.723610" lon="12.874859"><ele>471.5</ele></trkpt>
<trkpt lat="47.724860" lon="12.875096"><ele>469.0</ele></trkpt>
<trkpt lat="47.725003" lon="12.875649"><ele>469.0</ele></trkpt>
<trkpt lat="47.725997" lon="12.876659"><ele>472.4</ele></trkpt>
<trkpt lat="47.725694" lon="12.877619"><ele>470.9</ele></trkpt>
<trkpt lat="47.726952" lon="12.878517"><ele>471.0</ele></trkpt>
<trkpt lat="47.728187" lon="12.879707"><ele>471.5</ele></trkpt>
<trkpt lat="47.729074" lon="12.880274"><ele>469.3</ele></trkpt>
<trkpt lat="47.729690" lon="12.881168"><ele>467.4</ele></trkpt>
<trkpt lat="47.728766" lon="12.882934"><ele>468.2</ele></trkpt>
<trkpt lat="47.728118" lon="12.884187"><ele>469.7</ele></trkpt>
<trkpt lat="47.727687" lon="12.883896"><ele>471.3</ele></trkpt>
<trkpt lat="47.727494" lon="12.883113"><ele>470.2</ele></trkpt>
<trkpt lat="47.726900" lon="12.883842"><ele>474.7</ele></trkpt>
</trkseg></trk></gpx>