<?xml version="1.0" encoding="UTF-8"?>
<gpx version="1.1" creator="Bad Reichenhall gravel – saját gravel-router (OSM/Overture + SRTM)" xmlns="http://www.topografix.com/GPX/1/1">
<metadata><name>Saalach–Unken kör (Mußbach + Thumsee)</name><desc>GENERÁLT NYOMVONAL – A Saalach–Mußbach kör hosszabb, hegyek közti változata. A Saalachsee mellett a Kiblinger-bringaúton és egy rövid B21-es szakaszon jutsz Schneizlreuthba, onnan a Saalach-völgy csendes útjain Melleck–Unken irányába Ausztriába. Unkenből az Unkenbach völgyében a Friedlwirtig mész (jó kávé-/ebédmegálló), ez a fordulópont, mert onnan nyugatra már 18%-os a fal. Visszafelé a Mußbach mellett Schneizlreuthig, majd a Thumsee-n és a Nesselgraben mellett gurulsz haza. Nincs tolós szakasz, a legmeredekebb rész is 13% alatti.</desc><copyright author="OpenStreetMap contributors (via Overture Maps)"><license>https://opendatacommons.org/licenses/odbl/</license></copyright><time>2026-10-04T23:02:32Z</time></metadata>
<wpt lat="47.7031" lon="12.8496"><name>Saalachsee – Kiblinger-bringaút</name><type>lake</type></wpt>
<wpt lat="47.6905" lon="12.7999"><name>Schneizlreuth</name><type>town</type></wpt>
<wpt lat="47.662" lon="12.752"><name>Melleck – osztrák határ</name><type>town</type></wpt>
<wpt lat="47.647" lon="12.727"><name>Unken</name><type>town</type></wpt>
<wpt lat="47.6452" lon="12.6949"><name>Friedlwirt – fordulópont (Unkenbach-völgy)</name><type>view</type></wpt>
<wpt lat="47.6806" lon="12.7811"><name>Mußbach</name><type>gorge</type></wpt>
<wpt lat="47.7126" lon="12.8145"><name>Nesselgraben (sóvezeték)</name><type>history</type></wpt>
<wpt lat="47.7196" lon="12.8273"><name>Thumsee</name><type>lake</type></wpt>
<trk><name>Saalach–Unken kör (Mußbach + Thumsee)</name><type>gravel</type><trkseg>
<trkpt lat="47.726900" lon="12.883842"><ele>474.7</ele></trkpt>
<trkpt lat="47.726618" lon="12.884372"><ele>478.2</ele></trkpt>
<trkpt lat="47.726415" lon="12.884346"><ele>480.9</ele></trkpt>
<trkpt lat="47.726118" lon="12.883872"><ele>478.7</ele></trkpt>
<trkpt lat="47.725662" lon="12.883798"><ele>485.2</ele></trkpt>
<trkpt lat="47.724996" lon="12.883195"><ele>481.5</ele></trkpt>
<trkpt lat="47.724541" lon="12.882248"><ele>476.1</ele></trkpt>
<trkpt lat="47.724935" lon="12.881320"><ele>473.9</ele></trkpt>
<trkpt lat="47.724408" lon="12.880823"><ele>471.3</ele></trkpt>
<trkpt lat="47.724405" lon="12.880228"><ele>469.2</ele></trkpt>
<trkpt lat="47.723321" lon="12.879027"><ele>472.5</ele></trkpt>
<trkpt lat="47.722405" lon="12.877908"><ele>475.0</ele></trkpt>
<trkpt lat="47.722643" lon="12.877188"><ele>474.5</ele></trkpt>
<trkpt lat="47.721432" lon="12.876214"><ele>473.8</ele></trkpt>
<trkpt lat="47.720980" lon="12.875902"><ele>474.1</ele></trkpt>
<trkpt lat="47.719662" lon="12.875133"><ele>475.0</ele></trkpt>
<trkpt lat="47.719071" lon="12.874906"><ele>474.0</ele></trkpt>
<trkpt lat="47.719013" lon="12.874041"><ele>473.5</ele></trkpt>
<trkpt lat="47.718862" lon="12.873988"><ele>473.5</ele></trkpt>
<trkpt lat="47.718701" lon="12.873208"><ele>472.2</ele></trkpt>
<trkpt lat="47.718795" lon="12.872987"><ele>472.0</ele></trkpt>
<trkpt lat="47.718210" lon="12.871326"><ele>471.9</ele></trkpt>
<trkpt lat="47.717198" lon="12.871147"><ele>472.3</ele></trkpt>
<trkpt lat="47.716622" lon="12.871827"><ele>476.5</ele></trkpt>
<trkpt lat="47.716326" lon="12.871935"><ele>478.7</ele></trkpt>
<trkpt lat="47.715181" lon="12.870608"><ele>494.4</ele></trkpt>
<trkpt lat="47.715086" lon="12.870465"><ele>493.6</ele></trkpt>
<trkpt lat="47.714607" lon="12.868544"><ele>505.8</ele></trkpt>
<trkpt lat="47.714415" lon="12.868056"><ele>506.8</ele></trkpt>
<trkpt lat="47.714100" lon="12.867572"><ele>511.9</ele></trkpt>
<trkpt lat="47.713417" lon="12.867130"><ele>493.0</ele></trkpt>
<trkpt lat="47.713177" lon="12.866096"><ele>500.6</ele></trkpt>
<trkpt lat="47.712663" lon="12.865415"><ele>486.8</ele></trkpt>
<trkpt lat="47.712598" lon="12.863369"><ele>498.4</ele></trkpt>
<trkpt lat="47.712081" lon="12.861504"><ele>519.8</ele></trkpt>
<trkpt lat="47.711914" lon="12.860534"><ele>532.9</ele></trkpt>
<trkpt lat="47.711623" lon="12.859634"><ele>514.3</ele></trkpt>
<trkpt lat="47.710768" lon="12.857903"><ele>513.0</ele></trkpt>
<trkpt lat="47.710486" lon="12.857321"><ele>511.4</ele></trkpt>
<trkpt lat="47.710017" lon="12.855380"><ele>531.0</ele></trkpt>
<trkpt lat="47.709778" lon="12.854735"><ele>529.7</ele></trkpt>
<trkpt lat="47.709023" lon="12.853081"><ele>516.9</ele></trkpt>
<trkpt lat="47.708778" lon="12.852737"><ele>501.6</ele></trkpt>
<trkpt lat="47.707472" lon="12.851849"><ele>501.4</ele></trkpt>
<trkpt lat="47.706503" lon="12.851254"><ele>502.9</ele></trkpt>
<trkpt lat="47.705374" lon="12.849818"><ele>503.0</ele></trkpt>
<trkpt lat="47.704740" lon="12.849087"><ele>502.9</ele></trkpt>
<trkpt lat="47.703585" lon="12.848463"><ele>503.8</ele></trkpt>
<trkpt lat="47.702267" lon="12.847343"><ele>499.6</ele></trkpt>
<trkpt lat="47.700957" lon="12.846256"><ele>502.9</ele></trkpt>
<trkpt lat="47.699900" lon="12.845203"><ele>502.5</ele></trkpt>
<trkpt lat="47.698605" lon="12.844553"><ele>509.4</ele></trkpt>
<trkpt lat="47.698554" lon="12.844528"><ele>509.6</ele></trkpt>
<trkpt lat="47.697140" lon="12.844275"><ele>508.8</ele></trkpt>
<trkpt lat="47.696956" lon="12.844225"><ele>512.2</ele></trkpt>
<trkpt lat="47.695536" lon="12.844284"><ele>506.8</ele></trkpt>
<trkpt lat="47.695030" lon="12.844173"><ele>505.7</ele></trkpt>
<trkpt lat="47.693696" lon="12.843210"><ele>505.8</ele></trkpt>
<trkpt lat="47.693165" lon="12.842793"><ele>507.9</ele></trkpt>
<trkpt lat="47.691823" lon="12.842552"><ele>507.8</ele></trkpt>
<trkpt lat="47.691291" lon="12.842746"><ele>503.1</ele></trkpt>
<trkpt lat="47.690636" lon="12.842294"><ele>508.9</ele></trkpt>
<trkpt lat="47.689523" lon="12.841075"><ele>501.3</ele></trkpt>
<trkpt lat="47.688743" lon="12.840063"><ele>503.2</ele></trkpt>
<trkpt lat="47.687762" lon="12.838550"><ele>505.9</ele></trkpt>
<trkpt lat="47.686749" lon="12.836884"><ele>505.7</ele></trkpt>
<trkpt lat="47.686742" lon="12.836873"><ele>505.6</ele></trkpt>
<trkpt lat="47.685923" lon="12.835278"><ele>510.6</ele></trkpt>
<trkpt lat="47.685390" lon="12.833246"><ele>507.8</ele></trkpt>
<trkpt lat="47.685071" lon="12.831918"><ele>516.1</ele></trkpt>
<trkpt lat="47.684642" lon="12.830901"><ele>515.9</ele></trkpt>
<trkpt lat="47.684153" lon="12.830463"><ele>510.0</ele></trkpt>
<trkpt lat="47.683452" lon="12.829178"><ele>518.9</ele></trkpt>
<trkpt lat="47.682274" lon="12.827879"><ele>508.5</ele></trkpt>
<trkpt lat="47.682023" lon="12.827519"><ele>507.5</ele></trkpt>
<trkpt lat="47.681789" lon="12.826468"><ele>514.2</ele></trkpt>
<trkpt lat="47.681713" lon="12.824229"><ele>512.8</ele></trkpt>
<trkpt lat="47.681702" lon="12.824078"><ele>513.2</ele></trkpt>
<trkpt lat="47.682009" lon="12.821986"><ele>509.2</ele></trkpt>
<trkpt lat="47.682607" lon="12.820563"><ele>509.9</ele></trkpt>
<trkpt lat="47.682975" lon="12.818990"><ele>504.6</ele></trkpt>
<trkpt lat="47.683727" lon="12.817306"><ele>516.4</ele></trkpt>
<trkpt lat="47.684469" lon="12.815474"><ele>509.8</ele></trkpt>
<trkpt lat="47.684828" lon="12.814768"><ele>512.4</ele></trkpt>
<trkpt lat="47.685702" lon="12.813704"><ele>512.0</ele></trkpt>
<trkpt lat="47.687084" lon="12.812957"><ele>519.7</ele></trkpt>
<trkpt lat="47.687140" lon="12.812911"><ele>520.7</ele></trkpt>
<trkpt lat="47.687604" lon="12.812184"><ele>526.6</ele></trkpt>
<trkpt lat="47.687625" lon="12.811050"><ele>517.7</ele></trkpt>
<trkpt lat="47.687018" lon="12.809314"><ele>510.8</ele></trkpt>
<trkpt lat="47.687216" lon="12.807335"><ele>512.9</ele></trkpt>
<trkpt lat="47.687256" lon="12.807135"><ele>513.5</ele></trkpt>
<trkpt lat="47.687914" lon="12.805361"><ele>513.5</ele></trkpt>
<trkpt lat="47.688016" lon="12.805151"><ele>513.8</ele></trkpt>
<trkpt lat="47.688814" lon="12.804392"><ele>514.7</ele></trkpt>
<trkpt lat="47.689868" lon="12.802865"><ele>515.1</ele></trkpt>
<trkpt lat="47.690048" lon="12.802546"><ele>515.4</ele></trkpt>
<trkpt lat="47.690156" lon="12.801903"><ele>510.4</ele></trkpt>
<trkpt lat="47.689934" lon="12.800667"><ele>513.2</ele></trkpt>
<trkpt lat="47.690141" lon="12.799715"><ele>517.7</ele></trkpt>
<trkpt lat="47.689499" lon="12.799610"><ele>512.9</ele></trkpt>
<trkpt lat="47.688568" lon="12.797914"><ele>516.2</ele></trkpt>
<trkpt lat="47.687960" lon="12.797038"><ele>513.4</ele></trkpt>
<trkpt lat="47.687916" lon="12.796638"><ele>513.5</ele></trkpt>
<trkpt lat="47.687404" lon="12.796340"><ele>512.4</ele></trkpt>
<trkpt lat="47.686305" lon="12.794961"><ele>518.8</ele></trkpt>
<trkpt lat="47.685200" lon="12.793519"><ele>526.9</ele></trkpt>
<trkpt lat="47.684603" lon="12.792763"><ele>527.6</ele></trkpt>
<trkpt lat="47.683532" lon="12.791648"><ele>522.1</ele></trkpt>
<trkpt lat="47.683104" lon="12.791170"><ele>525.0</ele></trkpt>
<trkpt lat="47.682130" lon="12.789691"><ele>527.6</ele></trkpt>
<trkpt lat="47.681164" lon="12.788276"><ele>535.8</ele></trkpt>
<trkpt lat="47.680950" lon="12.787988"><ele>538.2</ele></trkpt>
<trkpt lat="47.680336" lon="12.787393"><ele>533.5</ele></trkpt>
<trkpt lat="47.679468" lon="12.786979"><ele>522.8</ele></trkpt>
<trkpt lat="47.678773" lon="12.786259"><ele>521.5</ele></trkpt>
<trkpt lat="47.678736" lon="12.785893"><ele>526.0</ele></trkpt>
<trkpt lat="47.677743" lon="12.784351"><ele>527.6</ele></trkpt>
<trkpt lat="47.676742" lon="12.782803"><ele>544.0</ele></trkpt>
<trkpt lat="47.676714" lon="12.782753"><ele>544.0</ele></trkpt>
<trkpt lat="47.675425" lon="12.781709"><ele>535.8</ele></trkpt>
<trkpt lat="47.674224" lon="12.780713"><ele>525.7</ele></trkpt>
<trkpt lat="47.673567" lon="12.780243"><ele>533.3</ele></trkpt>
<trkpt lat="47.672932" lon="12.779520"><ele>530.0</ele></trkpt>
<trkpt lat="47.672233" lon="12.778282"><ele>527.5</ele></trkpt>
<trkpt lat="47.672021" lon="12.778154"><ele>524.8</ele></trkpt>
<trkpt lat="47.671735" lon="12.777215"><ele>534.2</ele></trkpt>
<trkpt lat="47.670798" lon="12.776271"><ele>528.9</ele></trkpt>
<trkpt lat="47.670298" lon="12.774696"><ele>538.3</ele></trkpt>
<trkpt lat="47.669830" lon="12.773812"><ele>535.3</ele></trkpt>
<trkpt lat="47.668661" lon="12.772784"><ele>519.9</ele></trkpt>
<trkpt lat="47.668535" lon="12.772666"><ele>520.5</ele></trkpt>
<trkpt lat="47.668049" lon="12.772005"><ele>516.7</ele></trkpt>
<trkpt lat="47.668002" lon="12.771662"><ele>519.5</ele></trkpt>
<trkpt lat="47.668181" lon="12.771339"><ele>522.8</ele></trkpt>
<trkpt lat="47.667617" lon="12.770038"><ele>523.0</ele></trkpt>
<trkpt lat="47.667575" lon="12.767826"><ele>533.7</ele></trkpt>
<trkpt lat="47.667441" lon="12.766845"><ele>535.0</ele></trkpt>
<trkpt lat="47.667601" lon="12.765637"><ele>538.6</ele></trkpt>
<trkpt lat="47.667336" lon="12.763551"><ele>531.4</ele></trkpt>
<trkpt lat="47.667331" lon="12.763449"><ele>531.6</ele></trkpt>
<trkpt lat="47.667549" lon="12.761381"><ele>546.4</ele></trkpt>
<trkpt lat="47.667614" lon="12.760841"><ele>552.4</ele></trkpt>
<trkpt lat="47.667501" lon="12.758615"><ele>563.0</ele></trkpt>
<trkpt lat="47.666753" lon="12.757663"><ele>553.6</ele></trkpt>
<trkpt lat="47.666282" lon="12.757432"><ele>553.2</ele></trkpt>
<trkpt lat="47.664845" lon="12.757363"><ele>544.0</ele></trkpt>
<trkpt lat="47.664327" lon="12.757969"><ele>535.4</ele></trkpt>
<trkpt lat="47.664007" lon="12.757225"><ele>533.3</ele></trkpt>
<trkpt lat="47.663644" lon="12.756995"><ele>528.4</ele></trkpt>
<trkpt lat="47.663662" lon="12.756293"><ele>527.2</ele></trkpt>
<trkpt lat="47.663897" lon="12.755722"><ele>531.3</ele></trkpt>
<trkpt lat="47.664183" lon="12.754113"><ele>543.4</ele></trkpt>
<trkpt lat="47.664075" lon="12.752936"><ele>543.6</ele></trkpt>
<trkpt lat="47.664425" lon="12.751467"><ele>549.3</ele></trkpt>
<trkpt lat="47.664333" lon="12.750717"><ele>550.4</ele></trkpt>
<trkpt lat="47.663768" lon="12.748817"><ele>544.7</ele></trkpt>
<trkpt lat="47.663218" lon="12.747393"><ele>542.5</ele></trkpt>
<trkpt lat="47.662563" lon="12.746580"><ele>537.0</ele></trkpt>
<trkpt lat="47.662267" lon="12.745491"><ele>544.6</ele></trkpt>
<trkpt lat="47.662060" lon="12.745380"><ele>540.0</ele></trkpt>
<trkpt lat="47.661408" lon="12.743790"><ele>540.1</ele></trkpt>
<trkpt lat="47.661056" lon="12.742052"><ele>536.7</ele></trkpt>
<trkpt lat="47.659911" lon="12.740720"><ele>535.7</ele></trkpt>
<trkpt lat="47.659591" lon="12.740392"><ele>535.8</ele></trkpt>
<trkpt lat="47.659262" lon="12.739794"><ele>534.3</ele></trkpt>
<trkpt lat="47.658940" lon="12.737847"><ele>534.5</ele></trkpt>
<trkpt lat="47.658748" lon="12.736569"><ele>535.7</ele></trkpt>
<trkpt lat="47.658230" lon="12.735271"><ele>541.0</ele></trkpt>
<trkpt lat="47.657731" lon="12.734700"><ele>541.8</ele></trkpt>
<trkpt lat="47.657180" lon="12.734426"><ele>541.2</ele></trkpt>
<trkpt lat="47.655690" lon="12.734563"><ele>538.2</ele></trkpt>
<trkpt lat="47.655658" lon="12.734561"><ele>538.0</ele></trkpt>
<trkpt lat="47.654664" lon="12.734157"><ele>536.3</ele></trkpt>
<trkpt lat="47.654168" lon="12.733685"><ele>538.0</ele></trkpt>
<trkpt lat="47.653798" lon="12.734037"><ele>536.5</ele></trkpt>
<trkpt lat="47.653554" lon="12.734022"><ele>535.4</ele></trkpt>
<trkpt lat="47.652524" lon="12.732485"><ele>535.8</ele></trkpt>
<trkpt lat="47.652147" lon="12.733338"><ele>537.7</ele></trkpt>
<trkpt lat="47.651177" lon="12.732361"><ele>537.3</ele></trkpt>
<trkpt lat="47.650027" lon="12.731573"><ele>537.4</ele></trkpt>
<trkpt lat="47.649845" lon="12.731026"><ele>539.2</ele></trkpt>
<trkpt lat="47.649895" lon="12.730493"><ele>540.0</ele></trkpt>
<trkpt lat="47.648561" lon="12.729907"><ele>543.2</ele></trkpt>
<trkpt lat="47.648343" lon="12.729808"><ele>542.7</ele></trkpt>
<trkpt lat="47.647639" lon="12.729696"><ele>539.2</ele></trkpt>
<trkpt lat="47.646260" lon="12.729886"><ele>546.4</ele></trkpt>
<trkpt lat="47.645791" lon="12.729889"><ele>550.9</ele></trkpt>
<trkpt lat="47.644820" lon="12.729098"><ele>568.2</ele></trkpt>
<trkpt lat="47.643990" lon="12.727515"><ele>561.7</ele></trkpt>
<trkpt lat="47.643683" lon="12.726945"><ele>557.8</ele></trkpt>
<trkpt lat="47.642724" lon="12.726238"><ele>547.7</ele></trkpt>
<trkpt lat="47.642415" lon="12.724118"><ele>549.6</ele></trkpt>
<trkpt lat="47.642343" lon="12.723675"><ele>549.9</ele></trkpt>
<trkpt lat="47.642304" lon="12.721718"><ele>555.2</ele></trkpt>
<trkpt lat="47.642689" lon="12.721438"><ele>563.1</ele></trkpt>
<trkpt lat="47.642903" lon="12.720412"><ele>571.3</ele></trkpt>
<trkpt lat="47.643642" lon="12.720085"><ele>583.0</ele></trkpt>
<trkpt lat="47.644454" lon="12.718502"><ele>581.7</ele></trkpt>
<trkpt lat="47.644877" lon="12.717637"><ele>584.3</ele></trkpt>
<trkpt lat="47.645058" lon="12.716458"><ele>587.3</ele></trkpt>
<trkpt lat="47.644741" lon="12.714919"><ele>589.3</ele></trkpt>
<trkpt lat="47.644940" lon="12.713828"><ele>591.9</ele></trkpt>
<trkpt lat="47.644764" lon="12.712176"><ele>591.9</ele></trkpt>
<trkpt lat="47.644913" lon="12.710738"><ele>605.2</ele></trkpt>
<trkpt lat="47.645136" lon="12.709866"><ele>604.2</ele></trkpt>
<trkpt lat="47.646131" lon="12.708978"><ele>611.7</ele></trkpt>
<trkpt lat="47.646555" lon="12.708226"><ele>607.0</ele></trkpt>
<trkpt lat="47.647106" lon="12.707680"><ele>616.8</ele></trkpt>
<trkpt lat="47.647241" lon="12.707242"><ele>619.4</ele></trkpt>
<trkpt lat="47.646880" lon="12.707585"><ele>603.5</ele></trkpt>
<trkpt lat="47.646131" lon="12.708978"><ele>611.7</ele></trkpt>
<trkpt lat="47.645863" lon="12.710069"><ele>616.7</ele></trkpt>
<trkpt lat="47.645995" lon="12.710988"><ele>622.0</ele></trkpt>
<trkpt lat="47.645725" lon="12.712084"><ele>615.3</ele></trkpt>
<trkpt lat="47.644764" lon="12.712176"><ele>591.9</ele></trkpt>
<trkpt lat="47.644925" lon="12.714160"><ele>591.4</ele></trkpt>
<trkpt lat="47.645027" lon="12.716039"><ele>588.8</ele></trkpt>
<trkpt lat="47.645056" lon="12.716543"><ele>586.7</ele></trkpt>
<trkpt lat="47.644877" lon="12.717637"><ele>584.3</ele></trkpt>
<trkpt lat="47.644318" lon="12.718917"><ele>581.2</ele></trkpt>
<trkpt lat="47.644902" lon="12.720870"><ele>579.0</ele></trkpt>
<trkpt lat="47.645313" lon="12.722238"><ele>577.1</ele></trkpt>
<trkpt lat="47.645881" lon="12.723299"><ele>576.8</ele></trkpt>
<trkpt lat="47.646480" lon="12.723907"><ele>575.3</ele></trkpt>
<trkpt lat="47.647815" lon="12.724766"><ele>570.8</ele></trkpt>
<trkpt lat="47.649120" lon="12.725372"><ele>564.7</ele></trkpt>
<trkpt lat="47.649276" lon="12.725537"><ele>562.5</ele></trkpt>
<trkpt lat="47.649669" lon="12.726944"><ele>560.4</ele></trkpt>
<trkpt lat="47.649782" lon="12.728145"><ele>550.5</ele></trkpt>
<trkpt lat="47.650354" lon="12.729902"><ele>541.5</ele></trkpt>
<trkpt lat="47.651727" lon="12.729093"><ele>544.4</ele></trkpt>
<trkpt lat="47.652197" lon="12.728962"><ele>551.5</ele></trkpt>
<trkpt lat="47.653294" lon="12.729641"><ele>551.0</ele></trkpt>
<trkpt lat="47.654404" lon="12.729491"><ele>566.5</ele></trkpt>
<trkpt lat="47.654738" lon="12.730025"><ele>569.1</ele></trkpt>
<trkpt lat="47.655245" lon="12.730296"><ele>570.9</ele></trkpt>
<trkpt lat="47.655393" lon="12.730612"><ele>565.7</ele></trkpt>
<trkpt lat="47.655302" lon="12.730972"><ele>563.8</ele></trkpt>
<trkpt lat="47.656523" lon="12.732280"><ele>554.4</ele></trkpt>
<trkpt lat="47.656601" lon="12.732435"><ele>553.8</ele></trkpt>
<trkpt lat="47.656523" lon="12.732612"><ele>551.6</ele></trkpt>
<trkpt lat="47.656026" lon="12.732378"><ele>549.8</ele></trkpt>
<trkpt lat="47.655963" lon="12.732567"><ele>547.1</ele></trkpt>
<trkpt lat="47.656964" lon="12.734100"><ele>544.0</ele></trkpt>
<trkpt lat="47.657185" lon="12.734345"><ele>542.0</ele></trkpt>
<trkpt lat="47.657547" lon="12.734054"><ele>545.7</ele></trkpt>
<trkpt lat="47.657731" lon="12.734700"><ele>541.8</ele></trkpt>
<trkpt lat="47.658440" lon="12.735641"><ele>540.3</ele></trkpt>
<trkpt lat="47.658748" lon="12.736569"><ele>535.7</ele></trkpt>
<trkpt lat="47.659028" lon="12.738638"><ele>532.0</ele></trkpt>
<trkpt lat="47.659262" lon="12.739794"><ele>534.3</ele></trkpt>
<trkpt lat="47.659591" lon="12.740392"><ele>535.8</ele></trkpt>
<trkpt lat="47.660781" lon="12.741628"><ele>537.1</ele></trkpt>
<trkpt lat="47.661056" lon="12.742052"><ele>536.7</ele></trkpt>
<trkpt lat="47.661408" lon="12.743790"><ele>540.1</ele></trkpt>
<trkpt lat="47.661933" lon="12.744920"><ele>541.9</ele></trkpt>
<trkpt lat="47.662230" lon="12.746017"><ele>537.6</ele></trkpt>
<trkpt lat="47.663360" lon="12.747237"><ele>548.0</ele></trkpt>
<trkpt lat="47.663538" lon="12.747563"><ele>551.1</ele></trkpt>
<trkpt lat="47.664143" lon="12.749539"><ele>550.8</ele></trkpt>
<trkpt lat="47.664764" lon="12.751539"><ele>555.8</ele></trkpt>
<trkpt lat="47.664764" lon="12.751540"><ele>555.8</ele></trkpt>
<trkpt lat="47.664972" lon="12.752642"><ele>557.2</ele></trkpt>
<trkpt lat="47.665428" lon="12.753251"><ele>556.3</ele></trkpt>
<trkpt lat="47.666142" lon="12.753501"><ele>563.4</ele></trkpt>
<trkpt lat="47.666362" lon="12.753826"><ele>565.1</ele></trkpt>
<trkpt lat="47.666572" lon="12.753638"><ele>568.4</ele></trkpt>
<trkpt lat="47.667845" lon="12.754341"><ele>572.1</ele></trkpt>
<trkpt lat="47.668016" lon="12.754443"><ele>571.9</ele></trkpt>
<trkpt lat="47.668803" lon="12.754082"><ele>570.9</ele></trkpt>
<trkpt lat="47.669573" lon="12.754133"><ele>584.3</ele></trkpt>
<trkpt lat="47.669683" lon="12.754605"><ele>588.3</ele></trkpt>
<trkpt lat="47.669435" lon="12.755059"><ele>589.2</ele></trkpt>
<trkpt lat="47.668853" lon="12.755253"><ele>592.6</ele></trkpt>
<trkpt lat="47.668666" lon="12.756481"><ele>610.5</ele></trkpt>
<trkpt lat="47.668885" lon="12.756444"><ele>610.2</ele></trkpt>
<trkpt lat="47.669065" lon="12.755724"><ele>600.0</ele></trkpt>
<trkpt lat="47.669273" lon="12.755651"><ele>600.4</ele></trkpt>
<trkpt lat="47.670226" lon="12.756093"><ele>612.1</ele></trkpt>
<trkpt lat="47.670910" lon="12.756944"><ele>614.7</ele></trkpt>
<trkpt lat="47.671977" lon="12.758426"><ele>610.9</ele></trkpt>
<trkpt lat="47.672085" lon="12.758629"><ele>611.5</ele></trkpt>
<trkpt lat="47.672538" lon="12.760776"><ele>610.2</ele></trkpt>
<trkpt lat="47.672873" lon="12.762019"><ele>609.4</ele></trkpt>
<trkpt lat="47.673743" lon="12.763659"><ele>599.1</ele></trkpt>
<trkpt lat="47.674129" lon="12.764194"><ele>596.6</ele></trkpt>
<trkpt lat="47.674334" lon="12.764917"><ele>596.1</ele></trkpt>
<trkpt lat="47.674823" lon="12.765381"><ele>595.5</ele></trkpt>
<trkpt lat="47.674782" lon="12.765692"><ele>602.4</ele></trkpt>
<trkpt lat="47.676034" lon="12.766551"><ele>591.9</ele></trkpt>
<trkpt lat="47.676454" lon="12.766859"><ele>591.7</ele></trkpt>
<trkpt lat="47.677398" lon="12.767780"><ele>583.9</ele></trkpt>
<trkpt lat="47.678549" lon="12.769240"><ele>586.8</ele></trkpt>
<trkpt lat="47.678835" lon="12.769662"><ele>580.8</ele></trkpt>
<trkpt lat="47.679502" lon="12.771233"><ele>577.2</ele></trkpt>
<trkpt lat="47.679615" lon="12.772221"><ele>579.8</ele></trkpt>
<trkpt lat="47.680255" lon="12.774098"><ele>582.1</ele></trkpt>
<trkpt lat="47.680652" lon="12.775991"><ele>572.7</ele></trkpt>
<trkpt lat="47.680925" lon="12.777879"><ele>575.0</ele></trkpt>
<trkpt lat="47.681109" lon="12.778440"><ele>568.3</ele></trkpt>
<trkpt lat="47.681311" lon="12.777731"><ele>573.1</ele></trkpt>
<trkpt lat="47.681547" lon="12.779083"><ele>567.8</ele></trkpt>
<trkpt lat="47.681474" lon="12.780393"><ele>572.1</ele></trkpt>
<trkpt lat="47.680983" lon="12.782215"><ele>566.7</ele></trkpt>
<trkpt lat="47.680091" lon="12.783951"><ele>568.1</ele></trkpt>
<trkpt lat="47.679644" lon="12.784857"><ele>555.9</ele></trkpt>
<trkpt lat="47.679631" lon="12.785487"><ele>559.9</ele></trkpt>
<trkpt lat="47.679816" lon="12.786198"><ele>552.5</ele></trkpt>
<trkpt lat="47.680935" lon="12.787399"><ele>557.4</ele></trkpt>
<trkpt lat="47.681362" lon="12.787947"><ele>558.2</ele></trkpt>
<trkpt lat="47.682313" lon="12.789498"><ele>540.8</ele></trkpt>
<trkpt lat="47.683132" lon="12.790857"><ele>535.7</ele></trkpt>
<trkpt lat="47.684216" lon="12.792217"><ele>528.1</ele></trkpt>
<trkpt lat="47.684758" lon="12.793119"><ele>523.5</ele></trkpt>
<trkpt lat="47.685821" lon="12.794479"><ele>520.4</ele></trkpt>
<trkpt lat="47.686879" lon="12.795846"><ele>509.4</ele></trkpt>
<trkpt lat="47.687954" lon="12.797030"><ele>513.3</ele></trkpt>
<trkpt lat="47.688175" lon="12.797307"><ele>515.2</ele></trkpt>
<trkpt lat="47.689077" lon="12.798835"><ele>509.6</ele></trkpt>
<trkpt lat="47.689499" lon="12.799610"><ele>512.9</ele></trkpt>
<trkpt lat="47.690233" lon="12.799670"><ele>520.9</ele></trkpt>
<trkpt lat="47.691323" lon="12.800783"><ele>519.4</ele></trkpt>
<trkpt lat="47.692373" lon="12.800735"><ele>525.4</ele></trkpt>
<trkpt lat="47.693044" lon="12.801137"><ele>527.8</ele></trkpt>
<trkpt lat="47.693781" lon="12.801908"><ele>519.8</ele></trkpt>
<trkpt lat="47.693869" lon="12.802404"><ele>515.9</ele></trkpt>
<trkpt lat="47.695019" lon="12.802709"><ele>524.8</ele></trkpt>
<trkpt lat="47.696254" lon="12.802369"><ele>546.0</ele></trkpt>
<trkpt lat="47.697571" lon="12.801502"><ele>530.9</ele></trkpt>
<trkpt lat="47.698359" lon="12.801052"><ele>535.3</ele></trkpt>
<trkpt lat="47.699725" lon="12.800983"><ele>564.2</ele></trkpt>
<trkpt lat="47.701248" lon="12.800844"><ele>574.5</ele></trkpt>
<trkpt lat="47.701463" lon="12.800827"><ele>576.5</ele></trkpt>
<trkpt lat="47.702108" lon="12.801082"><ele>586.8</ele></trkpt>
<trkpt lat="47.703256" lon="12.802144"><ele>604.4</ele></trkpt>
<trkpt lat="47.703957" lon="12.802728"><ele>614.0</ele></trkpt>
<trkpt lat="47.704307" lon="12.804469"><ele>625.0</ele></trkpt>
<trkpt lat="47.704922" lon="12.805084"><ele>628.6</ele></trkpt>
<trkpt lat="47.705123" lon="12.805555"><ele>630.9</ele></trkpt>
<trkpt lat="47.704907" lon="12.806915"><ele>625.1</ele></trkpt>
<trkpt lat="47.704979" lon="12.807462"><ele>626.1</ele></trkpt>
<trkpt lat="47.705752" lon="12.808832"><ele>625.4</ele></trkpt>
<trkpt lat="47.706523" lon="12.809296"><ele>625.6</ele></trkpt>
<trkpt lat="47.708010" lon="12.808942"><ele>644.1</ele></trkpt>
<trkpt lat="47.708551" lon="12.808979"><ele>626.0</ele></trkpt>
<trkpt lat="47.709833" lon="12.809976"><ele>597.1</ele></trkpt>
<trkpt lat="47.710704" lon="12.810407"><ele>604.2</ele></trkpt>
<trkpt lat="47.711546" lon="12.811746"><ele>591.5</ele></trkpt>
<trkpt lat="47.712533" lon="12.812863"><ele>587.6</ele></trkpt>
<trkpt lat="47.713113" lon="12.814081"><ele>575.2</ele></trkpt>
<trkpt lat="47.714115" lon="12.815596"><ele>566.2</ele></trkpt>
<trkpt lat="47.714343" lon="12.815928"><ele>562.1</ele></trkpt>
<trkpt lat="47.715448" lon="12.817295"><ele>548.4</ele></trkpt>
<trkpt lat="47.716194" lon="12.819247"><ele>541.7</ele></trkpt>
<trkpt lat="47.716701" lon="12.820515"><ele>540.9</ele></trkpt>
<trkpt lat="47.717279" lon="12.822557"><ele>543.0</ele></trkpt>
<trkpt lat="47.717786" lon="12.824528"><ele>545.9</ele></trkpt>
<trkpt lat="47.718143" lon="12.825712"><ele>546.0</ele></trkpt>
<trkpt lat="47.717896" lon="12.827738"><ele>546.4</ele></trkpt>
<trkpt lat="47.717734" lon="12.829377"><ele>545.9</ele></trkpt>
<trkpt lat="47.718313" lon="12.831364"><ele>538.2</ele></trkpt>
<trkpt lat="47.718429" lon="12.831845"><ele>539.4</ele></trkpt>
<trkpt lat="47.718296" lon="12.833994"><ele>541.0</ele></trkpt>
<trkpt lat="47.718257" lon="12.836048"><ele>543.4</ele></trkpt>
<trkpt lat="47.718253" lon="12.836588"><ele>533.5</ele></trkpt>
<trkpt lat="47.717739" lon="12.838622"><ele>516.9</ele></trkpt>
<trkpt lat="47.717731" lon="12.840686"><ele>529.3</ele></trkpt>
<trkpt lat="47.717740" lon="12.840867"><ele>530.7</ele></trkpt>
<trkpt lat="47.718240" lon="12.842846"><ele>516.1</ele></trkpt>
<trkpt lat="47.718710" lon="12.844736"><ele>499.7</ele></trkpt>
<trkpt lat="47.719617" lon="12.845690"><ele>489.8</ele></trkpt>
<trkpt lat="47.719854" lon="12.846180"><ele>485.0</ele></trkpt>
<trkpt lat="47.720155" lon="12.848331"><ele>481.9</ele></trkpt>
<trkpt lat="47.720430" lon="12.850055"><ele>473.7</ele></trkpt>
<trkpt lat="47.720279" lon="12.852100"><ele>466.0</ele></trkpt>
<trkpt lat="47.720191" lon="12.854211"><ele>466.4</ele></trkpt>
<trkpt lat="47.720185" lon="12.854434"><ele>466.7</ele></trkpt>
<trkpt lat="47.720282" lon="12.856532"><ele>466.0</ele></trkpt>
<trkpt lat="47.720475" lon="12.858605"><ele>465.0</ele></trkpt>
<trkpt lat="47.720882" lon="12.860575"><ele>467.7</ele></trkpt>
<trkpt lat="47.720964" lon="12.860885"><ele>467.5</ele></trkpt>
<trkpt lat="47.721586" lon="12.862816"><ele>467.7</ele></trkpt>
<trkpt lat="47.722175" lon="12.864214"><ele>469.8</ele></trkpt>
<trkpt lat="47.722574" lon="12.866050"><ele>470.3</ele></trkpt>
<trkpt lat="47.722774" lon="12.868141"><ele>470.3</ele></trkpt>
<trkpt lat="47.722792" lon="12.868990"><ele>469.7</ele></trkpt>
<trkpt lat="47.722760" lon="12.870441"><ele>468.5</ele></trkpt>
<trkpt lat="47.722524" lon="12.871530"><ele>471.0</ele></trkpt>
<trkpt lat="47.722782" lon="12.871867"><ele>471.4</ele></trkpt>
<trkpt lat="47.721992" lon="12.873068"><ele>473.2</ele></trkpt>
<trkpt lat="47.721734" lon="12.873819"><ele>470.7</ele></trkpt>
<trkpt lat="47.722979" lon="12.874459"><ele>473.7</ele></trkpt>
<trkpt lat="47.723610" lon="12.874859"><ele>471.5</ele></trkpt>
<trkpt lat="47.724860" lon="12.875096"><ele>469.0</ele></trkpt>
<trkpt lat="47.725003" lon="12.875649"><ele>469.0</ele></trkpt>
<trkpt lat="47.725997" lon="12.876659"><ele>472.4</ele></trkpt>
<trkpt lat="47.725694" lon="12.877619"><ele>470.9</ele></trkpt>
<trkpt lat="47.726952" lon="12.878517"><ele>471.0</ele></trkpt>
<trkpt lat="47.728187" lon="12.879707"><ele>471.5</ele></trkpt>
<trkpt lat="47.729074" lon="12.880274"><ele>469.3</ele></trkpt>
<trkpt lat="47.729690" lon="12.881168"><ele>467.4</ele></trkpt>
<trkpt lat="47.728766" lon="12.882934"><ele>468.2</ele></trkpt>
<trkpt lat="47.728118" lon="12.884187"><ele>469.7</ele></trkpt>
<trkpt lat="47.727687" lon="12.883896"><ele>471.3</ele></trkpt>
<trkpt lat="47.727494" lon="12.883113"><ele>470.2</ele></trkpt>
<trkpt lat="47.726900" lon="12.883842"><ele>474.7</ele></trkpt>
</trkseg></trk></gpx>