<?xml version="1.0" encoding="UTF-8"?>
<gpx version="1.1" creator="Bad Reichenhall gravel – saját gravel-router (OSM/Overture + SRTM)" xmlns="http://www.topografix.com/GPX/1/1">
<metadata><name>Salzburgból haza – dombos változat (Marktschellenberg–Hallthurm)</name><desc>GENERÁLT NYOMVONAL – A Salzburgból hazatekerés dombosabb változata: a Salzach-parti bringaúton Hellbrunnig, majd St. Leonhardon át a Berchtesgadeni-völgybe Marktschellenbergig, enyhe emelkedőn fel Berchtesgadenig, és a Hallthurm-hágón (693 m) át gurulsz le Bad Reichenhallba – az Untersberg megkerülésének második fele.</desc><copyright author="OpenStreetMap contributors (via Overture Maps)"><license>https://opendatacommons.org/licenses/odbl/</license></copyright><time>2026-10-04T16:53:21Z</time></metadata>
<wpt lat="47.8125" lon="13.0453"><name>Salzburg Hbf</name><type>station</type></wpt>
<wpt lat="47.8" lon="13.045"><name>Salzburg óváros – Salzach</name><type>history</type></wpt>
<wpt lat="47.77" lon="13.0759"><name>Salzach-gát</name><type>view</type></wpt>
<wpt lat="47.7633" lon="13.0644"><name>Schloss Hellbrunn</name><type>history</type></wpt>
<wpt lat="47.7262" lon="13.0444"><name>St. Leonhard – Untersbergbahn</name><type>view</type></wpt>
<wpt lat="47.697" lon="13.045"><name>Marktschellenberg</name><type>town</type></wpt>
<wpt lat="47.6263" lon="12.9993"><name>Berchtesgaden</name><type>town</type></wpt>
<wpt lat="47.652" lon="12.9604"><name>Bischofswiesen</name><type>town</type></wpt>
<wpt lat="47.6966" lon="12.9354"><name>Hallthurm-hágó</name><type>pass</type></wpt>
<trk><name>Salzburgból haza – dombos változat (Marktschellenberg–Hallthurm)</name><type>gravel</type><trkseg>
<trkpt lat="47.812702" lon="13.045038"><ele>423.5</ele></trkpt>
<trkpt lat="47.812903" lon="13.044492"><ele>419.6</ele></trkpt>
<trkpt lat="47.811645" lon="13.043711"><ele>427.1</ele></trkpt>
<trkpt lat="47.810676" lon="13.043085"><ele>423.0</ele></trkpt>
<trkpt lat="47.809656" lon="13.041673"><ele>426.5</ele></trkpt>
<trkpt lat="47.808301" lon="13.041404"><ele>425.1</ele></trkpt>
<trkpt lat="47.808014" lon="13.041297"><ele>424.9</ele></trkpt>
<trkpt lat="47.807392" lon="13.039282"><ele>424.4</ele></trkpt>
<trkpt lat="47.807056" lon="13.037931"><ele>420.1</ele></trkpt>
<trkpt lat="47.805685" lon="13.038467"><ele>419.3</ele></trkpt>
<trkpt lat="47.804851" lon="13.038879"><ele>422.5</ele></trkpt>
<trkpt lat="47.804042" lon="13.039561"><ele>421.1</ele></trkpt>
<trkpt lat="47.803414" lon="13.040328"><ele>420.7</ele></trkpt>
<trkpt lat="47.802561" lon="13.041880"><ele>427.2</ele></trkpt>
<trkpt lat="47.802202" lon="13.042510"><ele>420.8</ele></trkpt>
<trkpt lat="47.801228" lon="13.042017"><ele>419.2</ele></trkpt>
<trkpt lat="47.800698" lon="13.044010"><ele>422.3</ele></trkpt>
<trkpt lat="47.800280" lon="13.046007"><ele>433.3</ele></trkpt>
<trkpt lat="47.799667" lon="13.047916"><ele>425.7</ele></trkpt>
<trkpt lat="47.799075" lon="13.049769"><ele>427.6</ele></trkpt>
<trkpt lat="47.798454" lon="13.051567"><ele>423.3</ele></trkpt>
<trkpt lat="47.797798" lon="13.053358"><ele>419.3</ele></trkpt>
<trkpt lat="47.797675" lon="13.053689"><ele>421.0</ele></trkpt>
<trkpt lat="47.797303" lon="13.054130"><ele>424.2</ele></trkpt>
<trkpt lat="47.796576" lon="13.055893"><ele>421.0</ele></trkpt>
<trkpt lat="47.795689" lon="13.057706"><ele>423.5</ele></trkpt>
<trkpt lat="47.795425" lon="13.058223"><ele>418.1</ele></trkpt>
<trkpt lat="47.794520" lon="13.059821"><ele>418.7</ele></trkpt>
<trkpt lat="47.793602" lon="13.061401"><ele>422.2</ele></trkpt>
<trkpt lat="47.792695" lon="13.063034"><ele>423.6</ele></trkpt>
<trkpt lat="47.791782" lon="13.064686"><ele>424.7</ele></trkpt>
<trkpt lat="47.790918" lon="13.066249"><ele>424.1</ele></trkpt>
<trkpt lat="47.790471" lon="13.067078"><ele>422.6</ele></trkpt>
<trkpt lat="47.789401" lon="13.068550"><ele>421.7</ele></trkpt>
<trkpt lat="47.788648" lon="13.069791"><ele>422.4</ele></trkpt>
<trkpt lat="47.787537" lon="13.071148"><ele>422.0</ele></trkpt>
<trkpt lat="47.786391" lon="13.072549"><ele>424.0</ele></trkpt>
<trkpt lat="47.785318" lon="13.073833"><ele>423.8</ele></trkpt>
<trkpt lat="47.784692" lon="13.074459"><ele>423.2</ele></trkpt>
<trkpt lat="47.783352" lon="13.075233"><ele>423.3</ele></trkpt>
<trkpt lat="47.783123" lon="13.075329"><ele>422.8</ele></trkpt>
<trkpt lat="47.781732" lon="13.075469"><ele>420.8</ele></trkpt>
<trkpt lat="47.781633" lon="13.075451"><ele>421.0</ele></trkpt>
<trkpt lat="47.781623" lon="13.076899"><ele>422.7</ele></trkpt>
<trkpt lat="47.780282" lon="13.076667"><ele>423.0</ele></trkpt>
<trkpt lat="47.778852" lon="13.076512"><ele>425.4</ele></trkpt>
<trkpt lat="47.777482" lon="13.076356"><ele>424.8</ele></trkpt>
<trkpt lat="47.776013" lon="13.076198"><ele>427.0</ele></trkpt>
<trkpt lat="47.774650" lon="13.076045"><ele>427.8</ele></trkpt>
<trkpt lat="47.773881" lon="13.075924"><ele>433.0</ele></trkpt>
<trkpt lat="47.772499" lon="13.075798"><ele>424.6</ele></trkpt>
<trkpt lat="47.771120" lon="13.075708"><ele>426.6</ele></trkpt>
<trkpt lat="47.770622" lon="13.075724"><ele>424.6</ele></trkpt>
<trkpt lat="47.770311" lon="13.076950"><ele>430.2</ele></trkpt>
<trkpt lat="47.770446" lon="13.077502"><ele>432.4</ele></trkpt>
<trkpt lat="47.770403" lon="13.077011"><ele>430.8</ele></trkpt>
<trkpt lat="47.770724" lon="13.076700"><ele>431.9</ele></trkpt>
<trkpt lat="47.770800" lon="13.076151"><ele>427.3</ele></trkpt>
<trkpt lat="47.770902" lon="13.074020"><ele>427.0</ele></trkpt>
<trkpt lat="47.770924" lon="13.073154"><ele>428.5</ele></trkpt>
<trkpt lat="47.770720" lon="13.071031"><ele>427.7</ele></trkpt>
<trkpt lat="47.770416" lon="13.069053"><ele>429.9</ele></trkpt>
<trkpt lat="47.770345" lon="13.068876"><ele>431.3</ele></trkpt>
<trkpt lat="47.769954" lon="13.068741"><ele>434.8</ele></trkpt>
<trkpt lat="47.769408" lon="13.069838"><ele>427.9</ele></trkpt>
<trkpt lat="47.768079" lon="13.070121"><ele>433.7</ele></trkpt>
<trkpt lat="47.766619" lon="13.070478"><ele>433.7</ele></trkpt>
<trkpt lat="47.765543" lon="13.070643"><ele>429.6</ele></trkpt>
<trkpt lat="47.764909" lon="13.068795"><ele>432.1</ele></trkpt>
<trkpt lat="47.764322" lon="13.066896"><ele>427.9</ele></trkpt>
<trkpt lat="47.763710" lon="13.065099"><ele>428.6</ele></trkpt>
<trkpt lat="47.763654" lon="13.064908"><ele>428.7</ele></trkpt>
<trkpt lat="47.763191" lon="13.065049"><ele>429.9</ele></trkpt>
<trkpt lat="47.763175" lon="13.065645"><ele>429.8</ele></trkpt>
<trkpt lat="47.762899" lon="13.065919"><ele>429.9</ele></trkpt>
<trkpt lat="47.762902" lon="13.066675"><ele>431.1</ele></trkpt>
<trkpt lat="47.762672" lon="13.067223"><ele>429.4</ele></trkpt>
<trkpt lat="47.761633" lon="13.067952"><ele>429.4</ele></trkpt>
<trkpt lat="47.761091" lon="13.068973"><ele>435.5</ele></trkpt>
<trkpt lat="47.759723" lon="13.069690"><ele>429.9</ele></trkpt>
<trkpt lat="47.758536" lon="13.070230"><ele>430.2</ele></trkpt>
<trkpt lat="47.757968" lon="13.070927"><ele>439.7</ele></trkpt>
<trkpt lat="47.756561" lon="13.071642"><ele>434.4</ele></trkpt>
<trkpt lat="47.755374" lon="13.072245"><ele>439.3</ele></trkpt>
<trkpt lat="47.755558" lon="13.072827"><ele>437.8</ele></trkpt>
<trkpt lat="47.755439" lon="13.073769"><ele>438.7</ele></trkpt>
<trkpt lat="47.755614" lon="13.074512"><ele>433.8</ele></trkpt>
<trkpt lat="47.755227" lon="13.074578"><ele>432.6</ele></trkpt>
<trkpt lat="47.753966" lon="13.075397"><ele>437.3</ele></trkpt>
<trkpt lat="47.753713" lon="13.075621"><ele>434.6</ele></trkpt>
<trkpt lat="47.753071" lon="13.075765"><ele>434.9</ele></trkpt>
<trkpt lat="47.752643" lon="13.074789"><ele>431.0</ele></trkpt>
<trkpt lat="47.751737" lon="13.074106"><ele>430.9</ele></trkpt>
<trkpt lat="47.751012" lon="13.073092"><ele>428.5</ele></trkpt>
<trkpt lat="47.750121" lon="13.071446"><ele>428.4</ele></trkpt>
<trkpt lat="47.749243" lon="13.069747"><ele>431.1</ele></trkpt>
<trkpt lat="47.748401" lon="13.068180"><ele>433.1</ele></trkpt>
<trkpt lat="47.747752" lon="13.067008"><ele>433.0</ele></trkpt>
<trkpt lat="47.746957" lon="13.067042"><ele>435.3</ele></trkpt>
<trkpt lat="47.745624" lon="13.067588"><ele>435.1</ele></trkpt>
<trkpt lat="47.744254" lon="13.068048"><ele>441.7</ele></trkpt>
<trkpt lat="47.744013" lon="13.068117"><ele>442.1</ele></trkpt>
<trkpt lat="47.744162" lon="13.067972"><ele>442.3</ele></trkpt>
<trkpt lat="47.743391" lon="13.066028"><ele>432.2</ele></trkpt>
<trkpt lat="47.742725" lon="13.064254"><ele>436.9</ele></trkpt>
<trkpt lat="47.742680" lon="13.064142"><ele>437.0</ele></trkpt>
<trkpt lat="47.742444" lon="13.063922"><ele>437.0</ele></trkpt>
<trkpt lat="47.741582" lon="13.064007"><ele>437.8</ele></trkpt>
<trkpt lat="47.741282" lon="13.062065"><ele>438.0</ele></trkpt>
<trkpt lat="47.740395" lon="13.062220"><ele>438.8</ele></trkpt>
<trkpt lat="47.738943" lon="13.061977"><ele>440.9</ele></trkpt>
<trkpt lat="47.738487" lon="13.061897"><ele>440.6</ele></trkpt>
<trkpt lat="47.737173" lon="13.061361"><ele>439.8</ele></trkpt>
<trkpt lat="47.736912" lon="13.061230"><ele>438.9</ele></trkpt>
<trkpt lat="47.737568" lon="13.059392"><ele>438.6</ele></trkpt>
<trkpt lat="47.737854" lon="13.058779"><ele>442.6</ele></trkpt>
<trkpt lat="47.738175" lon="13.057291"><ele>441.5</ele></trkpt>
<trkpt lat="47.738189" lon="13.055869"><ele>444.0</ele></trkpt>
<trkpt lat="47.737977" lon="13.054920"><ele>444.0</ele></trkpt>
<trkpt lat="47.736914" lon="13.054803"><ele>443.7</ele></trkpt>
<trkpt lat="47.737025" lon="13.052803"><ele>447.6</ele></trkpt>
<trkpt lat="47.737049" lon="13.052477"><ele>447.6</ele></trkpt>
<trkpt lat="47.735616" lon="13.052344"><ele>449.2</ele></trkpt>
<trkpt lat="47.735345" lon="13.052295"><ele>448.0</ele></trkpt>
<trkpt lat="47.735452" lon="13.050099"><ele>448.1</ele></trkpt>
<trkpt lat="47.735481" lon="13.049623"><ele>447.7</ele></trkpt>
<trkpt lat="47.734549" lon="13.049183"><ele>447.6</ele></trkpt>
<trkpt lat="47.733247" lon="13.048313"><ele>447.9</ele></trkpt>
<trkpt lat="47.731935" lon="13.047435"><ele>445.0</ele></trkpt>
<trkpt lat="47.730624" lon="13.046557"><ele>447.8</ele></trkpt>
<trkpt lat="47.729252" lon="13.045639"><ele>451.9</ele></trkpt>
<trkpt lat="47.727959" lon="13.044770"><ele>456.8</ele></trkpt>
<trkpt lat="47.726728" lon="13.043853"><ele>452.6</ele></trkpt>
<trkpt lat="47.726604" lon="13.043705"><ele>452.6</ele></trkpt>
<trkpt lat="47.726467" lon="13.043882"><ele>451.3</ele></trkpt>
<trkpt lat="47.726493" lon="13.044612"><ele>450.9</ele></trkpt>
<trkpt lat="47.726065" lon="13.044625"><ele>450.7</ele></trkpt>
<trkpt lat="47.726489" lon="13.044776"><ele>451.4</ele></trkpt>
<trkpt lat="47.726520" lon="13.043728"><ele>452.4</ele></trkpt>
<trkpt lat="47.725208" lon="13.042774"><ele>451.3</ele></trkpt>
<trkpt lat="47.723878" lon="13.041994"><ele>449.9</ele></trkpt>
<trkpt lat="47.722448" lon="13.041908"><ele>454.1</ele></trkpt>
<trkpt lat="47.722112" lon="13.041996"><ele>452.7</ele></trkpt>
<trkpt lat="47.720750" lon="13.042511"><ele>452.3</ele></trkpt>
<trkpt lat="47.719452" lon="13.043059"><ele>456.0</ele></trkpt>
<trkpt lat="47.718065" lon="13.043683"><ele>463.9</ele></trkpt>
<trkpt lat="47.716868" lon="13.044209"><ele>466.2</ele></trkpt>
<trkpt lat="47.715997" lon="13.044303"><ele>465.0</ele></trkpt>
<trkpt lat="47.715281" lon="13.043997"><ele>468.1</ele></trkpt>
<trkpt lat="47.714051" lon="13.042865"><ele>469.8</ele></trkpt>
<trkpt lat="47.714014" lon="13.042832"><ele>469.8</ele></trkpt>
<trkpt lat="47.712662" lon="13.042017"><ele>473.3</ele></trkpt>
<trkpt lat="47.712240" lon="13.041736"><ele>472.6</ele></trkpt>
<trkpt lat="47.711210" lon="13.040539"><ele>467.3</ele></trkpt>
<trkpt lat="47.710259" lon="13.039226"><ele>471.6</ele></trkpt>
<trkpt lat="47.709655" lon="13.038785"><ele>471.2</ele></trkpt>
<trkpt lat="47.708825" lon="13.038620"><ele>464.5</ele></trkpt>
<trkpt lat="47.708737" lon="13.038822"><ele>465.4</ele></trkpt>
<trkpt lat="47.708188" lon="13.038980"><ele>467.2</ele></trkpt>
<trkpt lat="47.708015" lon="13.038827"><ele>466.2</ele></trkpt>
<trkpt lat="47.706654" lon="13.039006"><ele>465.4</ele></trkpt>
<trkpt lat="47.705854" lon="13.038986"><ele>466.8</ele></trkpt>
<trkpt lat="47.704565" lon="13.038486"><ele>474.4</ele></trkpt>
<trkpt lat="47.704410" lon="13.038457"><ele>475.2</ele></trkpt>
<trkpt lat="47.703012" lon="13.038555"><ele>469.0</ele></trkpt>
<trkpt lat="47.703011" lon="13.038555"><ele>469.0</ele></trkpt>
<trkpt lat="47.702571" lon="13.038705"><ele>470.2</ele></trkpt>
<trkpt lat="47.702252" lon="13.039093"><ele>472.3</ele></trkpt>
<trkpt lat="47.701552" lon="13.040626"><ele>471.3</ele></trkpt>
<trkpt lat="47.701273" lon="13.041736"><ele>475.3</ele></trkpt>
<trkpt lat="47.700358" lon="13.043095"><ele>472.9</ele></trkpt>
<trkpt lat="47.698916" lon="13.043129"><ele>479.3</ele></trkpt>
<trkpt lat="47.698443" lon="13.043268"><ele>487.1</ele></trkpt>
<trkpt lat="47.697531" lon="13.044913"><ele>481.9</ele></trkpt>
<trkpt lat="47.697010" lon="13.045638"><ele>482.5</ele></trkpt>
<trkpt lat="47.696119" lon="13.046452"><ele>476.8</ele></trkpt>
<trkpt lat="47.695174" lon="13.046879"><ele>483.1</ele></trkpt>
<trkpt lat="47.694673" lon="13.046412"><ele>479.3</ele></trkpt>
<trkpt lat="47.693449" lon="13.046581"><ele>483.9</ele></trkpt>
<trkpt lat="47.693345" lon="13.046006"><ele>478.8</ele></trkpt>
<trkpt lat="47.692128" lon="13.045097"><ele>491.4</ele></trkpt>
<trkpt lat="47.691980" lon="13.044960"><ele>493.9</ele></trkpt>
<trkpt lat="47.690620" lon="13.044812"><ele>493.5</ele></trkpt>
<trkpt lat="47.689189" lon="13.045002"><ele>502.8</ele></trkpt>
<trkpt lat="47.688461" lon="13.044904"><ele>504.5</ele></trkpt>
<trkpt lat="47.687195" lon="13.043877"><ele>513.5</ele></trkpt>
<trkpt lat="47.686462" lon="13.044175"><ele>512.6</ele></trkpt>
<trkpt lat="47.685391" lon="13.043745"><ele>512.1</ele></trkpt>
<trkpt lat="47.684052" lon="13.043917"><ele>495.1</ele></trkpt>
<trkpt lat="47.684051" lon="13.043917"><ele>495.1</ele></trkpt>
<trkpt lat="47.682558" lon="13.043720"><ele>485.7</ele></trkpt>
<trkpt lat="47.682345" lon="13.043636"><ele>486.3</ele></trkpt>
<trkpt lat="47.682131" lon="13.043423"><ele>487.7</ele></trkpt>
<trkpt lat="47.681811" lon="13.042532"><ele>499.9</ele></trkpt>
<trkpt lat="47.681263" lon="13.042324"><ele>494.3</ele></trkpt>
<trkpt lat="47.680663" lon="13.041415"><ele>496.9</ele></trkpt>
<trkpt lat="47.679316" lon="13.040436"><ele>497.7</ele></trkpt>
<trkpt lat="47.678731" lon="13.039997"><ele>504.3</ele></trkpt>
<trkpt lat="47.677541" lon="13.038599"><ele>503.6</ele></trkpt>
<trkpt lat="47.677430" lon="13.038477"><ele>505.6</ele></trkpt>
<trkpt lat="47.676185" lon="13.037421"><ele>500.1</ele></trkpt>
<trkpt lat="47.675823" lon="13.037042"><ele>500.1</ele></trkpt>
<trkpt lat="47.674395" lon="13.036473"><ele>490.0</ele></trkpt>
<trkpt lat="47.673728" lon="13.036114"><ele>492.0</ele></trkpt>
<trkpt lat="47.672671" lon="13.035927"><ele>491.0</ele></trkpt>
<trkpt lat="47.671408" lon="13.034980"><ele>491.0</ele></trkpt>
<trkpt lat="47.670936" lon="13.034640"><ele>489.6</ele></trkpt>
<trkpt lat="47.670554" lon="13.033776"><ele>492.8</ele></trkpt>
<trkpt lat="47.670638" lon="13.032300"><ele>498.5</ele></trkpt>
<trkpt lat="47.670440" lon="13.031688"><ele>501.1</ele></trkpt>
<trkpt lat="47.670254" lon="13.032041"><ele>499.5</ele></trkpt>
<trkpt lat="47.669783" lon="13.032352"><ele>499.5</ele></trkpt>
<trkpt lat="47.668540" lon="13.031200"><ele>508.9</ele></trkpt>
<trkpt lat="47.667873" lon="13.030953"><ele>508.2</ele></trkpt>
<trkpt lat="47.666451" lon="13.031179"><ele>504.3</ele></trkpt>
<trkpt lat="47.666175" lon="13.031253"><ele>506.1</ele></trkpt>
<trkpt lat="47.665520" lon="13.031703"><ele>508.2</ele></trkpt>
<trkpt lat="47.664441" lon="13.032968"><ele>506.0</ele></trkpt>
<trkpt lat="47.664234" lon="13.033170"><ele>510.5</ele></trkpt>
<trkpt lat="47.663888" lon="13.034106"><ele>507.5</ele></trkpt>
<trkpt lat="47.663306" lon="13.034742"><ele>507.2</ele></trkpt>
<trkpt lat="47.662329" lon="13.035089"><ele>511.8</ele></trkpt>
<trkpt lat="47.661993" lon="13.035437"><ele>509.3</ele></trkpt>
<trkpt lat="47.660567" lon="13.035289"><ele>513.7</ele></trkpt>
<trkpt lat="47.659655" lon="13.035195"><ele>525.2</ele></trkpt>
<trkpt lat="47.658659" lon="13.035600"><ele>535.0</ele></trkpt>
<trkpt lat="47.657506" lon="13.036680"><ele>520.5</ele></trkpt>
<trkpt lat="47.656272" lon="13.037636"><ele>524.0</ele></trkpt>
<trkpt lat="47.655815" lon="13.038072"><ele>523.1</ele></trkpt>
<trkpt lat="47.655858" lon="13.038321"><ele>517.8</ele></trkpt>
<trkpt lat="47.654536" lon="13.039090"><ele>511.5</ele></trkpt>
<trkpt lat="47.653662" lon="13.039805"><ele>514.6</ele></trkpt>
<trkpt lat="47.652724" lon="13.038335"><ele>517.6</ele></trkpt>
<trkpt lat="47.652345" lon="13.037821"><ele>508.8</ele></trkpt>
<trkpt lat="47.651102" lon="13.036572"><ele>520.1</ele></trkpt>
<trkpt lat="47.650109" lon="13.035702"><ele>521.2</ele></trkpt>
<trkpt lat="47.649497" lon="13.034813"><ele>521.0</ele></trkpt>
<trkpt lat="47.648056" lon="13.034641"><ele>517.0</ele></trkpt>
<trkpt lat="47.646892" lon="13.034349"><ele>516.7</ele></trkpt>
<trkpt lat="47.646234" lon="13.033877"><ele>529.5</ele></trkpt>
<trkpt lat="47.645731" lon="13.033185"><ele>534.4</ele></trkpt>
<trkpt lat="47.645203" lon="13.031818"><ele>518.5</ele></trkpt>
<trkpt lat="47.644793" lon="13.030102"><ele>519.0</ele></trkpt>
<trkpt lat="47.644458" lon="13.028132"><ele>517.6</ele></trkpt>
<trkpt lat="47.644135" lon="13.026172"><ele>520.5</ele></trkpt>
<trkpt lat="47.643952" lon="13.025215"><ele>522.5</ele></trkpt>
<trkpt lat="47.643078" lon="13.023702"><ele>528.4</ele></trkpt>
<trkpt lat="47.642252" lon="13.023297"><ele>525.7</ele></trkpt>
<trkpt lat="47.641726" lon="13.022093"><ele>522.2</ele></trkpt>
<trkpt lat="47.641496" lon="13.020858"><ele>522.6</ele></trkpt>
<trkpt lat="47.641580" lon="13.018722"><ele>523.2</ele></trkpt>
<trkpt lat="47.641583" lon="13.018571"><ele>524.4</ele></trkpt>
<trkpt lat="47.641464" lon="13.017708"><ele>526.2</ele></trkpt>
<trkpt lat="47.640372" lon="13.017572"><ele>525.4</ele></trkpt>
<trkpt lat="47.639747" lon="13.017950"><ele>529.4</ele></trkpt>
<trkpt lat="47.638478" lon="13.018186"><ele>536.0</ele></trkpt>
<trkpt lat="47.637775" lon="13.017677"><ele>534.3</ele></trkpt>
<trkpt lat="47.636788" lon="13.016126"><ele>541.5</ele></trkpt>
<trkpt lat="47.636290" lon="13.015344"><ele>547.8</ele></trkpt>
<trkpt lat="47.635819" lon="13.013319"><ele>532.2</ele></trkpt>
<trkpt lat="47.635439" lon="13.011389"><ele>531.0</ele></trkpt>
<trkpt lat="47.635300" lon="13.010693"><ele>529.5</ele></trkpt>
<trkpt lat="47.635149" lon="13.010800"><ele>531.3</ele></trkpt>
<trkpt lat="47.634790" lon="13.009738"><ele>531.6</ele></trkpt>
<trkpt lat="47.634023" lon="13.009754"><ele>536.2</ele></trkpt>
<trkpt lat="47.633057" lon="13.008794"><ele>540.9</ele></trkpt>
<trkpt lat="47.631879" lon="13.008376"><ele>538.8</ele></trkpt>
<trkpt lat="47.630972" lon="13.007571"><ele>534.1</ele></trkpt>
<trkpt lat="47.629919" lon="13.006188"><ele>537.2</ele></trkpt>
<trkpt lat="47.628850" lon="13.004741"><ele>544.0</ele></trkpt>
<trkpt lat="47.628377" lon="13.004149"><ele>557.5</ele></trkpt>
<trkpt lat="47.627600" lon="13.002291"><ele>543.4</ele></trkpt>
<trkpt lat="47.627590" lon="13.002278"><ele>543.4</ele></trkpt>
<trkpt lat="47.626311" lon="13.001595"><ele>548.9</ele></trkpt>
<trkpt lat="47.625720" lon="13.001228"><ele>544.7</ele></trkpt>
<trkpt lat="47.625797" lon="13.000609"><ele>542.2</ele></trkpt>
<trkpt lat="47.626089" lon="13.000238"><ele>539.8</ele></trkpt>
<trkpt lat="47.626144" lon="12.999928"><ele>539.1</ele></trkpt>
<trkpt lat="47.625907" lon="12.999437"><ele>539.3</ele></trkpt>
<trkpt lat="47.626085" lon="12.999324"><ele>539.5</ele></trkpt>
<trkpt lat="47.626464" lon="13.000316"><ele>540.1</ele></trkpt>
<trkpt lat="47.627056" lon="13.000810"><ele>540.0</ele></trkpt>
<trkpt lat="47.627366" lon="13.001432"><ele>540.1</ele></trkpt>
<trkpt lat="47.628327" lon="13.002262"><ele>536.9</ele></trkpt>
<trkpt lat="47.629257" lon="13.003734"><ele>540.2</ele></trkpt>
<trkpt lat="47.629557" lon="13.003989"><ele>543.8</ele></trkpt>
<trkpt lat="47.629929" lon="13.004057"><ele>546.6</ele></trkpt>
<trkpt lat="47.631085" lon="13.003585"><ele>559.6</ele></trkpt>
<trkpt lat="47.632380" lon="13.003720"><ele>566.2</ele></trkpt>
<trkpt lat="47.632635" lon="13.003304"><ele>569.5</ele></trkpt>
<trkpt lat="47.632749" lon="13.002387"><ele>570.3</ele></trkpt>
<trkpt lat="47.633097" lon="13.002031"><ele>577.2</ele></trkpt>
<trkpt lat="47.633273" lon="13.002772"><ele>573.4</ele></trkpt>
<trkpt lat="47.633957" lon="13.003264"><ele>575.6</ele></trkpt>
<trkpt lat="47.634056" lon="13.003027"><ele>578.3</ele></trkpt>
<trkpt lat="47.633456" lon="13.002559"><ele>578.1</ele></trkpt>
<trkpt lat="47.633400" lon="13.000508"><ele>598.6</ele></trkpt>
<trkpt lat="47.633860" lon="12.999808"><ele>607.7</ele></trkpt>
<trkpt lat="47.634502" lon="12.999494"><ele>618.1</ele></trkpt>
<trkpt lat="47.635452" lon="12.999370"><ele>631.5</ele></trkpt>
<trkpt lat="47.636254" lon="12.998124"><ele>639.5</ele></trkpt>
<trkpt lat="47.636774" lon="12.996040"><ele>656.8</ele></trkpt>
<trkpt lat="47.637256" lon="12.994499"><ele>671.1</ele></trkpt>
<trkpt lat="47.638274" lon="12.992913"><ele>669.0</ele></trkpt>
<trkpt lat="47.638337" lon="12.992711"><ele>666.9</ele></trkpt>
<trkpt lat="47.638574" lon="12.991065"><ele>665.8</ele></trkpt>
<trkpt lat="47.638612" lon="12.989238"><ele>680.7</ele></trkpt>
<trkpt lat="47.639343" lon="12.987484"><ele>673.3</ele></trkpt>
<trkpt lat="47.639450" lon="12.985456"><ele>678.9</ele></trkpt>
<trkpt lat="47.639676" lon="12.985276"><ele>678.7</ele></trkpt>
<trkpt lat="47.640248" lon="12.985299"><ele>680.5</ele></trkpt>
<trkpt lat="47.641360" lon="12.984402"><ele>685.5</ele></trkpt>
<trkpt lat="47.641410" lon="12.983953"><ele>681.8</ele></trkpt>
<trkpt lat="47.640900" lon="12.983031"><ele>678.9</ele></trkpt>
<trkpt lat="47.641072" lon="12.982289"><ele>675.3</ele></trkpt>
<trkpt lat="47.641505" lon="12.982147"><ele>680.9</ele></trkpt>
<trkpt lat="47.641905" lon="12.981537"><ele>685.2</ele></trkpt>
<trkpt lat="47.643074" lon="12.981645"><ele>675.8</ele></trkpt>
<trkpt lat="47.643809" lon="12.980301"><ele>666.3</ele></trkpt>
<trkpt lat="47.645073" lon="12.979413"><ele>661.8</ele></trkpt>
<trkpt lat="47.645943" lon="12.977794"><ele>660.2</ele></trkpt>
<trkpt lat="47.646168" lon="12.977376"><ele>657.4</ele></trkpt>
<trkpt lat="47.646423" lon="12.976575"><ele>656.9</ele></trkpt>
<trkpt lat="47.647059" lon="12.975800"><ele>654.6</ele></trkpt>
<trkpt lat="47.647633" lon="12.974553"><ele>647.2</ele></trkpt>
<trkpt lat="47.647953" lon="12.973228"><ele>634.5</ele></trkpt>
<trkpt lat="47.647625" lon="12.971274"><ele>622.8</ele></trkpt>
<trkpt lat="47.647575" lon="12.970734"><ele>615.8</ele></trkpt>
<trkpt lat="47.647135" lon="12.969040"><ele>602.6</ele></trkpt>
<trkpt lat="47.647730" lon="12.967361"><ele>607.8</ele></trkpt>
<trkpt lat="47.648221" lon="12.967510"><ele>609.0</ele></trkpt>
<trkpt lat="47.648524" lon="12.967106"><ele>610.0</ele></trkpt>
<trkpt lat="47.648206" lon="12.966282"><ele>606.0</ele></trkpt>
<trkpt lat="47.649024" lon="12.964419"><ele>611.9</ele></trkpt>
<trkpt lat="47.649786" lon="12.962514"><ele>613.0</ele></trkpt>
<trkpt lat="47.649790" lon="12.962506"><ele>613.0</ele></trkpt>
<trkpt lat="47.650316" lon="12.961875"><ele>611.1</ele></trkpt>
<trkpt lat="47.650239" lon="12.961592"><ele>611.7</ele></trkpt>
<trkpt lat="47.651563" lon="12.960645"><ele>615.1</ele></trkpt>
<trkpt lat="47.651584" lon="12.960630"><ele>615.2</ele></trkpt>
<trkpt lat="47.651992" lon="12.960475"><ele>614.6</ele></trkpt>
<trkpt lat="47.652088" lon="12.960768"><ele>617.0</ele></trkpt>
<trkpt lat="47.652420" lon="12.960695"><ele>617.7</ele></trkpt>
<trkpt lat="47.653708" lon="12.959849"><ele>618.2</ele></trkpt>
<trkpt lat="47.654231" lon="12.959519"><ele>619.7</ele></trkpt>
<trkpt lat="47.655297" lon="12.958126"><ele>619.1</ele></trkpt>
<trkpt lat="47.656410" lon="12.956809"><ele>626.2</ele></trkpt>
<trkpt lat="47.656807" lon="12.956318"><ele>629.4</ele></trkpt>
<trkpt lat="47.658112" lon="12.955690"><ele>628.0</ele></trkpt>
<trkpt lat="47.659465" lon="12.955114"><ele>627.5</ele></trkpt>
<trkpt lat="47.660928" lon="12.954491"><ele>634.6</ele></trkpt>
<trkpt lat="47.661411" lon="12.954270"><ele>635.5</ele></trkpt>
<trkpt lat="47.662620" lon="12.953385"><ele>635.9</ele></trkpt>
<trkpt lat="47.663951" lon="12.952515"><ele>637.3</ele></trkpt>
<trkpt lat="47.664051" lon="12.952420"><ele>637.9</ele></trkpt>
<trkpt lat="47.665212" lon="12.951108"><ele>637.8</ele></trkpt>
<trkpt lat="47.666228" lon="12.949775"><ele>644.6</ele></trkpt>
<trkpt lat="47.666353" lon="12.949542"><ele>644.8</ele></trkpt>
<trkpt lat="47.666951" lon="12.947923"><ele>642.5</ele></trkpt>
<trkpt lat="47.667055" lon="12.945892"><ele>647.3</ele></trkpt>
<trkpt lat="47.667121" lon="12.945088"><ele>649.1</ele></trkpt>
<trkpt lat="47.667613" lon="12.944027"><ele>651.3</ele></trkpt>
<trkpt lat="47.668907" lon="12.943111"><ele>650.9</ele></trkpt>
<trkpt lat="47.670170" lon="12.942395"><ele>654.9</ele></trkpt>
<trkpt lat="47.671214" lon="12.941794"><ele>658.5</ele></trkpt>
<trkpt lat="47.671668" lon="12.941379"><ele>660.0</ele></trkpt>
<trkpt lat="47.671658" lon="12.940558"><ele>659.9</ele></trkpt>
<trkpt lat="47.672854" lon="12.939501"><ele>664.0</ele></trkpt>
<trkpt lat="47.673236" lon="12.939152"><ele>666.5</ele></trkpt>
<trkpt lat="47.674008" lon="12.939042"><ele>668.5</ele></trkpt>
<trkpt lat="47.674662" lon="12.938243"><ele>668.0</ele></trkpt>
<trkpt lat="47.675478" lon="12.937707"><ele>670.7</ele></trkpt>
<trkpt lat="47.676057" lon="12.937694"><ele>669.8</ele></trkpt>
<trkpt lat="47.677333" lon="12.936955"><ele>664.1</ele></trkpt>
<trkpt lat="47.677626" lon="12.936625"><ele>667.4</ele></trkpt>
<trkpt lat="47.678956" lon="12.935941"><ele>672.7</ele></trkpt>
<trkpt lat="47.679969" lon="12.935569"><ele>680.2</ele></trkpt>
<trkpt lat="47.680492" lon="12.935608"><ele>683.0</ele></trkpt>
<trkpt lat="47.681827" lon="12.936315"><ele>687.8</ele></trkpt>
<trkpt lat="47.683093" lon="12.936822"><ele>681.0</ele></trkpt>
<trkpt lat="47.683364" lon="12.937213"><ele>680.4</ele></trkpt>
<trkpt lat="47.684750" lon="12.937683"><ele>683.4</ele></trkpt>
<trkpt lat="47.685246" lon="12.937791"><ele>684.8</ele></trkpt>
<trkpt lat="47.685202" lon="12.938191"><ele>682.5</ele></trkpt>
<trkpt lat="47.685390" lon="12.938277"><ele>681.8</ele></trkpt>
<trkpt lat="47.686795" lon="12.938754"><ele>679.0</ele></trkpt>
<trkpt lat="47.687586" lon="12.938911"><ele>678.4</ele></trkpt>
<trkpt lat="47.687568" lon="12.940243"><ele>680.5</ele></trkpt>
<trkpt lat="47.687701" lon="12.940685"><ele>683.3</ele></trkpt>
<trkpt lat="47.689074" lon="12.941464"><ele>681.1</ele></trkpt>
<trkpt lat="47.689572" lon="12.941803"><ele>679.1</ele></trkpt>
<trkpt lat="47.690930" lon="12.942328"><ele>679.3</ele></trkpt>
<trkpt lat="47.691373" lon="12.942525"><ele>675.2</ele></trkpt>
<trkpt lat="47.692099" lon="12.943125"><ele>690.0</ele></trkpt>
<trkpt lat="47.693339" lon="12.942318"><ele>700.1</ele></trkpt>
<trkpt lat="47.693641" lon="12.942237"><ele>703.2</ele></trkpt>
<trkpt lat="47.694958" lon="12.942724"><ele>706.9</ele></trkpt>
<trkpt lat="47.695007" lon="12.942736"><ele>706.7</ele></trkpt>
<trkpt lat="47.696224" lon="12.941662"><ele>700.5</ele></trkpt>
<trkpt lat="47.696939" lon="12.941198"><ele>698.2</ele></trkpt>
<trkpt lat="47.698040" lon="12.939906"><ele>684.8</ele></trkpt>
<trkpt lat="47.698041" lon="12.939905"><ele>684.8</ele></trkpt>
<trkpt lat="47.698131" lon="12.939140"><ele>689.4</ele></trkpt>
<trkpt lat="47.698400" lon="12.938429"><ele>694.0</ele></trkpt>
<trkpt lat="47.699327" lon="12.937140"><ele>697.7</ele></trkpt>
<trkpt lat="47.700250" lon="12.936818"><ele>707.8</ele></trkpt>
<trkpt lat="47.700949" lon="12.935033"><ele>710.1</ele></trkpt>
<trkpt lat="47.701084" lon="12.934340"><ele>703.2</ele></trkpt>
<trkpt lat="47.701403" lon="12.934005"><ele>701.7</ele></trkpt>
<trkpt lat="47.702730" lon="12.933255"><ele>699.2</ele></trkpt>
<trkpt lat="47.703786" lon="12.932457"><ele>700.2</ele></trkpt>
<trkpt lat="47.704837" lon="12.931176"><ele>693.1</ele></trkpt>
<trkpt lat="47.705527" lon="12.930357"><ele>685.1</ele></trkpt>
<trkpt lat="47.706892" lon="12.929727"><ele>678.4</ele></trkpt>
<trkpt lat="47.707469" lon="12.929520"><ele>677.6</ele></trkpt>
<trkpt lat="47.708199" lon="12.927977"><ele>658.0</ele></trkpt>
<trkpt lat="47.709183" lon="12.927877"><ele>644.6</ele></trkpt>
<trkpt lat="47.709614" lon="12.927526"><ele>629.4</ele></trkpt>
<trkpt lat="47.710165" lon="12.926078"><ele>620.4</ele></trkpt>
<trkpt lat="47.710357" lon="12.924460"><ele>610.6</ele></trkpt>
<trkpt lat="47.711010" lon="12.924141"><ele>607.1</ele></trkpt>
<trkpt lat="47.712235" lon="12.923026"><ele>598.9</ele></trkpt>
<trkpt lat="47.712486" lon="12.922821"><ele>598.0</ele></trkpt>
<trkpt lat="47.713167" lon="12.921802"><ele>593.5</ele></trkpt>
<trkpt lat="47.713900" lon="12.920002"><ele>590.9</ele></trkpt>
<trkpt lat="47.714658" lon="12.918040"><ele>582.9</ele></trkpt>
<trkpt lat="47.715296" lon="12.916445"><ele>570.6</ele></trkpt>
<trkpt lat="47.716082" lon="12.914746"><ele>563.6</ele></trkpt>
<trkpt lat="47.716953" lon="12.912961"><ele>560.6</ele></trkpt>
<trkpt lat="47.717240" lon="12.912294"><ele>557.2</ele></trkpt>
<trkpt lat="47.717594" lon="12.910518"><ele>553.6</ele></trkpt>
<trkpt lat="47.717941" lon="12.908346"><ele>547.8</ele></trkpt>
<trkpt lat="47.718067" lon="12.907380"><ele>545.1</ele></trkpt>
<trkpt lat="47.718676" lon="12.905567"><ele>536.9</ele></trkpt>
<trkpt lat="47.718902" lon="12.904634"><ele>534.7</ele></trkpt>
<trkpt lat="47.719114" lon="12.902436"><ele>542.0</ele></trkpt>
<trkpt lat="47.719345" lon="12.901194"><ele>543.2</ele></trkpt>
<trkpt lat="47.719944" lon="12.901454"><ele>541.0</ele></trkpt>
<trkpt lat="47.720319" lon="12.901365"><ele>539.0</ele></trkpt>
<trkpt lat="47.721460" lon="12.900213"><ele>537.5</ele></trkpt>
<trkpt lat="47.722229" lon="12.899246"><ele>535.0</ele></trkpt>
<trkpt lat="47.721730" lon="12.897264"><ele>534.5</ele></trkpt>
<trkpt lat="47.721621" lon="12.896038"><ele>531.5</ele></trkpt>
<trkpt lat="47.721983" lon="12.894019"><ele>523.8</ele></trkpt>
<trkpt lat="47.722106" lon="12.893191"><ele>523.3</ele></trkpt>
<trkpt lat="47.722215" lon="12.890967"><ele>524.6</ele></trkpt>
<trkpt lat="47.722294" lon="12.890050"><ele>529.4</ele></trkpt>
<trkpt lat="47.722997" lon="12.889164"><ele>529.4</ele></trkpt>
<trkpt lat="47.723461" lon="12.887252"><ele>529.1</ele></trkpt>
<trkpt lat="47.723889" lon="12.886863"><ele>525.7</ele></trkpt>
<trkpt lat="47.725168" lon="12.886404"><ele>509.7</ele></trkpt>
<trkpt lat="47.725966" lon="12.885604"><ele>497.4</ele></trkpt>
<trkpt lat="47.725788" lon="12.883935"><ele>485.1</ele></trkpt>
<trkpt lat="47.726118" lon="12.883872"><ele>478.7</ele></trkpt>
<trkpt lat="47.726551" lon="12.884389"><ele>479.4</ele></trkpt>
<trkpt lat="47.726900" lon="12.883842"><ele>474.7</ele></trkpt>
</trkseg></trk></gpx>