<?xml version="1.0" encoding="UTF-8"?>
<gpx version="1.1" creator="Bad Reichenhall gravel – saját gravel-router (OSM/Overture + SRTM)" xmlns="http://www.topografix.com/GPX/1/1">
<metadata><name>Salzach-ártér–Abtsdorfer See–Laufen</name><desc>GENERÁLT NYOMVONAL – Szállodából végig a Saalach-parti bringaúton Freilassingig, a torkolatnál (Saalachspitz) rá a Salzach gátján futó Tauernradwegre, az ártéri erdők mentén észak felé, fürdés helyett kávé az Abtsdorfer See partján, majd Laufen óvárosa – a Salzach-hurokban a híddal Oberndorf felé. Haza vonattal Freilassingon át.</desc><copyright author="OpenStreetMap contributors (via Overture Maps)"><license>https://opendatacommons.org/licenses/odbl/</license></copyright><time>2026-10-05T17:10:52Z</time></metadata>
<wpt lat="47.7405" lon="12.8928"><name>Saalach-parti bringaút</name><type>view</type></wpt>
<wpt lat="47.8046" lon="12.9676"><name>Saalach-parti bringaút (Ainring)</name><type>view</type></wpt>
<wpt lat="47.8366" lon="12.9771"><name>Freilassing</name><type>town</type></wpt>
<wpt lat="47.8524" lon="13.0048"><name>Saalachspitz – folyótorkolat</name><type>view</type></wpt>
<wpt lat="47.8675" lon="12.9901"><name>Salzach-gát – Tauernradweg</name><type>view</type></wpt>
<wpt lat="47.8968" lon="12.9698"><name>Salzach-ártér</name><type>gorge</type></wpt>
<wpt lat="47.9097" lon="12.907"><name>Abtsdorfer See</name><type>lake</type></wpt>
<wpt lat="47.9377" lon="12.9311"><name>Laufen – óváros</name><type>history</type></wpt>
<wpt lat="47.9345" lon="12.9223"><name>Laufen Bahnhof</name><type>station</type></wpt>
<trk><name>Salzach-ártér–Abtsdorfer See–Laufen</name><type>gravel</type><trkseg>
<trkpt lat="47.726900" lon="12.883842"><ele>474.7</ele></trkpt>
<trkpt lat="47.727494" lon="12.883113"><ele>470.2</ele></trkpt>
<trkpt lat="47.727719" lon="12.883943"><ele>471.1</ele></trkpt>
<trkpt lat="47.728704" lon="12.884653"><ele>467.7</ele></trkpt>
<trkpt lat="47.729731" lon="12.886062"><ele>468.9</ele></trkpt>
<trkpt lat="47.730708" lon="12.887277"><ele>466.8</ele></trkpt>
<trkpt lat="47.731702" lon="12.887899"><ele>465.8</ele></trkpt>
<trkpt lat="47.732859" lon="12.888988"><ele>463.3</ele></trkpt>
<trkpt lat="47.733188" lon="12.889273"><ele>463.4</ele></trkpt>
<trkpt lat="47.734547" lon="12.890214"><ele>463.9</ele></trkpt>
<trkpt lat="47.735492" lon="12.890670"><ele>462.9</ele></trkpt>
<trkpt lat="47.736228" lon="12.891388"><ele>461.0</ele></trkpt>
<trkpt lat="47.736592" lon="12.890916"><ele>460.9</ele></trkpt>
<trkpt lat="47.737193" lon="12.891704"><ele>461.2</ele></trkpt>
<trkpt lat="47.737802" lon="12.890693"><ele>461.0</ele></trkpt>
<trkpt lat="47.738920" lon="12.891835"><ele>460.0</ele></trkpt>
<trkpt lat="47.739303" lon="12.892183"><ele>460.4</ele></trkpt>
<trkpt lat="47.739530" lon="12.892872"><ele>465.0</ele></trkpt>
<trkpt lat="47.740093" lon="12.892670"><ele>463.9</ele></trkpt>
<trkpt lat="47.740374" lon="12.893023"><ele>465.0</ele></trkpt>
<trkpt lat="47.740420" lon="12.893505"><ele>468.4</ele></trkpt>
<trkpt lat="47.740871" lon="12.893655"><ele>462.9</ele></trkpt>
<trkpt lat="47.741641" lon="12.895484"><ele>466.1</ele></trkpt>
<trkpt lat="47.742413" lon="12.897293"><ele>459.3</ele></trkpt>
<trkpt lat="47.743190" lon="12.899091"><ele>454.4</ele></trkpt>
<trkpt lat="47.743932" lon="12.900790"><ele>454.8</ele></trkpt>
<trkpt lat="47.744252" lon="12.901496"><ele>455.7</ele></trkpt>
<trkpt lat="47.743980" lon="12.902444"><ele>456.1</ele></trkpt>
<trkpt lat="47.743052" lon="12.902753"><ele>457.9</ele></trkpt>
<trkpt lat="47.742594" lon="12.902363"><ele>458.3</ele></trkpt>
<trkpt lat="47.741916" lon="12.903290"><ele>460.0</ele></trkpt>
<trkpt lat="47.742130" lon="12.903462"><ele>457.7</ele></trkpt>
<trkpt lat="47.742269" lon="12.904485"><ele>456.8</ele></trkpt>
<trkpt lat="47.743073" lon="12.906108"><ele>458.0</ele></trkpt>
<trkpt lat="47.743086" lon="12.906136"><ele>458.0</ele></trkpt>
<trkpt lat="47.743652" lon="12.908136"><ele>459.6</ele></trkpt>
<trkpt lat="47.743740" lon="12.908499"><ele>459.7</ele></trkpt>
<trkpt lat="47.744516" lon="12.910379"><ele>463.3</ele></trkpt>
<trkpt lat="47.744616" lon="12.910747"><ele>463.0</ele></trkpt>
<trkpt lat="47.744926" lon="12.911017"><ele>460.8</ele></trkpt>
<trkpt lat="47.745145" lon="12.910917"><ele>460.3</ele></trkpt>
<trkpt lat="47.746025" lon="12.909457"><ele>458.7</ele></trkpt>
<trkpt lat="47.747074" lon="12.911007"><ele>462.5</ele></trkpt>
<trkpt lat="47.747426" lon="12.911676"><ele>461.6</ele></trkpt>
<trkpt lat="47.748633" lon="12.912909"><ele>460.9</ele></trkpt>
<trkpt lat="47.749789" lon="12.914056"><ele>461.1</ele></trkpt>
<trkpt lat="47.750679" lon="12.914881"><ele>456.0</ele></trkpt>
<trkpt lat="47.751978" lon="12.916049"><ele>459.1</ele></trkpt>
<trkpt lat="47.753260" lon="12.917079"><ele>457.1</ele></trkpt>
<trkpt lat="47.753449" lon="12.917791"><ele>455.5</ele></trkpt>
<trkpt lat="47.754522" lon="12.919326"><ele>457.2</ele></trkpt>
<trkpt lat="47.754632" lon="12.919464"><ele>457.4</ele></trkpt>
<trkpt lat="47.755249" lon="12.919807"><ele>454.7</ele></trkpt>
<trkpt lat="47.756618" lon="12.919933"><ele>454.0</ele></trkpt>
<trkpt lat="47.756700" lon="12.919953"><ele>454.3</ele></trkpt>
<trkpt lat="47.757518" lon="12.920526"><ele>456.2</ele></trkpt>
<trkpt lat="47.758534" lon="12.922128"><ele>455.8</ele></trkpt>
<trkpt lat="47.759049" lon="12.923125"><ele>455.8</ele></trkpt>
<trkpt lat="47.759362" lon="12.924422"><ele>453.6</ele></trkpt>
<trkpt lat="47.759610" lon="12.924863"><ele>451.7</ele></trkpt>
<trkpt lat="47.760705" lon="12.925201"><ele>452.0</ele></trkpt>
<trkpt lat="47.760930" lon="12.925783"><ele>453.5</ele></trkpt>
<trkpt lat="47.761403" lon="12.926287"><ele>453.0</ele></trkpt>
<trkpt lat="47.762479" lon="12.926382"><ele>449.0</ele></trkpt>
<trkpt lat="47.763430" lon="12.927040"><ele>452.3</ele></trkpt>
<trkpt lat="47.764355" lon="12.927330"><ele>452.3</ele></trkpt>
<trkpt lat="47.764854" lon="12.927045"><ele>451.3</ele></trkpt>
<trkpt lat="47.764769" lon="12.927583"><ele>451.1</ele></trkpt>
<trkpt lat="47.765645" lon="12.929363"><ele>450.1</ele></trkpt>
<trkpt lat="47.766064" lon="12.930465"><ele>457.4</ele></trkpt>
<trkpt lat="47.766240" lon="12.932452"><ele>466.3</ele></trkpt>
<trkpt lat="47.766448" lon="12.934544"><ele>468.1</ele></trkpt>
<trkpt lat="47.766510" lon="12.935177"><ele>471.9</ele></trkpt>
<trkpt lat="47.766826" lon="12.936860"><ele>480.1</ele></trkpt>
<trkpt lat="47.767463" lon="12.937809"><ele>488.2</ele></trkpt>
<trkpt lat="47.768864" lon="12.938469"><ele>476.6</ele></trkpt>
<trkpt lat="47.769498" lon="12.938769"><ele>480.4</ele></trkpt>
<trkpt lat="47.770285" lon="12.939760"><ele>489.7</ele></trkpt>
<trkpt lat="47.770861" lon="12.941449"><ele>487.4</ele></trkpt>
<trkpt lat="47.771294" lon="12.943438"><ele>485.1</ele></trkpt>
<trkpt lat="47.771868" lon="12.944974"><ele>494.2</ele></trkpt>
<trkpt lat="47.771894" lon="12.946966"><ele>493.9</ele></trkpt>
<trkpt lat="47.771977" lon="12.947545"><ele>491.7</ele></trkpt>
<trkpt lat="47.773078" lon="12.948723"><ele>476.1</ele></trkpt>
<trkpt lat="47.774256" lon="12.950063"><ele>466.3</ele></trkpt>
<trkpt lat="47.775322" lon="12.951352"><ele>476.9</ele></trkpt>
<trkpt lat="47.776248" lon="12.952398"><ele>452.3</ele></trkpt>
<trkpt lat="47.777006" lon="12.954137"><ele>441.0</ele></trkpt>
<trkpt lat="47.777714" lon="12.955897"><ele>442.3</ele></trkpt>
<trkpt lat="47.778404" lon="12.957662"><ele>440.9</ele></trkpt>
<trkpt lat="47.779149" lon="12.959409"><ele>439.1</ele></trkpt>
<trkpt lat="47.779904" lon="12.961045"><ele>438.3</ele></trkpt>
<trkpt lat="47.781209" lon="12.961593"><ele>438.7</ele></trkpt>
<trkpt lat="47.782093" lon="12.962007"><ele>438.0</ele></trkpt>
<trkpt lat="47.783384" lon="12.962754"><ele>438.0</ele></trkpt>
<trkpt lat="47.784290" lon="12.963363"><ele>436.6</ele></trkpt>
<trkpt lat="47.785488" lon="12.963760"><ele>436.1</ele></trkpt>
<trkpt lat="47.786841" lon="12.963740"><ele>440.4</ele></trkpt>
<trkpt lat="47.787412" lon="12.965038"><ele>440.6</ele></trkpt>
<trkpt lat="47.787809" lon="12.965492"><ele>440.0</ele></trkpt>
<trkpt lat="47.788889" lon="12.964565"><ele>438.0</ele></trkpt>
<trkpt lat="47.789329" lon="12.965414"><ele>437.4</ele></trkpt>
<trkpt lat="47.789966" lon="12.965292"><ele>438.0</ele></trkpt>
<trkpt lat="47.790560" lon="12.964531"><ele>432.4</ele></trkpt>
<trkpt lat="47.791025" lon="12.962551"><ele>431.9</ele></trkpt>
<trkpt lat="47.791050" lon="12.962150"><ele>431.7</ele></trkpt>
<trkpt lat="47.792043" lon="12.960515"><ele>427.0</ele></trkpt>
<trkpt lat="47.792422" lon="12.959819"><ele>426.7</ele></trkpt>
<trkpt lat="47.792313" lon="12.959409"><ele>426.0</ele></trkpt>
<trkpt lat="47.793246" lon="12.957820"><ele>425.9</ele></trkpt>
<trkpt lat="47.793993" lon="12.956518"><ele>426.0</ele></trkpt>
<trkpt lat="47.794948" lon="12.958094"><ele>427.1</ele></trkpt>
<trkpt lat="47.795920" lon="12.959687"><ele>428.1</ele></trkpt>
<trkpt lat="47.796956" lon="12.961331"><ele>424.1</ele></trkpt>
<trkpt lat="47.797148" lon="12.961620"><ele>426.3</ele></trkpt>
<trkpt lat="47.797276" lon="12.962164"><ele>428.2</ele></trkpt>
<trkpt lat="47.798299" lon="12.963604"><ele>430.0</ele></trkpt>
<trkpt lat="47.798999" lon="12.964296"><ele>430.7</ele></trkpt>
<trkpt lat="47.799944" lon="12.965823"><ele>431.8</ele></trkpt>
<trkpt lat="47.800024" lon="12.965923"><ele>431.8</ele></trkpt>
<trkpt lat="47.801367" lon="12.966527"><ele>432.5</ele></trkpt>
<trkpt lat="47.801552" lon="12.966628"><ele>432.4</ele></trkpt>
<trkpt lat="47.802745" lon="12.967574"><ele>428.6</ele></trkpt>
<trkpt lat="47.803931" lon="12.968641"><ele>431.1</ele></trkpt>
<trkpt lat="47.805232" lon="12.969766"><ele>426.8</ele></trkpt>
<trkpt lat="47.806403" lon="12.970815"><ele>425.9</ele></trkpt>
<trkpt lat="47.807274" lon="12.971534"><ele>423.3</ele></trkpt>
<trkpt lat="47.808548" lon="12.972530"><ele>424.5</ele></trkpt>
<trkpt lat="47.809785" lon="12.973495"><ele>427.1</ele></trkpt>
<trkpt lat="47.811133" lon="12.974359"><ele>420.7</ele></trkpt>
<trkpt lat="47.811253" lon="12.974411"><ele>420.9</ele></trkpt>
<trkpt lat="47.811147" lon="12.976229"><ele>427.1</ele></trkpt>
<trkpt lat="47.811445" lon="12.977455"><ele>422.2</ele></trkpt>
<trkpt lat="47.811210" lon="12.978860"><ele>424.0</ele></trkpt>
<trkpt lat="47.811519" lon="12.979766"><ele>422.3</ele></trkpt>
<trkpt lat="47.811228" lon="12.980356"><ele>421.0</ele></trkpt>
<trkpt lat="47.811120" lon="12.981297"><ele>424.7</ele></trkpt>
<trkpt lat="47.810734" lon="12.981876"><ele>423.6</ele></trkpt>
<trkpt lat="47.811558" lon="12.983454"><ele>423.6</ele></trkpt>
<trkpt lat="47.811725" lon="12.984327"><ele>424.1</ele></trkpt>
<trkpt lat="47.811596" lon="12.984987"><ele>423.5</ele></trkpt>
<trkpt lat="47.811890" lon="12.985711"><ele>425.0</ele></trkpt>
<trkpt lat="47.811307" lon="12.986568"><ele>429.2</ele></trkpt>
<trkpt lat="47.811325" lon="12.987385"><ele>428.2</ele></trkpt>
<trkpt lat="47.811872" lon="12.988072"><ele>424.5</ele></trkpt>
<trkpt lat="47.812463" lon="12.989965"><ele>426.9</ele></trkpt>
<trkpt lat="47.812590" lon="12.990561"><ele>429.0</ele></trkpt>
<trkpt lat="47.812120" lon="12.991863"><ele>426.2</ele></trkpt>
<trkpt lat="47.812254" lon="12.993742"><ele>426.5</ele></trkpt>
<trkpt lat="47.811630" lon="12.995563"><ele>425.0</ele></trkpt>
<trkpt lat="47.811337" lon="12.996497"><ele>426.7</ele></trkpt>
<trkpt lat="47.811324" lon="12.997018"><ele>428.2</ele></trkpt>
<trkpt lat="47.812613" lon="12.998187"><ele>426.6</ele></trkpt>
<trkpt lat="47.813869" lon="12.999426"><ele>429.9</ele></trkpt>
<trkpt lat="47.814615" lon="13.000131"><ele>432.7</ele></trkpt>
<trkpt lat="47.815929" lon="13.000153"><ele>423.7</ele></trkpt>
<trkpt lat="47.816511" lon="13.000558"><ele>423.0</ele></trkpt>
<trkpt lat="47.816548" lon="13.001092"><ele>423.9</ele></trkpt>
<trkpt lat="47.815921" lon="13.003036"><ele>424.0</ele></trkpt>
<trkpt lat="47.815747" lon="13.003558"><ele>424.1</ele></trkpt>
<trkpt lat="47.816778" lon="13.004292"><ele>422.5</ele></trkpt>
<trkpt lat="47.817015" lon="13.004723"><ele>422.8</ele></trkpt>
<trkpt lat="47.817335" lon="13.004521"><ele>421.2</ele></trkpt>
<trkpt lat="47.818238" lon="13.006256"><ele>422.3</ele></trkpt>
<trkpt lat="47.818414" lon="13.006555"><ele>421.7</ele></trkpt>
<trkpt lat="47.818849" lon="13.006859"><ele>421.9</ele></trkpt>
<trkpt lat="47.819836" lon="13.008450"><ele>423.3</ele></trkpt>
<trkpt lat="47.820023" lon="13.008727"><ele>423.0</ele></trkpt>
<trkpt lat="47.820744" lon="13.009542"><ele>422.2</ele></trkpt>
<trkpt lat="47.821449" lon="13.007949"><ele>420.7</ele></trkpt>
<trkpt lat="47.821606" lon="13.007959"><ele>419.5</ele></trkpt>
<trkpt lat="47.822464" lon="13.009293"><ele>414.7</ele></trkpt>
<trkpt lat="47.823488" lon="13.009221"><ele>420.6</ele></trkpt>
<trkpt lat="47.824118" lon="13.009488"><ele>423.5</ele></trkpt>
<trkpt lat="47.824672" lon="13.009118"><ele>424.7</ele></trkpt>
<trkpt lat="47.825028" lon="13.009140"><ele>424.0</ele></trkpt>
<trkpt lat="47.825816" lon="13.010352"><ele>418.1</ele></trkpt>
<trkpt lat="47.826882" lon="13.011038"><ele>417.0</ele></trkpt>
<trkpt lat="47.827267" lon="13.011081"><ele>416.8</ele></trkpt>
<trkpt lat="47.827918" lon="13.013115"><ele>410.9</ele></trkpt>
<trkpt lat="47.828565" lon="13.014921"><ele>410.8</ele></trkpt>
<trkpt lat="47.829099" lon="13.016392"><ele>413.0</ele></trkpt>
<trkpt lat="47.828264" lon="13.017349"><ele>413.8</ele></trkpt>
<trkpt lat="47.828020" lon="13.018270"><ele>413.4</ele></trkpt>
<trkpt lat="47.828017" lon="13.019329"><ele>414.6</ele></trkpt>
<trkpt lat="47.828575" lon="13.021233"><ele>415.0</ele></trkpt>
<trkpt lat="47.829021" lon="13.022726"><ele>413.1</ele></trkpt>
<trkpt lat="47.828832" lon="13.022930"><ele>414.0</ele></trkpt>
<trkpt lat="47.829628" lon="13.024740"><ele>412.3</ele></trkpt>
<trkpt lat="47.830303" lon="13.026537"><ele>411.9</ele></trkpt>
<trkpt lat="47.830686" lon="13.027581"><ele>409.6</ele></trkpt>
<trkpt lat="47.829415" lon="13.028581"><ele>413.1</ele></trkpt>
<trkpt lat="47.828192" lon="13.029465"><ele>410.9</ele></trkpt>
<trkpt lat="47.827906" lon="13.029642"><ele>410.0</ele></trkpt>
<trkpt lat="47.828224" lon="13.031060"><ele>412.5</ele></trkpt>
<trkpt lat="47.829554" lon="13.030062"><ele>411.4</ele></trkpt>
<trkpt lat="47.830756" lon="13.029119"><ele>411.8</ele></trkpt>
<trkpt lat="47.831785" lon="13.028267"><ele>409.1</ele></trkpt>
<trkpt lat="47.833023" lon="13.027145"><ele>409.6</ele></trkpt>
<trkpt lat="47.834005" lon="13.026147"><ele>407.2</ele></trkpt>
<trkpt lat="47.835101" lon="13.024926"><ele>410.9</ele></trkpt>
<trkpt lat="47.836239" lon="13.023645"><ele>410.9</ele></trkpt>
<trkpt lat="47.837350" lon="13.022409"><ele>410.3</ele></trkpt>
<trkpt lat="47.838447" lon="13.021185"><ele>411.1</ele></trkpt>
<trkpt lat="47.839580" lon="13.019868"><ele>411.8</ele></trkpt>
<trkpt lat="47.840736" lon="13.018540"><ele>408.8</ele></trkpt>
<trkpt lat="47.841824" lon="13.017297"><ele>407.3</ele></trkpt>
<trkpt lat="47.842222" lon="13.016855"><ele>407.7</ele></trkpt>
<trkpt lat="47.843370" lon="13.015479"><ele>406.0</ele></trkpt>
<trkpt lat="47.844450" lon="13.014193"><ele>404.2</ele></trkpt>
<trkpt lat="47.845616" lon="13.012767"><ele>407.2</ele></trkpt>
<trkpt lat="47.846732" lon="13.011415"><ele>409.1</ele></trkpt>
<trkpt lat="47.847814" lon="13.010121"><ele>408.3</ele></trkpt>
<trkpt lat="47.848992" lon="13.008707"><ele>407.6</ele></trkpt>
<trkpt lat="47.849467" lon="13.008133"><ele>409.9</ele></trkpt>
<trkpt lat="47.850517" lon="13.007299"><ele>409.8</ele></trkpt>
<trkpt lat="47.850686" lon="13.006780"><ele>408.4</ele></trkpt>
<trkpt lat="47.851821" lon="13.005468"><ele>408.1</ele></trkpt>
<trkpt lat="47.852241" lon="13.004983"><ele>406.9</ele></trkpt>
<trkpt lat="47.853436" lon="13.003634"><ele>405.7</ele></trkpt>
<trkpt lat="47.854589" lon="13.002379"><ele>409.5</ele></trkpt>
<trkpt lat="47.855723" lon="13.001249"><ele>410.3</ele></trkpt>
<trkpt lat="47.856361" lon="13.000612"><ele>407.5</ele></trkpt>
<trkpt lat="47.857526" lon="12.999492"><ele>408.6</ele></trkpt>
<trkpt lat="47.858727" lon="12.998315"><ele>410.9</ele></trkpt>
<trkpt lat="47.859928" lon="12.997138"><ele>407.6</ele></trkpt>
<trkpt lat="47.861128" lon="12.995962"><ele>409.4</ele></trkpt>
<trkpt lat="47.862329" lon="12.994785"><ele>407.9</ele></trkpt>
<trkpt lat="47.862811" lon="12.994313"><ele>409.0</ele></trkpt>
<trkpt lat="47.864033" lon="12.993256"><ele>409.0</ele></trkpt>
<trkpt lat="47.865253" lon="12.992123"><ele>410.6</ele></trkpt>
<trkpt lat="47.866433" lon="12.991041"><ele>409.1</ele></trkpt>
<trkpt lat="47.867676" lon="12.989966"><ele>409.7</ele></trkpt>
<trkpt lat="47.868936" lon="12.988864"><ele>409.9</ele></trkpt>
<trkpt lat="47.870128" lon="12.987740"><ele>408.9</ele></trkpt>
<trkpt lat="47.870604" lon="12.987291"><ele>408.4</ele></trkpt>
<trkpt lat="47.871851" lon="12.986249"><ele>408.2</ele></trkpt>
<trkpt lat="47.873127" lon="12.985188"><ele>408.2</ele></trkpt>
<trkpt lat="47.873143" lon="12.985174"><ele>408.3</ele></trkpt>
<trkpt lat="47.874180" lon="12.984620"><ele>408.6</ele></trkpt>
<trkpt lat="47.874447" lon="12.984196"><ele>407.1</ele></trkpt>
<trkpt lat="47.875770" lon="12.983208"><ele>412.3</ele></trkpt>
<trkpt lat="47.877102" lon="12.982226"><ele>407.6</ele></trkpt>
<trkpt lat="47.878405" lon="12.981320"><ele>402.6</ele></trkpt>
<trkpt lat="47.878487" lon="12.981264"><ele>403.5</ele></trkpt>
<trkpt lat="47.879801" lon="12.980394"><ele>405.1</ele></trkpt>
<trkpt lat="47.881121" lon="12.979574"><ele>410.5</ele></trkpt>
<trkpt lat="47.882445" lon="12.978737"><ele>403.0</ele></trkpt>
<trkpt lat="47.883761" lon="12.977927"><ele>403.9</ele></trkpt>
<trkpt lat="47.885086" lon="12.977112"><ele>406.1</ele></trkpt>
<trkpt lat="47.886414" lon="12.976291"><ele>403.6</ele></trkpt>
<trkpt lat="47.887728" lon="12.975465"><ele>406.1</ele></trkpt>
<trkpt lat="47.889053" lon="12.974631"><ele>405.9</ele></trkpt>
<trkpt lat="47.890424" lon="12.973801"><ele>403.0</ele></trkpt>
<trkpt lat="47.891742" lon="12.972995"><ele>406.6</ele></trkpt>
<trkpt lat="47.892845" lon="12.972347"><ele>403.1</ele></trkpt>
<trkpt lat="47.892878" lon="12.972887"><ele>404.6</ele></trkpt>
<trkpt lat="47.893307" lon="12.974137"><ele>404.3</ele></trkpt>
<trkpt lat="47.893118" lon="12.974744"><ele>402.8</ele></trkpt>
<trkpt lat="47.893725" lon="12.974363"><ele>401.0</ele></trkpt>
<trkpt lat="47.894642" lon="12.974521"><ele>402.3</ele></trkpt>
<trkpt lat="47.895150" lon="12.974886"><ele>402.0</ele></trkpt>
<trkpt lat="47.896597" lon="12.974253"><ele>402.5</ele></trkpt>
<trkpt lat="47.897078" lon="12.974086"><ele>406.1</ele></trkpt>
<trkpt lat="47.897209" lon="12.973976"><ele>406.9</ele></trkpt>
<trkpt lat="47.896653" lon="12.972748"><ele>406.9</ele></trkpt>
<trkpt lat="47.897361" lon="12.972256"><ele>404.7</ele></trkpt>
<trkpt lat="47.898697" lon="12.972002"><ele>403.2</ele></trkpt>
<trkpt lat="47.898995" lon="12.971830"><ele>402.6</ele></trkpt>
<trkpt lat="47.899043" lon="12.971379"><ele>402.0</ele></trkpt>
<trkpt lat="47.900285" lon="12.970100"><ele>406.3</ele></trkpt>
<trkpt lat="47.900526" lon="12.969838"><ele>408.5</ele></trkpt>
<trkpt lat="47.900524" lon="12.969621"><ele>409.4</ele></trkpt>
<trkpt lat="47.899583" lon="12.968139"><ele>404.6</ele></trkpt>
<trkpt lat="47.900826" lon="12.967273"><ele>403.2</ele></trkpt>
<trkpt lat="47.902164" lon="12.966314"><ele>404.6</ele></trkpt>
<trkpt lat="47.903440" lon="12.965327"><ele>402.7</ele></trkpt>
<trkpt lat="47.903643" lon="12.965171"><ele>403.2</ele></trkpt>
<trkpt lat="47.904935" lon="12.964110"><ele>404.2</ele></trkpt>
<trkpt lat="47.906035" lon="12.963095"><ele>403.2</ele></trkpt>
<trkpt lat="47.907366" lon="12.963383"><ele>406.5</ele></trkpt>
<trkpt lat="47.907511" lon="12.963454"><ele>405.9</ele></trkpt>
<trkpt lat="47.907925" lon="12.964156"><ele>402.5</ele></trkpt>
<trkpt lat="47.907744" lon="12.965100"><ele>405.9</ele></trkpt>
<trkpt lat="47.908528" lon="12.966918"><ele>405.0</ele></trkpt>
<trkpt lat="47.908445" lon="12.967677"><ele>404.1</ele></trkpt>
<trkpt lat="47.908088" lon="12.968505"><ele>404.9</ele></trkpt>
<trkpt lat="47.909564" lon="12.968948"><ele>399.0</ele></trkpt>
<trkpt lat="47.910778" lon="12.969243"><ele>396.0</ele></trkpt>
<trkpt lat="47.912176" lon="12.970075"><ele>397.3</ele></trkpt>
<trkpt lat="47.912751" lon="12.970352"><ele>397.0</ele></trkpt>
<trkpt lat="47.914159" lon="12.970626"><ele>399.0</ele></trkpt>
<trkpt lat="47.914530" lon="12.970680"><ele>400.0</ele></trkpt>
<trkpt lat="47.915879" lon="12.970637"><ele>398.8</ele></trkpt>
<trkpt lat="47.916192" lon="12.970606"><ele>397.7</ele></trkpt>
<trkpt lat="47.917554" lon="12.970861"><ele>395.4</ele></trkpt>
<trkpt lat="47.918448" lon="12.971079"><ele>400.0</ele></trkpt>
<trkpt lat="47.919757" lon="12.970360"><ele>398.7</ele></trkpt>
<trkpt lat="47.921070" lon="12.969535"><ele>399.2</ele></trkpt>
<trkpt lat="47.921071" lon="12.969534"><ele>399.2</ele></trkpt>
<trkpt lat="47.920917" lon="12.968692"><ele>398.7</ele></trkpt>
<trkpt lat="47.921554" lon="12.968466"><ele>399.3</ele></trkpt>
<trkpt lat="47.922354" lon="12.967789"><ele>395.1</ele></trkpt>
<trkpt lat="47.923460" lon="12.966423"><ele>395.0</ele></trkpt>
<trkpt lat="47.924498" lon="12.965135"><ele>394.7</ele></trkpt>
<trkpt lat="47.925609" lon="12.963746"><ele>396.2</ele></trkpt>
<trkpt lat="47.926003" lon="12.963288"><ele>395.8</ele></trkpt>
<trkpt lat="47.927121" lon="12.961763"><ele>395.0</ele></trkpt>
<trkpt lat="47.928171" lon="12.960244"><ele>394.6</ele></trkpt>
<trkpt lat="47.929159" lon="12.958792"><ele>394.0</ele></trkpt>
<trkpt lat="47.930150" lon="12.957334"><ele>393.0</ele></trkpt>
<trkpt lat="47.931181" lon="12.955807"><ele>396.5</ele></trkpt>
<trkpt lat="47.931495" lon="12.955341"><ele>397.1</ele></trkpt>
<trkpt lat="47.932403" lon="12.953761"><ele>394.2</ele></trkpt>
<trkpt lat="47.932486" lon="12.953448"><ele>393.8</ele></trkpt>
<trkpt lat="47.932748" lon="12.953510"><ele>394.8</ele></trkpt>
<trkpt lat="47.932872" lon="12.952488"><ele>395.3</ele></trkpt>
<trkpt lat="47.933239" lon="12.952393"><ele>398.0</ele></trkpt>
<trkpt lat="47.933358" lon="12.950421"><ele>409.4</ele></trkpt>
<trkpt lat="47.933097" lon="12.948354"><ele>407.4</ele></trkpt>
<trkpt lat="47.933075" lon="12.948091"><ele>407.1</ele></trkpt>
<trkpt lat="47.933266" lon="12.947306"><ele>404.8</ele></trkpt>
<trkpt lat="47.934387" lon="12.946061"><ele>402.0</ele></trkpt>
<trkpt lat="47.934424" lon="12.946031"><ele>402.0</ele></trkpt>
<trkpt lat="47.935821" lon="12.945294"><ele>403.0</ele></trkpt>
<trkpt lat="47.936552" lon="12.944970"><ele>402.6</ele></trkpt>
<trkpt lat="47.937652" lon="12.943805"><ele>402.2</ele></trkpt>
<trkpt lat="47.938709" lon="12.942788"><ele>401.4</ele></trkpt>
<trkpt lat="47.939675" lon="12.942632"><ele>403.6</ele></trkpt>
<trkpt lat="47.939684" lon="12.940536"><ele>401.9</ele></trkpt>
<trkpt lat="47.939700" lon="12.938310"><ele>394.6</ele></trkpt>
<trkpt lat="47.939695" lon="12.936577"><ele>410.5</ele></trkpt>
<trkpt lat="47.939854" lon="12.936197"><ele>410.4</ele></trkpt>
<trkpt lat="47.939753" lon="12.935111"><ele>406.8</ele></trkpt>
<trkpt lat="47.939158" lon="12.933179"><ele>403.0</ele></trkpt>
<trkpt lat="47.939146" lon="12.933134"><ele>403.1</ele></trkpt>
<trkpt lat="47.938577" lon="12.933710"><ele>404.0</ele></trkpt>
<trkpt lat="47.938299" lon="12.932998"><ele>404.1</ele></trkpt>
<trkpt lat="47.938004" lon="12.931037"><ele>404.0</ele></trkpt>
<trkpt lat="47.937892" lon="12.930182"><ele>406.1</ele></trkpt>
<trkpt lat="47.937627" lon="12.929973"><ele>409.2</ele></trkpt>
<trkpt lat="47.936851" lon="12.930149"><ele>413.3</ele></trkpt>
<trkpt lat="47.936915" lon="12.928015"><ele>417.9</ele></trkpt>
<trkpt lat="47.936924" lon="12.927690"><ele>417.0</ele></trkpt>
<trkpt lat="47.935836" lon="12.926325"><ele>419.2</ele></trkpt>
<trkpt lat="47.934787" lon="12.925050"><ele>426.4</ele></trkpt>
<trkpt lat="47.934324" lon="12.924625"><ele>431.5</ele></trkpt>
<trkpt lat="47.934364" lon="12.924051"><ele>433.4</ele></trkpt>
<trkpt lat="47.935072" lon="12.923027"><ele>437.3</ele></trkpt>
<trkpt lat="47.934989" lon="12.922629"><ele>440.5</ele></trkpt>
<trkpt lat="47.934619" lon="12.922275"><ele>440.9</ele></trkpt>
</trkseg></trk></gpx>