<?xml version="1.0" encoding="UTF-8"?>
<gpx version="1.1" creator="Bad Reichenhall gravel – saját gravel-router (OSM/Overture + SRTM)" xmlns="http://www.topografix.com/GPX/1/1">
<metadata><name>Vonattal Salzburgba, bringával haza (WOSSA 1 ihlette)</name><desc>GENERÁLT NYOMVONAL – Reggel S-Bahnnal Salzburgba, kávé a Salzach-parton, aztán a Salzach gátján Hellbrunnig, a Glasenbach-szurdok bejáratáig, majd a Leopoldskroner Moos lápréti útjain, Grödigen és Fürstenbrunnon át az Untersberg lábánál haza. Ajándék nap: egyirányú, majdnem végig lejt vagy sík.</desc><copyright author="OpenStreetMap contributors (via Overture Maps)"><license>https://opendatacommons.org/licenses/odbl/</license></copyright><time>2026-10-03T21:47:51Z</time></metadata>
<wpt lat="47.8125" lon="13.0453"><name>Salzburg Hbf</name><type>station</type></wpt>
<wpt lat="47.8" lon="13.045"><name>Salzburg óváros – Salzach</name><type>history</type></wpt>
<wpt lat="47.77" lon="13.0759"><name>Salzach-gát</name><type>view</type></wpt>
<wpt lat="47.7633" lon="13.0644"><name>Schloss Hellbrunn</name><type>history</type></wpt>
<wpt lat="47.7858" lon="13.0387"><name>Leopoldskroner Weiher</name><type>lake</type></wpt>
<wpt lat="47.7433" lon="12.9915"><name>Fürstenbrunn</name><type>history</type></wpt>
<wpt lat="47.7296" lon="12.918"><name>Großgmain</name><type>town</type></wpt>
<trk><name>Vonattal Salzburgba, bringával haza (WOSSA 1 ihlette)</name><type>gravel</type><trkseg>
<trkpt lat="47.812702" lon="13.045038"><ele>423.5</ele></trkpt>
<trkpt lat="47.812903" lon="13.044492"><ele>419.6</ele></trkpt>
<trkpt lat="47.811645" lon="13.043711"><ele>427.1</ele></trkpt>
<trkpt lat="47.810676" lon="13.043085"><ele>423.0</ele></trkpt>
<trkpt lat="47.809656" lon="13.041673"><ele>426.5</ele></trkpt>
<trkpt lat="47.808301" lon="13.041404"><ele>425.1</ele></trkpt>
<trkpt lat="47.808014" lon="13.041297"><ele>424.9</ele></trkpt>
<trkpt lat="47.807392" lon="13.039282"><ele>424.4</ele></trkpt>
<trkpt lat="47.807056" lon="13.037931"><ele>420.1</ele></trkpt>
<trkpt lat="47.805685" lon="13.038467"><ele>419.3</ele></trkpt>
<trkpt lat="47.804851" lon="13.038879"><ele>422.5</ele></trkpt>
<trkpt lat="47.804042" lon="13.039561"><ele>421.1</ele></trkpt>
<trkpt lat="47.802945" lon="13.041117"><ele>422.7</ele></trkpt>
<trkpt lat="47.802241" lon="13.042245"><ele>418.8</ele></trkpt>
<trkpt lat="47.801583" lon="13.044163"><ele>427.5</ele></trkpt>
<trkpt lat="47.801356" lon="13.044659"><ele>421.6</ele></trkpt>
<trkpt lat="47.800603" lon="13.044286"><ele>422.9</ele></trkpt>
<trkpt lat="47.800037" lon="13.044410"><ele>435.2</ele></trkpt>
<trkpt lat="47.799784" lon="13.046228"><ele>436.6</ele></trkpt>
<trkpt lat="47.799515" lon="13.046626"><ele>436.5</ele></trkpt>
<trkpt lat="47.799188" lon="13.046738"><ele>434.6</ele></trkpt>
<trkpt lat="47.799029" lon="13.047471"><ele>431.5</ele></trkpt>
<trkpt lat="47.798922" lon="13.048435"><ele>427.0</ele></trkpt>
<trkpt lat="47.799343" lon="13.048913"><ele>419.5</ele></trkpt>
<trkpt lat="47.798675" lon="13.050948"><ele>423.5</ele></trkpt>
<trkpt lat="47.798007" lon="13.052686"><ele>424.0</ele></trkpt>
<trkpt lat="47.797675" lon="13.053689"><ele>421.0</ele></trkpt>
<trkpt lat="47.797303" lon="13.054130"><ele>424.2</ele></trkpt>
<trkpt lat="47.796576" lon="13.055893"><ele>421.0</ele></trkpt>
<trkpt lat="47.795689" lon="13.057706"><ele>423.5</ele></trkpt>
<trkpt lat="47.795425" lon="13.058223"><ele>418.1</ele></trkpt>
<trkpt lat="47.794520" lon="13.059821"><ele>418.7</ele></trkpt>
<trkpt lat="47.793602" lon="13.061401"><ele>422.2</ele></trkpt>
<trkpt lat="47.792695" lon="13.063034"><ele>423.6</ele></trkpt>
<trkpt lat="47.791782" lon="13.064686"><ele>424.7</ele></trkpt>
<trkpt lat="47.790918" lon="13.066249"><ele>424.1</ele></trkpt>
<trkpt lat="47.790471" lon="13.067078"><ele>422.6</ele></trkpt>
<trkpt lat="47.789401" lon="13.068550"><ele>421.7</ele></trkpt>
<trkpt lat="47.788648" lon="13.069791"><ele>422.4</ele></trkpt>
<trkpt lat="47.787537" lon="13.071148"><ele>422.0</ele></trkpt>
<trkpt lat="47.786391" lon="13.072549"><ele>424.0</ele></trkpt>
<trkpt lat="47.785318" lon="13.073833"><ele>423.8</ele></trkpt>
<trkpt lat="47.784692" lon="13.074459"><ele>423.2</ele></trkpt>
<trkpt lat="47.783352" lon="13.075233"><ele>423.3</ele></trkpt>
<trkpt lat="47.783123" lon="13.075329"><ele>422.8</ele></trkpt>
<trkpt lat="47.781732" lon="13.075469"><ele>420.8</ele></trkpt>
<trkpt lat="47.781633" lon="13.075451"><ele>421.0</ele></trkpt>
<trkpt lat="47.781623" lon="13.076899"><ele>422.7</ele></trkpt>
<trkpt lat="47.780282" lon="13.076667"><ele>423.0</ele></trkpt>
<trkpt lat="47.778852" lon="13.076512"><ele>425.4</ele></trkpt>
<trkpt lat="47.777482" lon="13.076356"><ele>424.8</ele></trkpt>
<trkpt lat="47.776013" lon="13.076198"><ele>427.0</ele></trkpt>
<trkpt lat="47.774650" lon="13.076045"><ele>427.8</ele></trkpt>
<trkpt lat="47.773133" lon="13.075847"><ele>426.7</ele></trkpt>
<trkpt lat="47.771767" lon="13.075741"><ele>427.3</ele></trkpt>
<trkpt lat="47.771284" lon="13.075701"><ele>427.1</ele></trkpt>
<trkpt lat="47.770622" lon="13.075724"><ele>424.6</ele></trkpt>
<trkpt lat="47.770432" lon="13.076102"><ele>426.4</ele></trkpt>
<trkpt lat="47.770008" lon="13.076146"><ele>429.9</ele></trkpt>
<trkpt lat="47.770589" lon="13.075940"><ele>425.4</ele></trkpt>
<trkpt lat="47.770508" lon="13.076361"><ele>427.1</ele></trkpt>
<trkpt lat="47.770686" lon="13.076616"><ele>430.9</ele></trkpt>
<trkpt lat="47.770876" lon="13.074553"><ele>424.8</ele></trkpt>
<trkpt lat="47.770895" lon="13.073572"><ele>427.9</ele></trkpt>
<trkpt lat="47.770722" lon="13.074227"><ele>425.6</ele></trkpt>
<trkpt lat="47.769350" lon="13.074084"><ele>427.9</ele></trkpt>
<trkpt lat="47.768573" lon="13.073996"><ele>426.8</ele></trkpt>
<trkpt lat="47.767071" lon="13.074089"><ele>430.0</ele></trkpt>
<trkpt lat="47.767066" lon="13.074089"><ele>430.0</ele></trkpt>
<trkpt lat="47.767050" lon="13.073725"><ele>434.3</ele></trkpt>
<trkpt lat="47.766324" lon="13.073391"><ele>434.3</ele></trkpt>
<trkpt lat="47.765679" lon="13.071488"><ele>433.6</ele></trkpt>
<trkpt lat="47.765575" lon="13.070977"><ele>431.0</ele></trkpt>
<trkpt lat="47.765470" lon="13.071015"><ele>432.8</ele></trkpt>
<trkpt lat="47.765490" lon="13.070568"><ele>430.9</ele></trkpt>
<trkpt lat="47.764834" lon="13.068552"><ele>431.1</ele></trkpt>
<trkpt lat="47.764246" lon="13.066654"><ele>428.4</ele></trkpt>
<trkpt lat="47.763948" lon="13.065698"><ele>429.6</ele></trkpt>
<trkpt lat="47.763654" lon="13.064908"><ele>428.7</ele></trkpt>
<trkpt lat="47.763191" lon="13.065049"><ele>429.9</ele></trkpt>
<trkpt lat="47.763120" lon="13.064165"><ele>431.8</ele></trkpt>
<trkpt lat="47.763347" lon="13.064095"><ele>431.0</ele></trkpt>
<trkpt lat="47.763478" lon="13.064513"><ele>430.2</ele></trkpt>
<trkpt lat="47.763759" lon="13.064597"><ele>428.9</ele></trkpt>
<trkpt lat="47.765170" lon="13.064138"><ele>432.7</ele></trkpt>
<trkpt lat="47.766665" lon="13.063667"><ele>429.0</ele></trkpt>
<trkpt lat="47.768072" lon="13.063220"><ele>431.0</ele></trkpt>
<trkpt lat="47.769537" lon="13.062754"><ele>429.9</ele></trkpt>
<trkpt lat="47.769592" lon="13.062736"><ele>429.8</ele></trkpt>
<trkpt lat="47.769477" lon="13.061165"><ele>426.8</ele></trkpt>
<trkpt lat="47.769672" lon="13.059043"><ele>428.6</ele></trkpt>
<trkpt lat="47.769676" lon="13.058990"><ele>429.1</ele></trkpt>
<trkpt lat="47.770378" lon="13.058606"><ele>431.1</ele></trkpt>
<trkpt lat="47.770458" lon="13.058056"><ele>432.3</ele></trkpt>
<trkpt lat="47.770329" lon="13.057556"><ele>433.0</ele></trkpt>
<trkpt lat="47.770725" lon="13.055774"><ele>432.8</ele></trkpt>
<trkpt lat="47.771555" lon="13.054981"><ele>434.1</ele></trkpt>
<trkpt lat="47.771518" lon="13.053540"><ele>435.1</ele></trkpt>
<trkpt lat="47.772407" lon="13.051844"><ele>433.3</ele></trkpt>
<trkpt lat="47.772940" lon="13.050786"><ele>432.2</ele></trkpt>
<trkpt lat="47.772503" lon="13.048926"><ele>430.0</ele></trkpt>
<trkpt lat="47.772620" lon="13.046791"><ele>430.1</ele></trkpt>
<trkpt lat="47.772660" lon="13.046149"><ele>429.9</ele></trkpt>
<trkpt lat="47.772803" lon="13.045914"><ele>429.0</ele></trkpt>
<trkpt lat="47.774174" lon="13.046250"><ele>432.5</ele></trkpt>
<trkpt lat="47.774211" lon="13.046157"><ele>432.7</ele></trkpt>
<trkpt lat="47.774184" lon="13.043984"><ele>432.1</ele></trkpt>
<trkpt lat="47.774485" lon="13.043031"><ele>431.9</ele></trkpt>
<trkpt lat="47.774182" lon="13.043043"><ele>432.0</ele></trkpt>
<trkpt lat="47.774185" lon="13.041539"><ele>431.9</ele></trkpt>
<trkpt lat="47.774419" lon="13.040582"><ele>434.9</ele></trkpt>
<trkpt lat="47.774894" lon="13.041029"><ele>435.8</ele></trkpt>
<trkpt lat="47.776199" lon="13.041666"><ele>433.0</ele></trkpt>
<trkpt lat="47.777262" lon="13.042141"><ele>430.1</ele></trkpt>
<trkpt lat="47.778649" lon="13.041988"><ele>432.1</ele></trkpt>
<trkpt lat="47.780070" lon="13.041927"><ele>433.6</ele></trkpt>
<trkpt lat="47.780201" lon="13.041916"><ele>433.1</ele></trkpt>
<trkpt lat="47.780772" lon="13.042091"><ele>430.8</ele></trkpt>
<trkpt lat="47.780868" lon="13.040196"><ele>432.0</ele></trkpt>
<trkpt lat="47.782280" lon="13.040030"><ele>432.2</ele></trkpt>
<trkpt lat="47.782614" lon="13.039845"><ele>432.7</ele></trkpt>
<trkpt lat="47.783789" lon="13.038844"><ele>433.3</ele></trkpt>
<trkpt lat="47.784936" lon="13.037821"><ele>435.2</ele></trkpt>
<trkpt lat="47.786204" lon="13.036688"><ele>434.7</ele></trkpt>
<trkpt lat="47.786789" lon="13.036183"><ele>434.7</ele></trkpt>
<trkpt lat="47.787981" lon="13.035518"><ele>433.5</ele></trkpt>
<trkpt lat="47.787277" lon="13.033593"><ele>432.6</ele></trkpt>
<trkpt lat="47.786653" lon="13.031783"><ele>433.9</ele></trkpt>
<trkpt lat="47.785958" lon="13.029769"><ele>432.1</ele></trkpt>
<trkpt lat="47.785268" lon="13.027782"><ele>431.0</ele></trkpt>
<trkpt lat="47.784714" lon="13.026193"><ele>430.4</ele></trkpt>
<trkpt lat="47.784737" lon="13.025945"><ele>430.9</ele></trkpt>
<trkpt lat="47.784886" lon="13.025913"><ele>430.4</ele></trkpt>
<trkpt lat="47.783456" lon="13.025358"><ele>431.8</ele></trkpt>
<trkpt lat="47.782115" lon="13.024840"><ele>433.6</ele></trkpt>
<trkpt lat="47.780648" lon="13.024270"><ele>433.0</ele></trkpt>
<trkpt lat="47.779255" lon="13.023724"><ele>433.7</ele></trkpt>
<trkpt lat="47.778006" lon="13.023242"><ele>433.7</ele></trkpt>
<trkpt lat="47.778681" lon="13.021437"><ele>429.0</ele></trkpt>
<trkpt lat="47.778829" lon="13.021032"><ele>429.2</ele></trkpt>
<trkpt lat="47.777901" lon="13.020003"><ele>430.0</ele></trkpt>
<trkpt lat="47.778108" lon="13.019171"><ele>430.8</ele></trkpt>
<trkpt lat="47.777012" lon="13.017811"><ele>428.8</ele></trkpt>
<trkpt lat="47.776967" lon="13.017738"><ele>428.9</ele></trkpt>
<trkpt lat="47.776691" lon="13.018670"><ele>428.9</ele></trkpt>
<trkpt lat="47.776151" lon="13.018528"><ele>431.5</ele></trkpt>
<trkpt lat="47.776633" lon="13.016515"><ele>431.0</ele></trkpt>
<trkpt lat="47.777101" lon="13.014560"><ele>425.3</ele></trkpt>
<trkpt lat="47.777188" lon="13.014180"><ele>425.1</ele></trkpt>
<trkpt lat="47.777098" lon="13.013468"><ele>425.4</ele></trkpt>
<trkpt lat="47.777201" lon="13.012522"><ele>425.1</ele></trkpt>
<trkpt lat="47.778001" lon="13.010686"><ele>428.5</ele></trkpt>
<trkpt lat="47.778639" lon="13.009352"><ele>429.1</ele></trkpt>
<trkpt lat="47.777610" lon="13.007845"><ele>429.5</ele></trkpt>
<trkpt lat="47.776532" lon="13.006330"><ele>429.6</ele></trkpt>
<trkpt lat="47.775511" lon="13.005036"><ele>430.9</ele></trkpt>
<trkpt lat="47.774221" lon="13.003883"><ele>429.2</ele></trkpt>
<trkpt lat="47.773273" lon="13.003145"><ele>430.0</ele></trkpt>
<trkpt lat="47.772738" lon="13.003220"><ele>429.4</ele></trkpt>
<trkpt lat="47.772664" lon="13.002734"><ele>430.1</ele></trkpt>
<trkpt lat="47.772085" lon="13.002351"><ele>428.7</ele></trkpt>
<trkpt lat="47.771618" lon="13.002728"><ele>429.1</ele></trkpt>
<trkpt lat="47.771392" lon="13.002676"><ele>429.6</ele></trkpt>
<trkpt lat="47.770580" lon="13.001568"><ele>430.6</ele></trkpt>
<trkpt lat="47.769236" lon="13.001086"><ele>431.9</ele></trkpt>
<trkpt lat="47.769200" lon="13.001080"><ele>431.9</ele></trkpt>
<trkpt lat="47.769006" lon="13.001311"><ele>431.3</ele></trkpt>
<trkpt lat="47.768733" lon="13.001271"><ele>432.0</ele></trkpt>
<trkpt lat="47.768157" lon="13.000804"><ele>431.7</ele></trkpt>
<trkpt lat="47.767440" lon="13.000891"><ele>430.2</ele></trkpt>
<trkpt lat="47.766181" lon="13.000546"><ele>429.3</ele></trkpt>
<trkpt lat="47.765070" lon="13.000534"><ele>431.7</ele></trkpt>
<trkpt lat="47.765080" lon="13.000238"><ele>431.6</ele></trkpt>
<trkpt lat="47.763668" lon="13.000071"><ele>431.4</ele></trkpt>
<trkpt lat="47.762440" lon="12.999783"><ele>433.0</ele></trkpt>
<trkpt lat="47.761053" lon="12.999146"><ele>436.0</ele></trkpt>
<trkpt lat="47.759745" lon="12.998458"><ele>434.4</ele></trkpt>
<trkpt lat="47.759440" lon="12.998282"><ele>434.6</ele></trkpt>
<trkpt lat="47.758111" lon="12.997349"><ele>435.5</ele></trkpt>
<trkpt lat="47.756823" lon="12.996516"><ele>435.9</ele></trkpt>
<trkpt lat="47.755495" lon="12.995671"><ele>440.1</ele></trkpt>
<trkpt lat="47.754435" lon="12.994944"><ele>435.8</ele></trkpt>
<trkpt lat="47.754278" lon="12.995183"><ele>437.3</ele></trkpt>
<trkpt lat="47.753628" lon="12.994776"><ele>437.8</ele></trkpt>
<trkpt lat="47.753279" lon="12.994993"><ele>440.6</ele></trkpt>
<trkpt lat="47.752746" lon="12.994805"><ele>444.5</ele></trkpt>
<trkpt lat="47.751638" lon="12.995682"><ele>440.5</ele></trkpt>
<trkpt lat="47.751458" lon="12.995342"><ele>441.8</ele></trkpt>
<trkpt lat="47.750914" lon="12.995145"><ele>442.1</ele></trkpt>
<trkpt lat="47.750628" lon="12.994604"><ele>441.7</ele></trkpt>
<trkpt lat="47.750032" lon="12.994629"><ele>443.3</ele></trkpt>
<trkpt lat="47.748754" lon="12.994063"><ele>445.3</ele></trkpt>
<trkpt lat="47.748646" lon="12.994091"><ele>445.6</ele></trkpt>
<trkpt lat="47.748439" lon="12.993133"><ele>444.1</ele></trkpt>
<trkpt lat="47.747890" lon="12.992745"><ele>445.3</ele></trkpt>
<trkpt lat="47.747123" lon="12.992647"><ele>452.3</ele></trkpt>
<trkpt lat="47.746895" lon="12.992957"><ele>449.9</ele></trkpt>
<trkpt lat="47.746200" lon="12.992831"><ele>449.9</ele></trkpt>
<trkpt lat="47.744834" lon="12.992232"><ele>452.0</ele></trkpt>
<trkpt lat="47.743389" lon="12.991770"><ele>458.0</ele></trkpt>
<trkpt lat="47.742044" lon="12.991437"><ele>470.8</ele></trkpt>
<trkpt lat="47.741573" lon="12.991194"><ele>482.9</ele></trkpt>
<trkpt lat="47.741351" lon="12.990904"><ele>495.4</ele></trkpt>
<trkpt lat="47.741107" lon="12.989876"><ele>511.7</ele></trkpt>
<trkpt lat="47.740457" lon="12.989760"><ele>526.0</ele></trkpt>
<trkpt lat="47.740000" lon="12.989228"><ele>536.5</ele></trkpt>
<trkpt lat="47.739190" lon="12.987634"><ele>532.6</ele></trkpt>
<trkpt lat="47.739189" lon="12.987633"><ele>532.6</ele></trkpt>
<trkpt lat="47.738812" lon="12.986252"><ele>535.3</ele></trkpt>
<trkpt lat="47.737850" lon="12.984554"><ele>564.6</ele></trkpt>
<trkpt lat="47.737812" lon="12.984461"><ele>565.0</ele></trkpt>
<trkpt lat="47.737688" lon="12.983500"><ele>568.3</ele></trkpt>
<trkpt lat="47.737912" lon="12.982092"><ele>574.7</ele></trkpt>
<trkpt lat="47.737665" lon="12.981554"><ele>586.4</ele></trkpt>
<trkpt lat="47.737294" lon="12.979447"><ele>595.4</ele></trkpt>
<trkpt lat="47.737181" lon="12.978953"><ele>592.6</ele></trkpt>
<trkpt lat="47.736313" lon="12.978123"><ele>599.1</ele></trkpt>
<trkpt lat="47.734911" lon="12.977523"><ele>601.5</ele></trkpt>
<trkpt lat="47.734039" lon="12.976012"><ele>607.6</ele></trkpt>
<trkpt lat="47.733943" lon="12.975849"><ele>609.1</ele></trkpt>
<trkpt lat="47.733609" lon="12.973880"><ele>622.2</ele></trkpt>
<trkpt lat="47.733629" lon="12.973499"><ele>626.1</ele></trkpt>
<trkpt lat="47.734146" lon="12.973017"><ele>625.7</ele></trkpt>
<trkpt lat="47.735117" lon="12.971594"><ele>638.9</ele></trkpt>
<trkpt lat="47.735342" lon="12.971322"><ele>638.7</ele></trkpt>
<trkpt lat="47.735757" lon="12.971335"><ele>634.4</ele></trkpt>
<trkpt lat="47.737091" lon="12.972068"><ele>625.2</ele></trkpt>
<trkpt lat="47.737774" lon="12.971899"><ele>633.2</ele></trkpt>
<trkpt lat="47.738111" lon="12.971545"><ele>636.3</ele></trkpt>
<trkpt lat="47.738124" lon="12.970568"><ele>637.0</ele></trkpt>
<trkpt lat="47.737412" lon="12.968776"><ele>655.0</ele></trkpt>
<trkpt lat="47.737031" lon="12.967847"><ele>656.9</ele></trkpt>
<trkpt lat="47.737086" lon="12.966689"><ele>657.5</ele></trkpt>
<trkpt lat="47.737266" lon="12.966095"><ele>652.7</ele></trkpt>
<trkpt lat="47.737781" lon="12.965561"><ele>647.0</ele></trkpt>
<trkpt lat="47.737755" lon="12.964563"><ele>647.1</ele></trkpt>
<trkpt lat="47.738623" lon="12.963197"><ele>637.9</ele></trkpt>
<trkpt lat="47.739224" lon="12.961428"><ele>629.1</ele></trkpt>
<trkpt lat="47.738606" lon="12.959547"><ele>635.5</ele></trkpt>
<trkpt lat="47.738513" lon="12.959287"><ele>635.4</ele></trkpt>
<trkpt lat="47.737614" lon="12.958104"><ele>623.4</ele></trkpt>
<trkpt lat="47.737168" lon="12.957108"><ele>624.4</ele></trkpt>
<trkpt lat="47.736741" lon="12.955103"><ele>621.6</ele></trkpt>
<trkpt lat="47.736528" lon="12.954334"><ele>617.1</ele></trkpt>
<trkpt lat="47.736419" lon="12.953111"><ele>609.7</ele></trkpt>
<trkpt lat="47.736539" lon="12.951678"><ele>604.1</ele></trkpt>
<trkpt lat="47.736307" lon="12.950668"><ele>594.7</ele></trkpt>
<trkpt lat="47.736412" lon="12.949937"><ele>588.0</ele></trkpt>
<trkpt lat="47.736196" lon="12.948942"><ele>580.0</ele></trkpt>
<trkpt lat="47.736278" lon="12.948415"><ele>578.5</ele></trkpt>
<trkpt lat="47.735941" lon="12.948097"><ele>580.5</ele></trkpt>
<trkpt lat="47.736517" lon="12.946823"><ele>574.1</ele></trkpt>
<trkpt lat="47.736755" lon="12.945658"><ele>579.3</ele></trkpt>
<trkpt lat="47.737538" lon="12.943998"><ele>580.5</ele></trkpt>
<trkpt lat="47.737595" lon="12.943858"><ele>579.7</ele></trkpt>
<trkpt lat="47.737427" lon="12.941846"><ele>580.6</ele></trkpt>
<trkpt lat="47.737444" lon="12.941043"><ele>580.2</ele></trkpt>
<trkpt lat="47.737010" lon="12.940113"><ele>580.4</ele></trkpt>
<trkpt lat="47.736897" lon="12.939382"><ele>572.4</ele></trkpt>
<trkpt lat="47.737321" lon="12.937368"><ele>554.9</ele></trkpt>
<trkpt lat="47.737690" lon="12.936408"><ele>552.0</ele></trkpt>
<trkpt lat="47.737240" lon="12.934450"><ele>544.9</ele></trkpt>
<trkpt lat="47.736235" lon="12.933326"><ele>547.9</ele></trkpt>
<trkpt lat="47.736058" lon="12.932689"><ele>547.5</ele></trkpt>
<trkpt lat="47.736424" lon="12.931929"><ele>542.8</ele></trkpt>
<trkpt lat="47.736959" lon="12.931975"><ele>540.9</ele></trkpt>
<trkpt lat="47.737941" lon="12.930589"><ele>538.6</ele></trkpt>
<trkpt lat="47.738543" lon="12.929621"><ele>537.0</ele></trkpt>
<trkpt lat="47.738152" lon="12.928594"><ele>537.6</ele></trkpt>
<trkpt lat="47.737221" lon="12.927445"><ele>549.0</ele></trkpt>
<trkpt lat="47.736752" lon="12.925567"><ele>557.4</ele></trkpt>
<trkpt lat="47.736617" lon="12.925068"><ele>552.6</ele></trkpt>
<trkpt lat="47.735980" lon="12.923960"><ele>556.5</ele></trkpt>
<trkpt lat="47.735891" lon="12.923196"><ele>546.3</ele></trkpt>
<trkpt lat="47.734607" lon="12.922619"><ele>560.6</ele></trkpt>
<trkpt lat="47.733278" lon="12.921893"><ele>574.0</ele></trkpt>
<trkpt lat="47.732756" lon="12.921788"><ele>571.7</ele></trkpt>
<trkpt lat="47.731994" lon="12.920758"><ele>563.4</ele></trkpt>
<trkpt lat="47.731616" lon="12.919500"><ele>553.1</ele></trkpt>
<trkpt lat="47.730230" lon="12.919169"><ele>545.8</ele></trkpt>
<trkpt lat="47.730013" lon="12.919124"><ele>545.0</ele></trkpt>
<trkpt lat="47.730129" lon="12.918141"><ele>547.3</ele></trkpt>
<trkpt lat="47.729815" lon="12.917865"><ele>546.2</ele></trkpt>
<trkpt lat="47.729908" lon="12.917122"><ele>550.7</ele></trkpt>
<trkpt lat="47.729441" lon="12.916610"><ele>547.4</ele></trkpt>
<trkpt lat="47.728115" lon="12.916082"><ele>533.6</ele></trkpt>
<trkpt lat="47.728115" lon="12.916082"><ele>533.6</ele></trkpt>
<trkpt lat="47.728029" lon="12.915656"><ele>535.1</ele></trkpt>
<trkpt lat="47.726973" lon="12.914500"><ele>530.5</ele></trkpt>
<trkpt lat="47.726831" lon="12.914290"><ele>530.9</ele></trkpt>
<trkpt lat="47.726342" lon="12.913132"><ele>533.8</ele></trkpt>
<trkpt lat="47.726927" lon="12.912532"><ele>532.0</ele></trkpt>
<trkpt lat="47.726592" lon="12.910496"><ele>525.6</ele></trkpt>
<trkpt lat="47.726250" lon="12.909189"><ele>528.0</ele></trkpt>
<trkpt lat="47.726264" lon="12.908442"><ele>526.9</ele></trkpt>
<trkpt lat="47.725999" lon="12.907854"><ele>523.9</ele></trkpt>
<trkpt lat="47.725708" lon="12.907874"><ele>523.8</ele></trkpt>
<trkpt lat="47.725460" lon="12.907184"><ele>522.3</ele></trkpt>
<trkpt lat="47.725175" lon="12.907376"><ele>524.3</ele></trkpt>
<trkpt lat="47.725077" lon="12.906975"><ele>523.8</ele></trkpt>
<trkpt lat="47.724741" lon="12.907242"><ele>525.0</ele></trkpt>
<trkpt lat="47.724370" lon="12.905964"><ele>524.5</ele></trkpt>
<trkpt lat="47.724433" lon="12.904563"><ele>517.1</ele></trkpt>
<trkpt lat="47.725765" lon="12.904111"><ele>514.4</ele></trkpt>
<trkpt lat="47.726790" lon="12.903890"><ele>509.9</ele></trkpt>
<trkpt lat="47.726141" lon="12.902601"><ele>511.2</ele></trkpt>
<trkpt lat="47.725862" lon="12.901486"><ele>511.1</ele></trkpt>
<trkpt lat="47.724820" lon="12.899949"><ele>516.4</ele></trkpt>
<trkpt lat="47.724419" lon="12.899550"><ele>521.2</ele></trkpt>
<trkpt lat="47.723974" lon="12.898381"><ele>523.6</ele></trkpt>
<trkpt lat="47.723615" lon="12.896421"><ele>522.0</ele></trkpt>
<trkpt lat="47.723393" lon="12.894388"><ele>518.7</ele></trkpt>
<trkpt lat="47.723243" lon="12.893164"><ele>517.6</ele></trkpt>
<trkpt lat="47.723304" lon="12.891044"><ele>521.7</ele></trkpt>
<trkpt lat="47.723289" lon="12.889793"><ele>525.9</ele></trkpt>
<trkpt lat="47.723140" lon="12.888319"><ele>529.3</ele></trkpt>
<trkpt lat="47.723461" lon="12.887252"><ele>529.1</ele></trkpt>
<trkpt lat="47.723889" lon="12.886863"><ele>525.7</ele></trkpt>
<trkpt lat="47.725168" lon="12.886404"><ele>509.7</ele></trkpt>
<trkpt lat="47.725966" lon="12.885604"><ele>497.4</ele></trkpt>
<trkpt lat="47.726011" lon="12.885221"><ele>494.8</ele></trkpt>
<trkpt lat="47.725770" lon="12.884096"><ele>486.8</ele></trkpt>
<trkpt lat="47.725849" lon="12.883854"><ele>483.2</ele></trkpt>
<trkpt lat="47.726118" lon="12.883872"><ele>478.7</ele></trkpt>
<trkpt lat="47.726551" lon="12.884389"><ele>479.4</ele></trkpt>
<trkpt lat="47.726900" lon="12.883842"><ele>474.7</ele></trkpt>
</trkseg></trk></gpx>