<?xml version="1.0" encoding="UTF-8"?>
<gpx version="1.1" creator="Bad Reichenhall gravel – saját gravel-router (OSM/Overture + SRTM)" xmlns="http://www.topografix.com/GPX/1/1">
<metadata><name>Salzach–Laufen dombos változat (Högl-dombhát)</name><desc>GENERÁLT NYOMVONAL – A Salzach-ártéri túra dombosabb változata: Pidingtől Aufhamon át a Högl dombhátjára (Ulrichshögl) kapaszkodsz fel, panoráma a Salzach-medencére és a Berchtesgadeni-Alpokra, majd Ainringen át gurulsz le Freilassingba, és onnan ugyanúgy a Salzach gátján futó Tauernradweggel, az Abtsdorfer See mellett Laufenig. Haza vonattal.</desc><copyright author="OpenStreetMap contributors (via Overture Maps)"><license>https://opendatacommons.org/licenses/odbl/</license></copyright><time>2026-10-05T17:07:39Z</time></metadata>
<wpt lat="47.7596" lon="12.9114"><name>Piding</name><type>town</type></wpt>
<wpt lat="47.783" lon="12.868"><name>Aufham</name><type>town</type></wpt>
<wpt lat="47.8095" lon="12.9249"><name>Ulrichshögl – Högl-dombhát</name><type>view</type></wpt>
<wpt lat="47.815" lon="12.964"><name>Ainring</name><type>town</type></wpt>
<wpt lat="47.8366" lon="12.9771"><name>Freilassing</name><type>town</type></wpt>
<wpt lat="47.8524" lon="13.0048"><name>Saalachspitz – folyótorkolat</name><type>view</type></wpt>
<wpt lat="47.8675" lon="12.9901"><name>Salzach-gát – Tauernradweg</name><type>view</type></wpt>
<wpt lat="47.8968" lon="12.9698"><name>Salzach-ártér</name><type>gorge</type></wpt>
<wpt lat="47.9097" lon="12.907"><name>Abtsdorfer See</name><type>lake</type></wpt>
<wpt lat="47.9377" lon="12.9311"><name>Laufen – óváros</name><type>history</type></wpt>
<wpt lat="47.9345" lon="12.9223"><name>Laufen Bahnhof</name><type>station</type></wpt>
<trk><name>Salzach–Laufen dombos változat (Högl-dombhát)</name><type>gravel</type><trkseg>
<trkpt lat="47.726900" lon="12.883842"><ele>474.7</ele></trkpt>
<trkpt lat="47.727494" lon="12.883113"><ele>470.2</ele></trkpt>
<trkpt lat="47.727719" lon="12.883943"><ele>471.1</ele></trkpt>
<trkpt lat="47.728704" lon="12.884653"><ele>467.7</ele></trkpt>
<trkpt lat="47.729731" lon="12.886062"><ele>468.9</ele></trkpt>
<trkpt lat="47.730708" lon="12.887277"><ele>466.8</ele></trkpt>
<trkpt lat="47.731702" lon="12.887899"><ele>465.8</ele></trkpt>
<trkpt lat="47.732859" lon="12.888988"><ele>463.3</ele></trkpt>
<trkpt lat="47.733919" lon="12.889805"><ele>464.0</ele></trkpt>
<trkpt lat="47.735182" lon="12.890496"><ele>464.3</ele></trkpt>
<trkpt lat="47.735557" lon="12.890716"><ele>462.4</ele></trkpt>
<trkpt lat="47.736228" lon="12.891388"><ele>461.0</ele></trkpt>
<trkpt lat="47.736592" lon="12.890916"><ele>460.9</ele></trkpt>
<trkpt lat="47.737193" lon="12.891704"><ele>461.2</ele></trkpt>
<trkpt lat="47.737802" lon="12.890693"><ele>461.0</ele></trkpt>
<trkpt lat="47.738920" lon="12.891835"><ele>460.0</ele></trkpt>
<trkpt lat="47.739303" lon="12.892183"><ele>460.4</ele></trkpt>
<trkpt lat="47.739530" lon="12.892872"><ele>465.0</ele></trkpt>
<trkpt lat="47.740022" lon="12.892659"><ele>464.1</ele></trkpt>
<trkpt lat="47.740252" lon="12.892788"><ele>464.2</ele></trkpt>
<trkpt lat="47.740420" lon="12.893505"><ele>468.4</ele></trkpt>
<trkpt lat="47.740871" lon="12.893655"><ele>462.9</ele></trkpt>
<trkpt lat="47.741641" lon="12.895484"><ele>466.1</ele></trkpt>
<trkpt lat="47.742413" lon="12.897293"><ele>459.3</ele></trkpt>
<trkpt lat="47.743190" lon="12.899091"><ele>454.4</ele></trkpt>
<trkpt lat="47.743932" lon="12.900790"><ele>454.8</ele></trkpt>
<trkpt lat="47.744252" lon="12.901496"><ele>455.7</ele></trkpt>
<trkpt lat="47.744878" lon="12.900827"><ele>454.4</ele></trkpt>
<trkpt lat="47.746249" lon="12.900860"><ele>457.9</ele></trkpt>
<trkpt lat="47.746683" lon="12.900793"><ele>459.1</ele></trkpt>
<trkpt lat="47.747599" lon="12.899938"><ele>457.0</ele></trkpt>
<trkpt lat="47.748711" lon="12.900887"><ele>467.5</ele></trkpt>
<trkpt lat="47.750153" lon="12.901197"><ele>466.6</ele></trkpt>
<trkpt lat="47.750593" lon="12.901341"><ele>472.2</ele></trkpt>
<trkpt lat="47.751582" lon="12.902133"><ele>465.0</ele></trkpt>
<trkpt lat="47.752294" lon="12.901798"><ele>464.8</ele></trkpt>
<trkpt lat="47.753134" lon="12.900502"><ele>474.8</ele></trkpt>
<trkpt lat="47.754094" lon="12.899625"><ele>475.3</ele></trkpt>
<trkpt lat="47.755353" lon="12.898952"><ele>462.9</ele></trkpt>
<trkpt lat="47.756742" lon="12.899181"><ele>458.7</ele></trkpt>
<trkpt lat="47.756975" lon="12.899204"><ele>457.9</ele></trkpt>
<trkpt lat="47.757790" lon="12.898719"><ele>460.6</ele></trkpt>
<trkpt lat="47.758113" lon="12.898739"><ele>460.3</ele></trkpt>
<trkpt lat="47.758336" lon="12.899093"><ele>458.3</ele></trkpt>
<trkpt lat="47.758493" lon="12.900203"><ele>459.7</ele></trkpt>
<trkpt lat="47.758947" lon="12.900563"><ele>456.9</ele></trkpt>
<trkpt lat="47.759756" lon="12.900778"><ele>457.3</ele></trkpt>
<trkpt lat="47.761236" lon="12.900287"><ele>457.4</ele></trkpt>
<trkpt lat="47.761660" lon="12.900156"><ele>457.5</ele></trkpt>
<trkpt lat="47.761680" lon="12.899562"><ele>454.5</ele></trkpt>
<trkpt lat="47.762392" lon="12.899924"><ele>456.6</ele></trkpt>
<trkpt lat="47.762647" lon="12.899772"><ele>456.6</ele></trkpt>
<trkpt lat="47.763728" lon="12.898475"><ele>456.2</ele></trkpt>
<trkpt lat="47.764972" lon="12.897183"><ele>456.8</ele></trkpt>
<trkpt lat="47.766196" lon="12.895884"><ele>456.1</ele></trkpt>
<trkpt lat="47.766878" lon="12.895113"><ele>456.0</ele></trkpt>
<trkpt lat="47.767667" lon="12.893271"><ele>458.2</ele></trkpt>
<trkpt lat="47.768410" lon="12.891705"><ele>457.5</ele></trkpt>
<trkpt lat="47.769127" lon="12.889755"><ele>462.0</ele></trkpt>
<trkpt lat="47.769569" lon="12.888493"><ele>466.8</ele></trkpt>
<trkpt lat="47.769909" lon="12.887982"><ele>470.7</ele></trkpt>
<trkpt lat="47.771101" lon="12.887132"><ele>474.6</ele></trkpt>
<trkpt lat="47.771495" lon="12.886626"><ele>479.6</ele></trkpt>
<trkpt lat="47.772174" lon="12.884656"><ele>474.1</ele></trkpt>
<trkpt lat="47.772334" lon="12.884237"><ele>473.2</ele></trkpt>
<trkpt lat="47.772908" lon="12.883093"><ele>472.1</ele></trkpt>
<trkpt lat="47.774051" lon="12.882009"><ele>472.4</ele></trkpt>
<trkpt lat="47.774542" lon="12.881486"><ele>471.9</ele></trkpt>
<trkpt lat="47.775448" lon="12.879972"><ele>469.0</ele></trkpt>
<trkpt lat="47.775660" lon="12.879615"><ele>469.0</ele></trkpt>
<trkpt lat="47.776741" lon="12.878165"><ele>469.6</ele></trkpt>
<trkpt lat="47.777153" lon="12.877685"><ele>468.9</ele></trkpt>
<trkpt lat="47.778400" lon="12.876752"><ele>473.7</ele></trkpt>
<trkpt lat="47.778953" lon="12.876443"><ele>474.8</ele></trkpt>
<trkpt lat="47.778947" lon="12.875755"><ele>475.0</ele></trkpt>
<trkpt lat="47.778495" lon="12.874781"><ele>477.5</ele></trkpt>
<trkpt lat="47.778554" lon="12.874618"><ele>477.9</ele></trkpt>
<trkpt lat="47.779684" lon="12.873468"><ele>482.4</ele></trkpt>
<trkpt lat="47.780906" lon="12.872460"><ele>493.3</ele></trkpt>
<trkpt lat="47.781620" lon="12.871862"><ele>495.9</ele></trkpt>
<trkpt lat="47.782953" lon="12.871328"><ele>498.8</ele></trkpt>
<trkpt lat="47.783159" lon="12.871195"><ele>499.1</ele></trkpt>
<trkpt lat="47.783176" lon="12.870578"><ele>501.9</ele></trkpt>
<trkpt lat="47.783591" lon="12.870176"><ele>502.4</ele></trkpt>
<trkpt lat="47.783852" lon="12.869635"><ele>504.3</ele></trkpt>
<trkpt lat="47.783842" lon="12.869298"><ele>505.1</ele></trkpt>
<trkpt lat="47.784382" lon="12.868921"><ele>503.3</ele></trkpt>
<trkpt lat="47.785483" lon="12.867565"><ele>497.7</ele></trkpt>
<trkpt lat="47.785522" lon="12.867528"><ele>497.4</ele></trkpt>
<trkpt lat="47.786144" lon="12.867228"><ele>495.0</ele></trkpt>
<trkpt lat="47.786831" lon="12.867350"><ele>494.5</ele></trkpt>
<trkpt lat="47.787891" lon="12.866632"><ele>494.4</ele></trkpt>
<trkpt lat="47.788888" lon="12.866349"><ele>494.1</ele></trkpt>
<trkpt lat="47.790154" lon="12.865384"><ele>494.6</ele></trkpt>
<trkpt lat="47.791412" lon="12.864473"><ele>499.1</ele></trkpt>
<trkpt lat="47.791581" lon="12.864333"><ele>500.1</ele></trkpt>
<trkpt lat="47.792780" lon="12.863189"><ele>504.5</ele></trkpt>
<trkpt lat="47.793160" lon="12.862815"><ele>505.0</ele></trkpt>
<trkpt lat="47.794009" lon="12.861379"><ele>508.9</ele></trkpt>
<trkpt lat="47.795123" lon="12.860390"><ele>514.3</ele></trkpt>
<trkpt lat="47.796260" lon="12.858898"><ele>517.0</ele></trkpt>
<trkpt lat="47.797167" lon="12.857565"><ele>523.4</ele></trkpt>
<trkpt lat="47.797578" lon="12.857230"><ele>525.7</ele></trkpt>
<trkpt lat="47.798243" lon="12.857080"><ele>527.9</ele></trkpt>
<trkpt lat="47.798731" lon="12.856258"><ele>530.3</ele></trkpt>
<trkpt lat="47.799006" lon="12.855279"><ele>535.6</ele></trkpt>
<trkpt lat="47.799228" lon="12.855308"><ele>534.4</ele></trkpt>
<trkpt lat="47.799943" lon="12.856279"><ele>532.0</ele></trkpt>
<trkpt lat="47.801164" lon="12.857304"><ele>531.7</ele></trkpt>
<trkpt lat="47.801283" lon="12.857360"><ele>532.7</ele></trkpt>
<trkpt lat="47.801700" lon="12.857905"><ele>538.8</ele></trkpt>
<trkpt lat="47.802246" lon="12.859015"><ele>538.8</ele></trkpt>
<trkpt lat="47.802521" lon="12.860401"><ele>532.5</ele></trkpt>
<trkpt lat="47.803198" lon="12.861997"><ele>525.9</ele></trkpt>
<trkpt lat="47.803557" lon="12.863435"><ele>526.2</ele></trkpt>
<trkpt lat="47.804761" lon="12.862475"><ele>525.0</ele></trkpt>
<trkpt lat="47.805931" lon="12.861456"><ele>521.8</ele></trkpt>
<trkpt lat="47.806056" lon="12.861337"><ele>522.2</ele></trkpt>
<trkpt lat="47.806907" lon="12.861497"><ele>529.9</ele></trkpt>
<trkpt lat="47.807644" lon="12.860999"><ele>533.9</ele></trkpt>
<trkpt lat="47.808756" lon="12.861426"><ele>541.8</ele></trkpt>
<trkpt lat="47.810137" lon="12.861397"><ele>531.9</ele></trkpt>
<trkpt lat="47.810191" lon="12.861413"><ele>530.5</ele></trkpt>
<trkpt lat="47.811441" lon="12.862355"><ele>525.5</ele></trkpt>
<trkpt lat="47.812667" lon="12.863268"><ele>535.4</ele></trkpt>
<trkpt lat="47.813143" lon="12.863560"><ele>539.9</ele></trkpt>
<trkpt lat="47.814542" lon="12.863357"><ele>532.7</ele></trkpt>
<trkpt lat="47.814813" lon="12.863429"><ele>533.4</ele></trkpt>
<trkpt lat="47.815894" lon="12.864507"><ele>535.2</ele></trkpt>
<trkpt lat="47.817258" lon="12.865225"><ele>535.0</ele></trkpt>
<trkpt lat="47.818416" lon="12.866019"><ele>537.0</ele></trkpt>
<trkpt lat="47.819566" lon="12.867410"><ele>543.3</ele></trkpt>
<trkpt lat="47.820786" lon="12.868683"><ele>547.6</ele></trkpt>
<trkpt lat="47.821617" lon="12.869758"><ele>549.7</ele></trkpt>
<trkpt lat="47.822125" lon="12.870155"><ele>552.5</ele></trkpt>
<trkpt lat="47.822717" lon="12.870220"><ele>555.7</ele></trkpt>
<trkpt lat="47.823900" lon="12.869502"><ele>550.8</ele></trkpt>
<trkpt lat="47.824836" lon="12.869314"><ele>544.1</ele></trkpt>
<trkpt lat="47.825396" lon="12.869448"><ele>544.3</ele></trkpt>
<trkpt lat="47.826623" lon="12.870292"><ele>525.4</ele></trkpt>
<trkpt lat="47.826432" lon="12.870703"><ele>522.6</ele></trkpt>
<trkpt lat="47.826356" lon="12.872427"><ele>511.0</ele></trkpt>
<trkpt lat="47.825997" lon="12.873882"><ele>498.5</ele></trkpt>
<trkpt lat="47.825491" lon="12.874508"><ele>504.6</ele></trkpt>
<trkpt lat="47.825420" lon="12.875804"><ele>479.3</ele></trkpt>
<trkpt lat="47.824767" lon="12.876997"><ele>481.1</ele></trkpt>
<trkpt lat="47.824374" lon="12.878448"><ele>475.0</ele></trkpt>
<trkpt lat="47.824256" lon="12.880508"><ele>475.4</ele></trkpt>
<trkpt lat="47.824346" lon="12.882632"><ele>472.5</ele></trkpt>
<trkpt lat="47.824425" lon="12.884277"><ele>474.8</ele></trkpt>
<trkpt lat="47.824216" lon="12.886228"><ele>473.2</ele></trkpt>
<trkpt lat="47.823467" lon="12.887970"><ele>475.9</ele></trkpt>
<trkpt lat="47.822568" lon="12.889646"><ele>478.3</ele></trkpt>
<trkpt lat="47.821860" lon="12.891553"><ele>481.0</ele></trkpt>
<trkpt lat="47.821455" lon="12.892645"><ele>482.3</ele></trkpt>
<trkpt lat="47.820672" lon="12.894382"><ele>477.9</ele></trkpt>
<trkpt lat="47.820237" lon="12.895333"><ele>481.4</ele></trkpt>
<trkpt lat="47.819709" lon="12.897252"><ele>477.9</ele></trkpt>
<trkpt lat="47.819701" lon="12.897297"><ele>477.8</ele></trkpt>
<trkpt lat="47.819559" lon="12.898963"><ele>472.4</ele></trkpt>
<trkpt lat="47.819640" lon="12.900369"><ele>466.8</ele></trkpt>
<trkpt lat="47.820047" lon="12.902325"><ele>462.9</ele></trkpt>
<trkpt lat="47.820446" lon="12.904195"><ele>462.8</ele></trkpt>
<trkpt lat="47.820563" lon="12.905319"><ele>460.8</ele></trkpt>
<trkpt lat="47.820537" lon="12.907193"><ele>464.1</ele></trkpt>
<trkpt lat="47.820269" lon="12.908152"><ele>466.1</ele></trkpt>
<trkpt lat="47.819998" lon="12.908800"><ele>468.3</ele></trkpt>
<trkpt lat="47.818797" lon="12.910196"><ele>478.1</ele></trkpt>
<trkpt lat="47.818166" lon="12.910930"><ele>481.4</ele></trkpt>
<trkpt lat="47.817727" lon="12.911698"><ele>485.2</ele></trkpt>
<trkpt lat="47.817107" lon="12.913389"><ele>484.8</ele></trkpt>
<trkpt lat="47.816746" lon="12.915495"><ele>480.6</ele></trkpt>
<trkpt lat="47.816459" lon="12.917080"><ele>480.1</ele></trkpt>
<trkpt lat="47.816008" lon="12.918290"><ele>483.2</ele></trkpt>
<trkpt lat="47.814772" lon="12.917902"><ele>497.1</ele></trkpt>
<trkpt lat="47.814542" lon="12.918010"><ele>500.0</ele></trkpt>
<trkpt lat="47.814144" lon="12.918408"><ele>503.2</ele></trkpt>
<trkpt lat="47.813874" lon="12.919183"><ele>502.2</ele></trkpt>
<trkpt lat="47.813042" lon="12.920099"><ele>507.2</ele></trkpt>
<trkpt lat="47.812362" lon="12.921549"><ele>517.6</ele></trkpt>
<trkpt lat="47.811100" lon="12.922532"><ele>538.2</ele></trkpt>
<trkpt lat="47.810825" lon="12.922748"><ele>542.1</ele></trkpt>
<trkpt lat="47.809992" lon="12.923049"><ele>554.0</ele></trkpt>
<trkpt lat="47.809476" lon="12.923579"><ele>557.0</ele></trkpt>
<trkpt lat="47.808771" lon="12.924890"><ele>543.5</ele></trkpt>
<trkpt lat="47.808881" lon="12.926501"><ele>530.7</ele></trkpt>
<trkpt lat="47.808787" lon="12.927022"><ele>525.8</ele></trkpt>
<trkpt lat="47.807675" lon="12.928232"><ele>517.7</ele></trkpt>
<trkpt lat="47.808307" lon="12.930269"><ele>513.1</ele></trkpt>
<trkpt lat="47.808341" lon="12.930400"><ele>513.0</ele></trkpt>
<trkpt lat="47.808642" lon="12.932342"><ele>517.6</ele></trkpt>
<trkpt lat="47.809271" lon="12.934150"><ele>505.9</ele></trkpt>
<trkpt lat="47.808753" lon="12.936113"><ele>500.5</ele></trkpt>
<trkpt lat="47.808718" lon="12.936490"><ele>493.1</ele></trkpt>
<trkpt lat="47.809027" lon="12.936664"><ele>488.6</ele></trkpt>
<trkpt lat="47.810415" lon="12.936530"><ele>471.7</ele></trkpt>
<trkpt lat="47.811307" lon="12.937743"><ele>461.0</ele></trkpt>
<trkpt lat="47.811644" lon="12.938483"><ele>452.0</ele></trkpt>
<trkpt lat="47.811904" lon="12.940219"><ele>441.0</ele></trkpt>
<trkpt lat="47.811873" lon="12.940954"><ele>439.1</ele></trkpt>
<trkpt lat="47.812087" lon="12.941236"><ele>438.3</ele></trkpt>
<trkpt lat="47.811784" lon="12.943394"><ele>436.6</ele></trkpt>
<trkpt lat="47.811599" lon="12.944790"><ele>435.4</ele></trkpt>
<trkpt lat="47.813003" lon="12.945146"><ele>432.6</ele></trkpt>
<trkpt lat="47.814193" lon="12.945487"><ele>433.0</ele></trkpt>
<trkpt lat="47.814086" lon="12.946710"><ele>430.0</ele></trkpt>
<trkpt lat="47.814153" lon="12.948765"><ele>430.0</ele></trkpt>
<trkpt lat="47.814152" lon="12.949022"><ele>430.0</ele></trkpt>
<trkpt lat="47.814033" lon="12.951087"><ele>434.6</ele></trkpt>
<trkpt lat="47.813905" lon="12.953237"><ele>432.1</ele></trkpt>
<trkpt lat="47.813883" lon="12.953528"><ele>431.3</ele></trkpt>
<trkpt lat="47.813676" lon="12.955673"><ele>431.3</ele></trkpt>
<trkpt lat="47.813441" lon="12.957700"><ele>433.6</ele></trkpt>
<trkpt lat="47.813175" lon="12.959763"><ele>432.5</ele></trkpt>
<trkpt lat="47.812894" lon="12.961778"><ele>431.6</ele></trkpt>
<trkpt lat="47.812837" lon="12.962137"><ele>430.5</ele></trkpt>
<trkpt lat="47.813948" lon="12.963318"><ele>433.0</ele></trkpt>
<trkpt lat="47.815091" lon="12.964458"><ele>427.3</ele></trkpt>
<trkpt lat="47.815593" lon="12.964745"><ele>427.9</ele></trkpt>
<trkpt lat="47.814607" lon="12.966109"><ele>426.4</ele></trkpt>
<trkpt lat="47.814233" lon="12.966527"><ele>427.9</ele></trkpt>
<trkpt lat="47.812951" lon="12.965735"><ele>428.6</ele></trkpt>
<trkpt lat="47.812373" lon="12.965365"><ele>426.9</ele></trkpt>
<trkpt lat="47.812044" lon="12.966366"><ele>426.4</ele></trkpt>
<trkpt lat="47.812158" lon="12.966994"><ele>425.5</ele></trkpt>
<trkpt lat="47.811912" lon="12.968252"><ele>424.8</ele></trkpt>
<trkpt lat="47.811899" lon="12.970510"><ele>424.9</ele></trkpt>
<trkpt lat="47.811869" lon="12.971561"><ele>431.9</ele></trkpt>
<trkpt lat="47.811685" lon="12.972941"><ele>421.2</ele></trkpt>
<trkpt lat="47.811140" lon="12.974881"><ele>422.7</ele></trkpt>
<trkpt lat="47.811147" lon="12.976229"><ele>427.1</ele></trkpt>
<trkpt lat="47.811438" lon="12.977048"><ele>424.4</ele></trkpt>
<trkpt lat="47.811210" lon="12.978860"><ele>424.0</ele></trkpt>
<trkpt lat="47.811519" lon="12.979766"><ele>422.3</ele></trkpt>
<trkpt lat="47.811228" lon="12.980356"><ele>421.0</ele></trkpt>
<trkpt lat="47.811120" lon="12.981297"><ele>424.7</ele></trkpt>
<trkpt lat="47.810734" lon="12.981876"><ele>423.6</ele></trkpt>
<trkpt lat="47.811558" lon="12.983454"><ele>423.6</ele></trkpt>
<trkpt lat="47.811725" lon="12.984327"><ele>424.1</ele></trkpt>
<trkpt lat="47.811596" lon="12.984987"><ele>423.5</ele></trkpt>
<trkpt lat="47.811890" lon="12.985711"><ele>425.0</ele></trkpt>
<trkpt lat="47.811307" lon="12.986568"><ele>429.2</ele></trkpt>
<trkpt lat="47.811325" lon="12.987385"><ele>428.2</ele></trkpt>
<trkpt lat="47.811872" lon="12.988072"><ele>424.5</ele></trkpt>
<trkpt lat="47.812463" lon="12.989965"><ele>426.9</ele></trkpt>
<trkpt lat="47.812590" lon="12.990561"><ele>429.0</ele></trkpt>
<trkpt lat="47.812120" lon="12.991863"><ele>426.2</ele></trkpt>
<trkpt lat="47.812254" lon="12.993742"><ele>426.5</ele></trkpt>
<trkpt lat="47.811630" lon="12.995563"><ele>425.0</ele></trkpt>
<trkpt lat="47.811337" lon="12.996497"><ele>426.7</ele></trkpt>
<trkpt lat="47.811324" lon="12.997018"><ele>428.2</ele></trkpt>
<trkpt lat="47.812613" lon="12.998187"><ele>426.6</ele></trkpt>
<trkpt lat="47.813869" lon="12.999426"><ele>429.9</ele></trkpt>
<trkpt lat="47.814615" lon="13.000131"><ele>432.7</ele></trkpt>
<trkpt lat="47.815929" lon="13.000153"><ele>423.7</ele></trkpt>
<trkpt lat="47.816511" lon="13.000558"><ele>423.0</ele></trkpt>
<trkpt lat="47.816548" lon="13.001092"><ele>423.9</ele></trkpt>
<trkpt lat="47.815921" lon="13.003036"><ele>424.0</ele></trkpt>
<trkpt lat="47.815747" lon="13.003558"><ele>424.1</ele></trkpt>
<trkpt lat="47.816778" lon="13.004292"><ele>422.5</ele></trkpt>
<trkpt lat="47.817015" lon="13.004723"><ele>422.8</ele></trkpt>
<trkpt lat="47.817335" lon="13.004521"><ele>421.2</ele></trkpt>
<trkpt lat="47.818238" lon="13.006256"><ele>422.3</ele></trkpt>
<trkpt lat="47.818414" lon="13.006555"><ele>421.7</ele></trkpt>
<trkpt lat="47.818849" lon="13.006859"><ele>421.9</ele></trkpt>
<trkpt lat="47.819836" lon="13.008450"><ele>423.3</ele></trkpt>
<trkpt lat="47.820023" lon="13.008727"><ele>423.0</ele></trkpt>
<trkpt lat="47.820744" lon="13.009542"><ele>422.2</ele></trkpt>
<trkpt lat="47.821449" lon="13.007949"><ele>420.7</ele></trkpt>
<trkpt lat="47.821606" lon="13.007959"><ele>419.5</ele></trkpt>
<trkpt lat="47.822464" lon="13.009293"><ele>414.7</ele></trkpt>
<trkpt lat="47.823488" lon="13.009221"><ele>420.6</ele></trkpt>
<trkpt lat="47.824118" lon="13.009488"><ele>423.5</ele></trkpt>
<trkpt lat="47.824672" lon="13.009118"><ele>424.7</ele></trkpt>
<trkpt lat="47.825028" lon="13.009140"><ele>424.0</ele></trkpt>
<trkpt lat="47.825816" lon="13.010352"><ele>418.1</ele></trkpt>
<trkpt lat="47.826882" lon="13.011038"><ele>417.0</ele></trkpt>
<trkpt lat="47.827267" lon="13.011081"><ele>416.8</ele></trkpt>
<trkpt lat="47.827918" lon="13.013115"><ele>410.9</ele></trkpt>
<trkpt lat="47.828565" lon="13.014921"><ele>410.8</ele></trkpt>
<trkpt lat="47.829099" lon="13.016392"><ele>413.0</ele></trkpt>
<trkpt lat="47.828264" lon="13.017349"><ele>413.8</ele></trkpt>
<trkpt lat="47.828020" lon="13.018270"><ele>413.4</ele></trkpt>
<trkpt lat="47.828017" lon="13.019329"><ele>414.6</ele></trkpt>
<trkpt lat="47.828575" lon="13.021233"><ele>415.0</ele></trkpt>
<trkpt lat="47.829021" lon="13.022726"><ele>413.1</ele></trkpt>
<trkpt lat="47.828832" lon="13.022930"><ele>414.0</ele></trkpt>
<trkpt lat="47.829628" lon="13.024740"><ele>412.3</ele></trkpt>
<trkpt lat="47.830303" lon="13.026537"><ele>411.9</ele></trkpt>
<trkpt lat="47.830686" lon="13.027581"><ele>409.6</ele></trkpt>
<trkpt lat="47.829415" lon="13.028581"><ele>413.1</ele></trkpt>
<trkpt lat="47.828192" lon="13.029465"><ele>410.9</ele></trkpt>
<trkpt lat="47.827906" lon="13.029642"><ele>410.0</ele></trkpt>
<trkpt lat="47.828224" lon="13.031060"><ele>412.5</ele></trkpt>
<trkpt lat="47.829554" lon="13.030062"><ele>411.4</ele></trkpt>
<trkpt lat="47.830756" lon="13.029119"><ele>411.8</ele></trkpt>
<trkpt lat="47.831785" lon="13.028267"><ele>409.1</ele></trkpt>
<trkpt lat="47.833023" lon="13.027145"><ele>409.6</ele></trkpt>
<trkpt lat="47.834005" lon="13.026147"><ele>407.2</ele></trkpt>
<trkpt lat="47.835101" lon="13.024926"><ele>410.9</ele></trkpt>
<trkpt lat="47.836239" lon="13.023645"><ele>410.9</ele></trkpt>
<trkpt lat="47.837350" lon="13.022409"><ele>410.3</ele></trkpt>
<trkpt lat="47.838447" lon="13.021185"><ele>411.1</ele></trkpt>
<trkpt lat="47.839580" lon="13.019868"><ele>411.8</ele></trkpt>
<trkpt lat="47.840736" lon="13.018540"><ele>408.8</ele></trkpt>
<trkpt lat="47.841824" lon="13.017297"><ele>407.3</ele></trkpt>
<trkpt lat="47.842222" lon="13.016855"><ele>407.7</ele></trkpt>
<trkpt lat="47.843370" lon="13.015479"><ele>406.0</ele></trkpt>
<trkpt lat="47.844450" lon="13.014193"><ele>404.2</ele></trkpt>
<trkpt lat="47.845616" lon="13.012767"><ele>407.2</ele></trkpt>
<trkpt lat="47.846732" lon="13.011415"><ele>409.1</ele></trkpt>
<trkpt lat="47.847814" lon="13.010121"><ele>408.3</ele></trkpt>
<trkpt lat="47.848992" lon="13.008707"><ele>407.6</ele></trkpt>
<trkpt lat="47.849467" lon="13.008133"><ele>409.9</ele></trkpt>
<trkpt lat="47.850517" lon="13.007299"><ele>409.8</ele></trkpt>
<trkpt lat="47.850686" lon="13.006780"><ele>408.4</ele></trkpt>
<trkpt lat="47.851821" lon="13.005468"><ele>408.1</ele></trkpt>
<trkpt lat="47.852241" lon="13.004983"><ele>406.9</ele></trkpt>
<trkpt lat="47.853436" lon="13.003634"><ele>405.7</ele></trkpt>
<trkpt lat="47.854589" lon="13.002379"><ele>409.5</ele></trkpt>
<trkpt lat="47.855723" lon="13.001249"><ele>410.3</ele></trkpt>
<trkpt lat="47.856361" lon="13.000612"><ele>407.5</ele></trkpt>
<trkpt lat="47.857526" lon="12.999492"><ele>408.6</ele></trkpt>
<trkpt lat="47.858727" lon="12.998315"><ele>410.9</ele></trkpt>
<trkpt lat="47.859928" lon="12.997138"><ele>407.6</ele></trkpt>
<trkpt lat="47.861128" lon="12.995962"><ele>409.4</ele></trkpt>
<trkpt lat="47.862329" lon="12.994785"><ele>407.9</ele></trkpt>
<trkpt lat="47.862811" lon="12.994313"><ele>409.0</ele></trkpt>
<trkpt lat="47.864033" lon="12.993256"><ele>409.0</ele></trkpt>
<trkpt lat="47.865253" lon="12.992123"><ele>410.6</ele></trkpt>
<trkpt lat="47.866433" lon="12.991041"><ele>409.1</ele></trkpt>
<trkpt lat="47.867676" lon="12.989966"><ele>409.7</ele></trkpt>
<trkpt lat="47.868936" lon="12.988864"><ele>409.9</ele></trkpt>
<trkpt lat="47.870128" lon="12.987740"><ele>408.9</ele></trkpt>
<trkpt lat="47.870604" lon="12.987291"><ele>408.4</ele></trkpt>
<trkpt lat="47.871851" lon="12.986249"><ele>408.2</ele></trkpt>
<trkpt lat="47.873127" lon="12.985188"><ele>408.2</ele></trkpt>
<trkpt lat="47.873143" lon="12.985174"><ele>408.3</ele></trkpt>
<trkpt lat="47.874180" lon="12.984620"><ele>408.6</ele></trkpt>
<trkpt lat="47.874447" lon="12.984196"><ele>407.1</ele></trkpt>
<trkpt lat="47.875770" lon="12.983208"><ele>412.3</ele></trkpt>
<trkpt lat="47.877102" lon="12.982226"><ele>407.6</ele></trkpt>
<trkpt lat="47.878405" lon="12.981320"><ele>402.6</ele></trkpt>
<trkpt lat="47.878487" lon="12.981264"><ele>403.5</ele></trkpt>
<trkpt lat="47.879801" lon="12.980394"><ele>405.1</ele></trkpt>
<trkpt lat="47.881121" lon="12.979574"><ele>410.5</ele></trkpt>
<trkpt lat="47.882445" lon="12.978737"><ele>403.0</ele></trkpt>
<trkpt lat="47.883761" lon="12.977927"><ele>403.9</ele></trkpt>
<trkpt lat="47.885086" lon="12.977112"><ele>406.1</ele></trkpt>
<trkpt lat="47.886414" lon="12.976291"><ele>403.6</ele></trkpt>
<trkpt lat="47.887728" lon="12.975465"><ele>406.1</ele></trkpt>
<trkpt lat="47.889053" lon="12.974631"><ele>405.9</ele></trkpt>
<trkpt lat="47.890424" lon="12.973801"><ele>403.0</ele></trkpt>
<trkpt lat="47.891742" lon="12.972995"><ele>406.6</ele></trkpt>
<trkpt lat="47.892845" lon="12.972347"><ele>403.1</ele></trkpt>
<trkpt lat="47.892878" lon="12.972887"><ele>404.6</ele></trkpt>
<trkpt lat="47.893307" lon="12.974137"><ele>404.3</ele></trkpt>
<trkpt lat="47.893118" lon="12.974744"><ele>402.8</ele></trkpt>
<trkpt lat="47.893725" lon="12.974363"><ele>401.0</ele></trkpt>
<trkpt lat="47.894642" lon="12.974521"><ele>402.3</ele></trkpt>
<trkpt lat="47.895150" lon="12.974886"><ele>402.0</ele></trkpt>
<trkpt lat="47.896597" lon="12.974253"><ele>402.5</ele></trkpt>
<trkpt lat="47.897078" lon="12.974086"><ele>406.1</ele></trkpt>
<trkpt lat="47.897209" lon="12.973976"><ele>406.9</ele></trkpt>
<trkpt lat="47.896653" lon="12.972748"><ele>406.9</ele></trkpt>
<trkpt lat="47.897361" lon="12.972256"><ele>404.7</ele></trkpt>
<trkpt lat="47.898697" lon="12.972002"><ele>403.2</ele></trkpt>
<trkpt lat="47.898995" lon="12.971830"><ele>402.6</ele></trkpt>
<trkpt lat="47.899043" lon="12.971379"><ele>402.0</ele></trkpt>
<trkpt lat="47.900285" lon="12.970100"><ele>406.3</ele></trkpt>
<trkpt lat="47.900526" lon="12.969838"><ele>408.5</ele></trkpt>
<trkpt lat="47.900524" lon="12.969621"><ele>409.4</ele></trkpt>
<trkpt lat="47.899583" lon="12.968139"><ele>404.6</ele></trkpt>
<trkpt lat="47.900826" lon="12.967273"><ele>403.2</ele></trkpt>
<trkpt lat="47.902164" lon="12.966314"><ele>404.6</ele></trkpt>
<trkpt lat="47.903440" lon="12.965327"><ele>402.7</ele></trkpt>
<trkpt lat="47.903643" lon="12.965171"><ele>403.2</ele></trkpt>
<trkpt lat="47.904935" lon="12.964110"><ele>404.2</ele></trkpt>
<trkpt lat="47.906035" lon="12.963095"><ele>403.2</ele></trkpt>
<trkpt lat="47.907366" lon="12.963383"><ele>406.5</ele></trkpt>
<trkpt lat="47.907511" lon="12.963454"><ele>405.9</ele></trkpt>
<trkpt lat="47.907925" lon="12.964156"><ele>402.5</ele></trkpt>
<trkpt lat="47.907744" lon="12.965100"><ele>405.9</ele></trkpt>
<trkpt lat="47.908528" lon="12.966918"><ele>405.0</ele></trkpt>
<trkpt lat="47.908445" lon="12.967677"><ele>404.1</ele></trkpt>
<trkpt lat="47.908088" lon="12.968505"><ele>404.9</ele></trkpt>
<trkpt lat="47.909564" lon="12.968948"><ele>399.0</ele></trkpt>
<trkpt lat="47.910778" lon="12.969243"><ele>396.0</ele></trkpt>
<trkpt lat="47.912176" lon="12.970075"><ele>397.3</ele></trkpt>
<trkpt lat="47.912751" lon="12.970352"><ele>397.0</ele></trkpt>
<trkpt lat="47.914159" lon="12.970626"><ele>399.0</ele></trkpt>
<trkpt lat="47.914530" lon="12.970680"><ele>400.0</ele></trkpt>
<trkpt lat="47.915879" lon="12.970637"><ele>398.8</ele></trkpt>
<trkpt lat="47.916192" lon="12.970606"><ele>397.7</ele></trkpt>
<trkpt lat="47.917554" lon="12.970861"><ele>395.4</ele></trkpt>
<trkpt lat="47.918448" lon="12.971079"><ele>400.0</ele></trkpt>
<trkpt lat="47.919757" lon="12.970360"><ele>398.7</ele></trkpt>
<trkpt lat="47.921070" lon="12.969535"><ele>399.2</ele></trkpt>
<trkpt lat="47.921071" lon="12.969534"><ele>399.2</ele></trkpt>
<trkpt lat="47.920917" lon="12.968692"><ele>398.7</ele></trkpt>
<trkpt lat="47.921554" lon="12.968466"><ele>399.3</ele></trkpt>
<trkpt lat="47.922354" lon="12.967789"><ele>395.1</ele></trkpt>
<trkpt lat="47.923460" lon="12.966423"><ele>395.0</ele></trkpt>
<trkpt lat="47.924498" lon="12.965135"><ele>394.7</ele></trkpt>
<trkpt lat="47.925609" lon="12.963746"><ele>396.2</ele></trkpt>
<trkpt lat="47.926003" lon="12.963288"><ele>395.8</ele></trkpt>
<trkpt lat="47.927121" lon="12.961763"><ele>395.0</ele></trkpt>
<trkpt lat="47.928171" lon="12.960244"><ele>394.6</ele></trkpt>
<trkpt lat="47.929159" lon="12.958792"><ele>394.0</ele></trkpt>
<trkpt lat="47.930150" lon="12.957334"><ele>393.0</ele></trkpt>
<trkpt lat="47.931181" lon="12.955807"><ele>396.5</ele></trkpt>
<trkpt lat="47.931495" lon="12.955341"><ele>397.1</ele></trkpt>
<trkpt lat="47.932403" lon="12.953761"><ele>394.2</ele></trkpt>
<trkpt lat="47.932486" lon="12.953448"><ele>393.8</ele></trkpt>
<trkpt lat="47.932748" lon="12.953510"><ele>394.8</ele></trkpt>
<trkpt lat="47.932872" lon="12.952488"><ele>395.3</ele></trkpt>
<trkpt lat="47.933239" lon="12.952393"><ele>398.0</ele></trkpt>
<trkpt lat="47.933358" lon="12.950421"><ele>409.4</ele></trkpt>
<trkpt lat="47.933097" lon="12.948354"><ele>407.4</ele></trkpt>
<trkpt lat="47.933075" lon="12.948091"><ele>407.1</ele></trkpt>
<trkpt lat="47.933266" lon="12.947306"><ele>404.8</ele></trkpt>
<trkpt lat="47.934387" lon="12.946061"><ele>402.0</ele></trkpt>
<trkpt lat="47.934424" lon="12.946031"><ele>402.0</ele></trkpt>
<trkpt lat="47.935821" lon="12.945294"><ele>403.0</ele></trkpt>
<trkpt lat="47.936552" lon="12.944970"><ele>402.6</ele></trkpt>
<trkpt lat="47.937652" lon="12.943805"><ele>402.2</ele></trkpt>
<trkpt lat="47.938709" lon="12.942788"><ele>401.4</ele></trkpt>
<trkpt lat="47.939675" lon="12.942632"><ele>403.6</ele></trkpt>
<trkpt lat="47.939684" lon="12.940536"><ele>401.9</ele></trkpt>
<trkpt lat="47.939700" lon="12.938310"><ele>394.6</ele></trkpt>
<trkpt lat="47.939695" lon="12.936577"><ele>410.5</ele></trkpt>
<trkpt lat="47.939854" lon="12.936197"><ele>410.4</ele></trkpt>
<trkpt lat="47.939753" lon="12.935111"><ele>406.8</ele></trkpt>
<trkpt lat="47.939158" lon="12.933179"><ele>403.0</ele></trkpt>
<trkpt lat="47.939146" lon="12.933134"><ele>403.1</ele></trkpt>
<trkpt lat="47.938577" lon="12.933710"><ele>404.0</ele></trkpt>
<trkpt lat="47.938299" lon="12.932998"><ele>404.1</ele></trkpt>
<trkpt lat="47.938004" lon="12.931037"><ele>404.0</ele></trkpt>
<trkpt lat="47.937892" lon="12.930182"><ele>406.1</ele></trkpt>
<trkpt lat="47.937627" lon="12.929973"><ele>409.2</ele></trkpt>
<trkpt lat="47.936851" lon="12.930149"><ele>413.3</ele></trkpt>
<trkpt lat="47.936915" lon="12.928015"><ele>417.9</ele></trkpt>
<trkpt lat="47.936924" lon="12.927690"><ele>417.0</ele></trkpt>
<trkpt lat="47.935836" lon="12.926325"><ele>419.2</ele></trkpt>
<trkpt lat="47.934787" lon="12.925050"><ele>426.4</ele></trkpt>
<trkpt lat="47.934324" lon="12.924625"><ele>431.5</ele></trkpt>
<trkpt lat="47.934364" lon="12.924051"><ele>433.4</ele></trkpt>
<trkpt lat="47.935072" lon="12.923027"><ele>437.3</ele></trkpt>
<trkpt lat="47.934989" lon="12.922629"><ele>440.5</ele></trkpt>
<trkpt lat="47.934619" lon="12.922275"><ele>440.9</ele></trkpt>
</trkseg></trk></gpx>