<?xml version="1.0" encoding="UTF-8"?>
<gpx version="1.1" creator="Gravel Bad Reichenhall" xmlns="http://www.topografix.com/GPX/1/1">
<metadata><name>Sólé útja – hátralévő szakasz (Fantenberg → szálloda)</name><desc>GENERÁLT NYOMVONAL: aszfaltos átkötés Fantenbergtől Siegsdorfig (12 km, max ~12%), majd a tervezett útvonal 41,7. km-től: Traunstein → Teisendorf → Anger → Piding → Alpenstadthotels. Kb. 52 km. © OpenStreetMap contributors (via Overture Maps), ODbL.</desc></metadata>
<wpt lat="47.8694" lon="12.639"><name>Traunstein – Salzmaierhaus (forduló)</name></wpt>
<wpt lat="47.8493" lon="12.8343"><name>Teisendorf</name></wpt>
<wpt lat="47.8039" lon="12.8559"><name>Anger</name></wpt>
<wpt lat="47.7596" lon="12.9114"><name>Piding</name></wpt>
<trk><name>Sólé útja – hátralévő szakasz</name><type>cycling</type><trkseg>
<trkpt lat="47.788399" lon="12.720269"><ele>666.7</ele></trkpt>
<trkpt lat="47.788399" lon="12.720268"><ele>666.7</ele></trkpt>
<trkpt lat="47.788490" lon="12.720099"><ele>667.4</ele></trkpt>
<trkpt lat="47.788579" lon="12.719924"><ele>668.3</ele></trkpt>
<trkpt lat="47.788675" lon="12.719715"><ele>669.1</ele></trkpt>
<trkpt lat="47.788765" lon="12.719505"><ele>668.9</ele></trkpt>
<trkpt lat="47.788920" lon="12.719127"><ele>667.9</ele></trkpt>
<trkpt lat="47.789047" lon="12.718818"><ele>667.2</ele></trkpt>
<trkpt lat="47.789093" lon="12.718713"><ele>667.2</ele></trkpt>
<trkpt lat="47.789147" lon="12.718611"><ele>667.5</ele></trkpt>
<trkpt lat="47.789281" lon="12.718404"><ele>668.3</ele></trkpt>
<trkpt lat="47.789415" lon="12.718253"><ele>668.8</ele></trkpt>
<trkpt lat="47.789724" lon="12.717963"><ele>666.7</ele></trkpt>
<trkpt lat="47.790127" lon="12.717599"><ele>661.0</ele></trkpt>
<trkpt lat="47.790853" lon="12.716946"><ele>663.4</ele></trkpt>
<trkpt lat="47.791149" lon="12.716683"><ele>666.0</ele></trkpt>
<trkpt lat="47.791404" lon="12.716439"><ele>667.1</ele></trkpt>
<trkpt lat="47.791644" lon="12.716191"><ele>664.8</ele></trkpt>
<trkpt lat="47.791781" lon="12.716043"><ele>664.5</ele></trkpt>
<trkpt lat="47.791911" lon="12.715883"><ele>665.0</ele></trkpt>
<trkpt lat="47.792158" lon="12.715562"><ele>668.7</ele></trkpt>
<trkpt lat="47.792439" lon="12.715117"><ele>667.3</ele></trkpt>
<trkpt lat="47.792568" lon="12.714922"><ele>666.4</ele></trkpt>
<trkpt lat="47.792691" lon="12.714676"><ele>666.4</ele></trkpt>
<trkpt lat="47.792765" lon="12.714471"><ele>666.0</ele></trkpt>
<trkpt lat="47.792794" lon="12.714342"><ele>665.2</ele></trkpt>
<trkpt lat="47.792817" lon="12.714214"><ele>664.2</ele></trkpt>
<trkpt lat="47.792873" lon="12.713554"><ele>658.9</ele></trkpt>
<trkpt lat="47.792872" lon="12.713496"><ele>658.7</ele></trkpt>
<trkpt lat="47.792872" lon="12.713367"><ele>658.4</ele></trkpt>
<trkpt lat="47.793157" lon="12.713351"><ele>659.1</ele></trkpt>
<trkpt lat="47.793264" lon="12.713339"><ele>659.1</ele></trkpt>
<trkpt lat="47.793369" lon="12.713311"><ele>659.4</ele></trkpt>
<trkpt lat="47.793444" lon="12.713284"><ele>660.1</ele></trkpt>
<trkpt lat="47.793677" lon="12.713121"><ele>658.6</ele></trkpt>
<trkpt lat="47.794315" lon="12.712568"><ele>660.9</ele></trkpt>
<trkpt lat="47.794694" lon="12.712217"><ele>661.8</ele></trkpt>
<trkpt lat="47.794694" lon="12.712217"><ele>661.8</ele></trkpt>
<trkpt lat="47.794940" lon="12.711905"><ele>661.2</ele></trkpt>
<trkpt lat="47.794940" lon="12.711905"><ele>661.2</ele></trkpt>
<trkpt lat="47.795034" lon="12.711750"><ele>660.8</ele></trkpt>
<trkpt lat="47.795094" lon="12.711630"><ele>660.2</ele></trkpt>
<trkpt lat="47.795147" lon="12.711484"><ele>659.5</ele></trkpt>
<trkpt lat="47.795212" lon="12.711306"><ele>658.5</ele></trkpt>
<trkpt lat="47.795342" lon="12.710895"><ele>654.9</ele></trkpt>
<trkpt lat="47.795485" lon="12.710374"><ele>652.7</ele></trkpt>
<trkpt lat="47.795599" lon="12.709983"><ele>653.3</ele></trkpt>
<trkpt lat="47.795663" lon="12.709778"><ele>653.5</ele></trkpt>
<trkpt lat="47.795746" lon="12.709558"><ele>654.2</ele></trkpt>
<trkpt lat="47.795828" lon="12.709375"><ele>654.8</ele></trkpt>
<trkpt lat="47.795901" lon="12.709242"><ele>655.3</ele></trkpt>
<trkpt lat="47.795997" lon="12.709091"><ele>655.2</ele></trkpt>
<trkpt lat="47.796073" lon="12.708990"><ele>654.0</ele></trkpt>
<trkpt lat="47.796165" lon="12.708870"><ele>652.5</ele></trkpt>
<trkpt lat="47.796248" lon="12.708769"><ele>652.2</ele></trkpt>
<trkpt lat="47.796358" lon="12.708648"><ele>652.0</ele></trkpt>
<trkpt lat="47.796497" lon="12.708524"><ele>652.1</ele></trkpt>
<trkpt lat="47.796646" lon="12.708403"><ele>652.7</ele></trkpt>
<trkpt lat="47.796766" lon="12.708314"><ele>652.5</ele></trkpt>
<trkpt lat="47.796947" lon="12.708193"><ele>651.5</ele></trkpt>
<trkpt lat="47.797159" lon="12.708047"><ele>650.2</ele></trkpt>
<trkpt lat="47.797367" lon="12.707882"><ele>649.4</ele></trkpt>
<trkpt lat="47.797512" lon="12.707713"><ele>648.5</ele></trkpt>
<trkpt lat="47.797750" lon="12.707396"><ele>646.6</ele></trkpt>
<trkpt lat="47.798050" lon="12.707073"><ele>646.0</ele></trkpt>
<trkpt lat="47.798227" lon="12.706933"><ele>646.0</ele></trkpt>
<trkpt lat="47.798363" lon="12.706836"><ele>646.3</ele></trkpt>
<trkpt lat="47.798445" lon="12.706792"><ele>646.3</ele></trkpt>
<trkpt lat="47.798571" lon="12.706747"><ele>646.1</ele></trkpt>
<trkpt lat="47.798658" lon="12.706728"><ele>646.2</ele></trkpt>
<trkpt lat="47.798845" lon="12.706711"><ele>647.0</ele></trkpt>
<trkpt lat="47.799177" lon="12.706696"><ele>648.1</ele></trkpt>
<trkpt lat="47.799367" lon="12.706694"><ele>648.1</ele></trkpt>
<trkpt lat="47.799570" lon="12.706663"><ele>648.5</ele></trkpt>
<trkpt lat="47.799570" lon="12.706663"><ele>648.5</ele></trkpt>
<trkpt lat="47.799631" lon="12.706648"><ele>648.7</ele></trkpt>
<trkpt lat="47.799751" lon="12.706616"><ele>649.0</ele></trkpt>
<trkpt lat="47.799880" lon="12.706556"><ele>648.8</ele></trkpt>
<trkpt lat="47.800108" lon="12.706432"><ele>647.8</ele></trkpt>
<trkpt lat="47.800108" lon="12.706432"><ele>647.8</ele></trkpt>
<trkpt lat="47.800194" lon="12.706396"><ele>647.3</ele></trkpt>
<trkpt lat="47.800251" lon="12.706382"><ele>647.1</ele></trkpt>
<trkpt lat="47.800298" lon="12.706384"><ele>647.0</ele></trkpt>
<trkpt lat="47.800335" lon="12.706395"><ele>647.0</ele></trkpt>
<trkpt lat="47.800403" lon="12.706429"><ele>647.1</ele></trkpt>
<trkpt lat="47.800494" lon="12.706489"><ele>647.1</ele></trkpt>
<trkpt lat="47.800545" lon="12.706530"><ele>647.0</ele></trkpt>
<trkpt lat="47.800726" lon="12.706271"><ele>647.6</ele></trkpt>
<trkpt lat="47.800726" lon="12.706271"><ele>647.6</ele></trkpt>
<trkpt lat="47.800809" lon="12.706217"><ele>647.9</ele></trkpt>
<trkpt lat="47.800829" lon="12.706161"><ele>648.0</ele></trkpt>
<trkpt lat="47.800859" lon="12.706129"><ele>648.0</ele></trkpt>
<trkpt lat="47.800975" lon="12.706010"><ele>647.4</ele></trkpt>
<trkpt lat="47.801024" lon="12.705777"><ele>645.9</ele></trkpt>
<trkpt lat="47.801022" lon="12.705525"><ele>644.2</ele></trkpt>
<trkpt lat="47.801037" lon="12.705389"><ele>643.7</ele></trkpt>
<trkpt lat="47.801076" lon="12.705245"><ele>643.1</ele></trkpt>
<trkpt lat="47.801136" lon="12.705063"><ele>642.9</ele></trkpt>
<trkpt lat="47.801136" lon="12.705063"><ele>642.9</ele></trkpt>
<trkpt lat="47.801144" lon="12.705024"><ele>642.9</ele></trkpt>
<trkpt lat="47.801150" lon="12.704978"><ele>643.0</ele></trkpt>
<trkpt lat="47.801168" lon="12.704505"><ele>644.2</ele></trkpt>
<trkpt lat="47.801252" lon="12.704007"><ele>642.9</ele></trkpt>
<trkpt lat="47.801252" lon="12.704007"><ele>642.9</ele></trkpt>
<trkpt lat="47.801282" lon="12.703876"><ele>642.2</ele></trkpt>
<trkpt lat="47.801280" lon="12.703831"><ele>642.2</ele></trkpt>
<trkpt lat="47.801270" lon="12.703783"><ele>642.1</ele></trkpt>
<trkpt lat="47.801584" lon="12.703519"><ele>641.1</ele></trkpt>
<trkpt lat="47.801600" lon="12.703430"><ele>640.7</ele></trkpt>
<trkpt lat="47.801574" lon="12.703291"><ele>640.8</ele></trkpt>
<trkpt lat="47.801554" lon="12.703203"><ele>641.3</ele></trkpt>
<trkpt lat="47.801546" lon="12.703127"><ele>641.6</ele></trkpt>
<trkpt lat="47.801548" lon="12.703037"><ele>642.0</ele></trkpt>
<trkpt lat="47.801547" lon="12.702964"><ele>642.5</ele></trkpt>
<trkpt lat="47.801545" lon="12.702937"><ele>642.7</ele></trkpt>
<trkpt lat="47.801532" lon="12.702920"><ele>642.9</ele></trkpt>
<trkpt lat="47.801532" lon="12.702920"><ele>642.9</ele></trkpt>
<trkpt lat="47.801308" lon="12.702831"><ele>644.7</ele></trkpt>
<trkpt lat="47.801230" lon="12.702800"><ele>644.9</ele></trkpt>
<trkpt lat="47.801265" lon="12.702649"><ele>645.7</ele></trkpt>
<trkpt lat="47.801214" lon="12.702629"><ele>645.7</ele></trkpt>
<trkpt lat="47.801293" lon="12.702265"><ele>646.1</ele></trkpt>
<trkpt lat="47.801293" lon="12.702265"><ele>646.1</ele></trkpt>
<trkpt lat="47.801470" lon="12.701440"><ele>646.8</ele></trkpt>
<trkpt lat="47.801470" lon="12.701440"><ele>646.8</ele></trkpt>
<trkpt lat="47.801581" lon="12.700822"><ele>650.0</ele></trkpt>
<trkpt lat="47.801645" lon="12.700340"><ele>650.7</ele></trkpt>
<trkpt lat="47.801705" lon="12.699910"><ele>651.2</ele></trkpt>
<trkpt lat="47.801733" lon="12.699759"><ele>651.6</ele></trkpt>
<trkpt lat="47.801734" lon="12.699759"><ele>651.6</ele></trkpt>
<trkpt lat="47.801806" lon="12.699440"><ele>653.0</ele></trkpt>
<trkpt lat="47.801806" lon="12.699440"><ele>653.0</ele></trkpt>
<trkpt lat="47.801834" lon="12.699333"><ele>652.9</ele></trkpt>
<trkpt lat="47.801841" lon="12.699273"><ele>653.0</ele></trkpt>
<trkpt lat="47.801850" lon="12.699189"><ele>653.0</ele></trkpt>
<trkpt lat="47.801862" lon="12.699145"><ele>652.8</ele></trkpt>
<trkpt lat="47.801870" lon="12.699113"><ele>652.7</ele></trkpt>
<trkpt lat="47.801891" lon="12.699035"><ele>652.2</ele></trkpt>
<trkpt lat="47.801921" lon="12.698967"><ele>651.6</ele></trkpt>
<trkpt lat="47.801945" lon="12.698912"><ele>651.0</ele></trkpt>
<trkpt lat="47.801972" lon="12.698847"><ele>651.3</ele></trkpt>
<trkpt lat="47.802002" lon="12.698776"><ele>651.7</ele></trkpt>
<trkpt lat="47.802010" lon="12.698757"><ele>651.8</ele></trkpt>
<trkpt lat="47.802035" lon="12.698689"><ele>652.3</ele></trkpt>
<trkpt lat="47.802035" lon="12.698689"><ele>652.3</ele></trkpt>
<trkpt lat="47.802085" lon="12.698561"><ele>653.5</ele></trkpt>
<trkpt lat="47.802106" lon="12.698515"><ele>654.2</ele></trkpt>
<trkpt lat="47.802117" lon="12.698490"><ele>654.6</ele></trkpt>
<trkpt lat="47.802146" lon="12.698426"><ele>655.5</ele></trkpt>
<trkpt lat="47.802155" lon="12.698406"><ele>655.7</ele></trkpt>
<trkpt lat="47.802168" lon="12.698377"><ele>656.1</ele></trkpt>
<trkpt lat="47.802186" lon="12.698339"><ele>656.7</ele></trkpt>
<trkpt lat="47.802200" lon="12.698310"><ele>656.9</ele></trkpt>
<trkpt lat="47.802245" lon="12.698221"><ele>657.5</ele></trkpt>
<trkpt lat="47.802261" lon="12.698189"><ele>657.7</ele></trkpt>
<trkpt lat="47.802261" lon="12.698189"><ele>657.7</ele></trkpt>
<trkpt lat="47.802290" lon="12.698132"><ele>658.0</ele></trkpt>
<trkpt lat="47.802343" lon="12.698028"><ele>658.6</ele></trkpt>
<trkpt lat="47.802422" lon="12.697871"><ele>659.6</ele></trkpt>
<trkpt lat="47.802422" lon="12.697871"><ele>659.6</ele></trkpt>
<trkpt lat="47.802568" lon="12.697594"><ele>660.3</ele></trkpt>
<trkpt lat="47.802759" lon="12.697228"><ele>659.2</ele></trkpt>
<trkpt lat="47.802819" lon="12.697095"><ele>658.9</ele></trkpt>
<trkpt lat="47.802836" lon="12.697063"><ele>658.8</ele></trkpt>
<trkpt lat="47.802870" lon="12.697027"><ele>658.7</ele></trkpt>
<trkpt lat="47.802907" lon="12.696995"><ele>658.5</ele></trkpt>
<trkpt lat="47.803028" lon="12.696873"><ele>658.3</ele></trkpt>
<trkpt lat="47.803080" lon="12.696824"><ele>658.4</ele></trkpt>
<trkpt lat="47.803133" lon="12.696765"><ele>658.6</ele></trkpt>
<trkpt lat="47.803343" lon="12.696525"><ele>659.5</ele></trkpt>
<trkpt lat="47.803658" lon="12.696160"><ele>658.0</ele></trkpt>
<trkpt lat="47.804160" lon="12.695576"><ele>658.9</ele></trkpt>
<trkpt lat="47.804429" lon="12.695262"><ele>659.1</ele></trkpt>
<trkpt lat="47.804665" lon="12.694983"><ele>660.0</ele></trkpt>
<trkpt lat="47.804886" lon="12.694732"><ele>658.4</ele></trkpt>
<trkpt lat="47.805107" lon="12.694508"><ele>657.5</ele></trkpt>
<trkpt lat="47.805258" lon="12.694379"><ele>657.3</ele></trkpt>
<trkpt lat="47.805321" lon="12.694325"><ele>657.1</ele></trkpt>
<trkpt lat="47.805321" lon="12.694325"><ele>657.1</ele></trkpt>
<trkpt lat="47.805375" lon="12.694279"><ele>656.9</ele></trkpt>
<trkpt lat="47.805436" lon="12.694209"><ele>656.7</ele></trkpt>
<trkpt lat="47.805436" lon="12.694209"><ele>656.7</ele></trkpt>
<trkpt lat="47.805507" lon="12.694126"><ele>656.6</ele></trkpt>
<trkpt lat="47.805601" lon="12.694019"><ele>656.8</ele></trkpt>
<trkpt lat="47.805633" lon="12.693996"><ele>656.8</ele></trkpt>
<trkpt lat="47.805656" lon="12.693989"><ele>656.7</ele></trkpt>
<trkpt lat="47.805683" lon="12.693991"><ele>656.5</ele></trkpt>
<trkpt lat="47.805714" lon="12.694002"><ele>656.3</ele></trkpt>
<trkpt lat="47.805770" lon="12.694039"><ele>655.8</ele></trkpt>
<trkpt lat="47.806015" lon="12.694206"><ele>654.9</ele></trkpt>
<trkpt lat="47.806082" lon="12.694249"><ele>654.7</ele></trkpt>
<trkpt lat="47.806125" lon="12.694252"><ele>654.7</ele></trkpt>
<trkpt lat="47.806175" lon="12.694236"><ele>654.6</ele></trkpt>
<trkpt lat="47.806219" lon="12.694194"><ele>654.6</ele></trkpt>
<trkpt lat="47.806246" lon="12.694150"><ele>654.5</ele></trkpt>
<trkpt lat="47.806286" lon="12.694071"><ele>654.4</ele></trkpt>
<trkpt lat="47.806324" lon="12.693996"><ele>654.2</ele></trkpt>
<trkpt lat="47.806354" lon="12.693966"><ele>654.1</ele></trkpt>
<trkpt lat="47.806465" lon="12.693876"><ele>653.7</ele></trkpt>
<trkpt lat="47.806465" lon="12.693876"><ele>653.7</ele></trkpt>
<trkpt lat="47.806549" lon="12.693803"><ele>653.3</ele></trkpt>
<trkpt lat="47.806840" lon="12.693524"><ele>653.0</ele></trkpt>
<trkpt lat="47.807104" lon="12.693229"><ele>652.3</ele></trkpt>
<trkpt lat="47.807104" lon="12.693229"><ele>652.3</ele></trkpt>
<trkpt lat="47.807121" lon="12.693210"><ele>652.2</ele></trkpt>
<trkpt lat="47.807305" lon="12.692939"><ele>651.8</ele></trkpt>
<trkpt lat="47.807493" lon="12.692667"><ele>652.0</ele></trkpt>
<trkpt lat="47.807716" lon="12.692317"><ele>651.5</ele></trkpt>
<trkpt lat="47.808002" lon="12.691875"><ele>651.0</ele></trkpt>
<trkpt lat="47.808223" lon="12.691540"><ele>651.0</ele></trkpt>
<trkpt lat="47.808706" lon="12.690796"><ele>648.5</ele></trkpt>
<trkpt lat="47.808921" lon="12.690413"><ele>647.6</ele></trkpt>
<trkpt lat="47.809178" lon="12.689872"><ele>648.0</ele></trkpt>
<trkpt lat="47.809324" lon="12.689531"><ele>648.3</ele></trkpt>
<trkpt lat="47.809463" lon="12.689159"><ele>648.8</ele></trkpt>
<trkpt lat="47.809733" lon="12.688416"><ele>648.2</ele></trkpt>
<trkpt lat="47.809916" lon="12.687874"><ele>646.9</ele></trkpt>
<trkpt lat="47.810181" lon="12.687140"><ele>638.4</ele></trkpt>
<trkpt lat="47.810305" lon="12.686807"><ele>634.3</ele></trkpt>
<trkpt lat="47.810395" lon="12.686589"><ele>633.0</ele></trkpt>
<trkpt lat="47.810464" lon="12.686439"><ele>632.1</ele></trkpt>
<trkpt lat="47.810464" lon="12.686439"><ele>632.1</ele></trkpt>
<trkpt lat="47.810482" lon="12.686405"><ele>631.8</ele></trkpt>
<trkpt lat="47.810550" lon="12.686272"><ele>630.3</ele></trkpt>
<trkpt lat="47.810558" lon="12.686259"><ele>630.0</ele></trkpt>
<trkpt lat="47.810671" lon="12.686076"><ele>628.4</ele></trkpt>
<trkpt lat="47.810818" lon="12.685855"><ele>625.4</ele></trkpt>
<trkpt lat="47.811047" lon="12.685542"><ele>625.8</ele></trkpt>
<trkpt lat="47.811445" lon="12.685013"><ele>626.0</ele></trkpt>
<trkpt lat="47.811657" lon="12.684746"><ele>626.0</ele></trkpt>
<trkpt lat="47.811733" lon="12.684709"><ele>625.7</ele></trkpt>
<trkpt lat="47.811771" lon="12.684737"><ele>625.6</ele></trkpt>
<trkpt lat="47.811806" lon="12.684751"><ele>625.5</ele></trkpt>
<trkpt lat="47.811859" lon="12.684760"><ele>625.4</ele></trkpt>
<trkpt lat="47.811923" lon="12.684766"><ele>625.2</ele></trkpt>
<trkpt lat="47.811923" lon="12.684766"><ele>625.2</ele></trkpt>
<trkpt lat="47.811974" lon="12.684769"><ele>625.1</ele></trkpt>
<trkpt lat="47.812740" lon="12.684785"><ele>626.0</ele></trkpt>
<trkpt lat="47.812792" lon="12.684783"><ele>626.2</ele></trkpt>
<trkpt lat="47.812843" lon="12.684773"><ele>626.2</ele></trkpt>
<trkpt lat="47.812930" lon="12.684740"><ele>626.1</ele></trkpt>
<trkpt lat="47.813188" lon="12.684645"><ele>625.6</ele></trkpt>
<trkpt lat="47.813409" lon="12.684568"><ele>624.9</ele></trkpt>
<trkpt lat="47.813697" lon="12.684456"><ele>624.4</ele></trkpt>
<trkpt lat="47.814720" lon="12.684020"><ele>626.5</ele></trkpt>
<trkpt lat="47.815520" lon="12.683701"><ele>625.0</ele></trkpt>
<trkpt lat="47.816043" lon="12.683498"><ele>624.9</ele></trkpt>
<trkpt lat="47.816043" lon="12.683498"><ele>624.9</ele></trkpt>
<trkpt lat="47.816511" lon="12.683335"><ele>623.1</ele></trkpt>
<trkpt lat="47.816654" lon="12.683250"><ele>622.1</ele></trkpt>
<trkpt lat="47.816760" lon="12.683166"><ele>622.7</ele></trkpt>
<trkpt lat="47.816880" lon="12.683040"><ele>623.6</ele></trkpt>
<trkpt lat="47.817073" lon="12.682811"><ele>624.9</ele></trkpt>
<trkpt lat="47.817165" lon="12.682660"><ele>625.9</ele></trkpt>
<trkpt lat="47.817196" lon="12.682600"><ele>626.3</ele></trkpt>
<trkpt lat="47.817233" lon="12.682520"><ele>626.7</ele></trkpt>
<trkpt lat="47.817246" lon="12.682455"><ele>626.8</ele></trkpt>
<trkpt lat="47.817273" lon="12.682313"><ele>626.8</ele></trkpt>
<trkpt lat="47.817317" lon="12.682327"><ele>626.0</ele></trkpt>
<trkpt lat="47.817361" lon="12.682321"><ele>625.3</ele></trkpt>
<trkpt lat="47.817414" lon="12.682293"><ele>624.5</ele></trkpt>
<trkpt lat="47.817448" lon="12.682259"><ele>623.9</ele></trkpt>
<trkpt lat="47.817448" lon="12.682259"><ele>623.9</ele></trkpt>
<trkpt lat="47.817778" lon="12.681934"><ele>621.0</ele></trkpt>
<trkpt lat="47.817922" lon="12.681776"><ele>621.5</ele></trkpt>
<trkpt lat="47.817952" lon="12.681738"><ele>621.4</ele></trkpt>
<trkpt lat="47.817952" lon="12.681738"><ele>621.4</ele></trkpt>
<trkpt lat="47.817973" lon="12.681711"><ele>621.4</ele></trkpt>
<trkpt lat="47.818022" lon="12.681629"><ele>621.1</ele></trkpt>
<trkpt lat="47.818073" lon="12.681529"><ele>621.0</ele></trkpt>
<trkpt lat="47.818135" lon="12.681389"><ele>621.0</ele></trkpt>
<trkpt lat="47.818192" lon="12.681230"><ele>623.0</ele></trkpt>
<trkpt lat="47.818324" lon="12.680853"><ele>626.9</ele></trkpt>
<trkpt lat="47.818324" lon="12.680853"><ele>626.9</ele></trkpt>
<trkpt lat="47.818400" lon="12.680618"><ele>627.7</ele></trkpt>
<trkpt lat="47.818453" lon="12.680473"><ele>627.1</ele></trkpt>
<trkpt lat="47.818548" lon="12.680251"><ele>625.3</ele></trkpt>
<trkpt lat="47.818670" lon="12.680039"><ele>623.2</ele></trkpt>
<trkpt lat="47.818869" lon="12.679771"><ele>621.1</ele></trkpt>
<trkpt lat="47.819186" lon="12.679380"><ele>620.0</ele></trkpt>
<trkpt lat="47.819228" lon="12.679310"><ele>620.0</ele></trkpt>
<trkpt lat="47.819501" lon="12.678805"><ele>618.7</ele></trkpt>
<trkpt lat="47.819544" lon="12.678743"><ele>618.5</ele></trkpt>
<trkpt lat="47.819588" lon="12.678704"><ele>618.3</ele></trkpt>
<trkpt lat="47.819645" lon="12.678680"><ele>618.2</ele></trkpt>
<trkpt lat="47.819721" lon="12.678647"><ele>618.1</ele></trkpt>
<trkpt lat="47.819906" lon="12.678565"><ele>620.4</ele></trkpt>
<trkpt lat="47.820118" lon="12.678467"><ele>623.9</ele></trkpt>
<trkpt lat="47.820152" lon="12.678435"><ele>624.6</ele></trkpt>
<trkpt lat="47.820152" lon="12.678435"><ele>624.6</ele></trkpt>
<trkpt lat="47.820170" lon="12.678394"><ele>624.7</ele></trkpt>
<trkpt lat="47.820188" lon="12.678333"><ele>624.7</ele></trkpt>
<trkpt lat="47.820196" lon="12.678287"><ele>624.4</ele></trkpt>
<trkpt lat="47.820209" lon="12.678181"><ele>623.5</ele></trkpt>
<trkpt lat="47.820225" lon="12.677855"><ele>620.8</ele></trkpt>
<trkpt lat="47.820248" lon="12.677555"><ele>619.9</ele></trkpt>
<trkpt lat="47.820261" lon="12.677417"><ele>619.2</ele></trkpt>
<trkpt lat="47.820284" lon="12.677287"><ele>618.6</ele></trkpt>
<trkpt lat="47.820334" lon="12.677053"><ele>618.0</ele></trkpt>
<trkpt lat="47.820395" lon="12.676859"><ele>617.7</ele></trkpt>
<trkpt lat="47.820420" lon="12.676800"><ele>617.8</ele></trkpt>
<trkpt lat="47.820448" lon="12.676746"><ele>617.8</ele></trkpt>
<trkpt lat="47.820505" lon="12.676667"><ele>617.8</ele></trkpt>
<trkpt lat="47.820576" lon="12.676597"><ele>618.0</ele></trkpt>
<trkpt lat="47.820645" lon="12.676543"><ele>618.6</ele></trkpt>
<trkpt lat="47.820817" lon="12.676425"><ele>619.3</ele></trkpt>
<trkpt lat="47.821265" lon="12.676137"><ele>623.4</ele></trkpt>
<trkpt lat="47.821321" lon="12.676094"><ele>623.4</ele></trkpt>
<trkpt lat="47.821355" lon="12.676054"><ele>623.2</ele></trkpt>
<trkpt lat="47.821401" lon="12.675974"><ele>622.2</ele></trkpt>
<trkpt lat="47.821434" lon="12.675888"><ele>620.8</ele></trkpt>
<trkpt lat="47.821477" lon="12.675770"><ele>619.5</ele></trkpt>
<trkpt lat="47.821585" lon="12.675419"><ele>617.6</ele></trkpt>
<trkpt lat="47.821652" lon="12.675194"><ele>617.6</ele></trkpt>
<trkpt lat="47.821680" lon="12.675111"><ele>617.6</ele></trkpt>
<trkpt lat="47.821715" lon="12.675009"><ele>617.7</ele></trkpt>
<trkpt lat="47.821748" lon="12.674922"><ele>618.0</ele></trkpt>
<trkpt lat="47.821786" lon="12.674832"><ele>618.2</ele></trkpt>
<trkpt lat="47.821786" lon="12.674832"><ele>618.2</ele></trkpt>
<trkpt lat="47.821795" lon="12.674813"><ele>618.2</ele></trkpt>
<trkpt lat="47.821795" lon="12.674813"><ele>618.2</ele></trkpt>
<trkpt lat="47.821830" lon="12.674752"><ele>618.3</ele></trkpt>
<trkpt lat="47.821853" lon="12.674719"><ele>618.3</ele></trkpt>
<trkpt lat="47.821877" lon="12.674688"><ele>618.3</ele></trkpt>
<trkpt lat="47.821960" lon="12.674598"><ele>618.2</ele></trkpt>
<trkpt lat="47.821960" lon="12.674598"><ele>618.2</ele></trkpt>
<trkpt lat="47.822007" lon="12.674563"><ele>618.3</ele></trkpt>
<trkpt lat="47.821975" lon="12.674424"><ele>617.1</ele></trkpt>
<trkpt lat="47.821950" lon="12.674276"><ele>615.8</ele></trkpt>
<trkpt lat="47.821973" lon="12.674269"><ele>616.0</ele></trkpt>
<trkpt lat="47.822013" lon="12.674231"><ele>616.1</ele></trkpt>
<trkpt lat="47.822254" lon="12.673883"><ele>617.1</ele></trkpt>
<trkpt lat="47.822686" lon="12.673308"><ele>615.5</ele></trkpt>
<trkpt lat="47.823039" lon="12.672780"><ele>615.0</ele></trkpt>
<trkpt lat="47.823209" lon="12.672450"><ele>615.6</ele></trkpt>
<trkpt lat="47.823209" lon="12.672450"><ele>615.6</ele></trkpt>
<trkpt lat="47.823299" lon="12.672181"><ele>615.6</ele></trkpt>
<trkpt lat="47.823368" lon="12.671912"><ele>615.0</ele></trkpt>
<trkpt lat="47.823450" lon="12.671491"><ele>614.4</ele></trkpt>
<trkpt lat="47.823516" lon="12.671262"><ele>614.8</ele></trkpt>
<trkpt lat="47.823587" lon="12.671102"><ele>615.0</ele></trkpt>
<trkpt lat="47.823653" lon="12.670988"><ele>615.2</ele></trkpt>
<trkpt lat="47.823716" lon="12.670920"><ele>614.8</ele></trkpt>
<trkpt lat="47.823752" lon="12.670889"><ele>614.5</ele></trkpt>
<trkpt lat="47.823779" lon="12.670873"><ele>614.2</ele></trkpt>
<trkpt lat="47.824006" lon="12.670729"><ele>613.1</ele></trkpt>
<trkpt lat="47.824012" lon="12.670723"><ele>613.0</ele></trkpt>
<trkpt lat="47.824013" lon="12.670723"><ele>613.0</ele></trkpt>
<trkpt lat="47.824034" lon="12.670705"><ele>613.0</ele></trkpt>
<trkpt lat="47.824073" lon="12.670651"><ele>612.8</ele></trkpt>
<trkpt lat="47.824088" lon="12.670620"><ele>612.7</ele></trkpt>
<trkpt lat="47.824108" lon="12.670577"><ele>612.5</ele></trkpt>
<trkpt lat="47.824120" lon="12.670536"><ele>612.4</ele></trkpt>
<trkpt lat="47.824128" lon="12.670482"><ele>612.5</ele></trkpt>
<trkpt lat="47.824132" lon="12.670422"><ele>612.6</ele></trkpt>
<trkpt lat="47.824132" lon="12.670357"><ele>612.8</ele></trkpt>
<trkpt lat="47.824080" lon="12.669925"><ele>612.4</ele></trkpt>
<trkpt lat="47.824059" lon="12.669756"><ele>612.6</ele></trkpt>
<trkpt lat="47.824046" lon="12.669570"><ele>612.0</ele></trkpt>
<trkpt lat="47.824049" lon="12.669488"><ele>611.7</ele></trkpt>
<trkpt lat="47.824056" lon="12.669396"><ele>611.6</ele></trkpt>
<trkpt lat="47.824071" lon="12.669304"><ele>611.7</ele></trkpt>
<trkpt lat="47.824093" lon="12.669234"><ele>611.7</ele></trkpt>
<trkpt lat="47.824110" lon="12.669185"><ele>611.8</ele></trkpt>
<trkpt lat="47.824126" lon="12.669145"><ele>611.9</ele></trkpt>
<trkpt lat="47.824145" lon="12.669117"><ele>612.1</ele></trkpt>
<trkpt lat="47.824162" lon="12.669090"><ele>612.3</ele></trkpt>
<trkpt lat="47.824200" lon="12.669046"><ele>612.6</ele></trkpt>
<trkpt lat="47.824200" lon="12.669046"><ele>612.6</ele></trkpt>
<trkpt lat="47.824429" lon="12.668850"><ele>612.9</ele></trkpt>
<trkpt lat="47.824581" lon="12.668723"><ele>612.9</ele></trkpt>
<trkpt lat="47.824705" lon="12.668610"><ele>612.9</ele></trkpt>
<trkpt lat="47.824718" lon="12.668599"><ele>613.0</ele></trkpt>
<trkpt lat="47.824718" lon="12.668599"><ele>613.0</ele></trkpt>
<trkpt lat="47.824939" lon="12.668437"><ele>615.1</ele></trkpt>
<trkpt lat="47.825125" lon="12.668315"><ele>616.5</ele></trkpt>
<trkpt lat="47.825161" lon="12.668298"><ele>616.6</ele></trkpt>
<trkpt lat="47.825212" lon="12.668280"><ele>616.8</ele></trkpt>
<trkpt lat="47.825258" lon="12.668274"><ele>616.9</ele></trkpt>
<trkpt lat="47.825326" lon="12.668273"><ele>617.0</ele></trkpt>
<trkpt lat="47.825381" lon="12.668275"><ele>617.1</ele></trkpt>
<trkpt lat="47.825641" lon="12.668293"><ele>617.1</ele></trkpt>
<trkpt lat="47.825743" lon="12.668299"><ele>617.1</ele></trkpt>
<trkpt lat="47.825779" lon="12.668293"><ele>617.1</ele></trkpt>
<trkpt lat="47.825805" lon="12.668284"><ele>617.2</ele></trkpt>
<trkpt lat="47.825805" lon="12.668284"><ele>617.2</ele></trkpt>
<trkpt lat="47.825834" lon="12.668270"><ele>617.2</ele></trkpt>
<trkpt lat="47.825866" lon="12.668245"><ele>617.5</ele></trkpt>
<trkpt lat="47.825897" lon="12.668211"><ele>617.8</ele></trkpt>
<trkpt lat="47.825920" lon="12.668178"><ele>618.0</ele></trkpt>
<trkpt lat="47.825942" lon="12.668137"><ele>618.2</ele></trkpt>
<trkpt lat="47.825963" lon="12.668085"><ele>618.4</ele></trkpt>
<trkpt lat="47.825977" lon="12.668025"><ele>618.5</ele></trkpt>
<trkpt lat="47.825988" lon="12.667952"><ele>618.6</ele></trkpt>
<trkpt lat="47.825996" lon="12.667791"><ele>618.6</ele></trkpt>
<trkpt lat="47.825997" lon="12.667574"><ele>618.9</ele></trkpt>
<trkpt lat="47.825985" lon="12.666870"><ele>619.5</ele></trkpt>
<trkpt lat="47.825961" lon="12.665888"><ele>619.3</ele></trkpt>
<trkpt lat="47.825960" lon="12.665888"><ele>619.3</ele></trkpt>
<trkpt lat="47.825942" lon="12.665154"><ele>618.3</ele></trkpt>
<trkpt lat="47.825929" lon="12.664618"><ele>618.7</ele></trkpt>
<trkpt lat="47.825929" lon="12.664617"><ele>618.7</ele></trkpt>
<trkpt lat="47.825724" lon="12.661131"><ele>612.9</ele></trkpt>
<trkpt lat="47.825709" lon="12.660783"><ele>613.5</ele></trkpt>
<trkpt lat="47.825708" lon="12.660475"><ele>614.8</ele></trkpt>
<trkpt lat="47.825709" lon="12.660290"><ele>615.1</ele></trkpt>
<trkpt lat="47.825724" lon="12.659879"><ele>614.8</ele></trkpt>
<trkpt lat="47.825751" lon="12.659453"><ele>613.8</ele></trkpt>
<trkpt lat="47.825778" lon="12.659147"><ele>613.1</ele></trkpt>
<trkpt lat="47.825803" lon="12.658915"><ele>612.0</ele></trkpt>
<trkpt lat="47.825834" lon="12.658684"><ele>610.5</ele></trkpt>
<trkpt lat="47.825870" lon="12.658469"><ele>609.9</ele></trkpt>
<trkpt lat="47.825903" lon="12.658299"><ele>609.5</ele></trkpt>
<trkpt lat="47.825934" lon="12.658143"><ele>609.0</ele></trkpt>
<trkpt lat="47.826019" lon="12.657775"><ele>608.3</ele></trkpt>
<trkpt lat="47.826149" lon="12.657265"><ele>609.3</ele></trkpt>
<trkpt lat="47.826210" lon="12.657064"><ele>612.3</ele></trkpt>
<trkpt lat="47.826275" lon="12.656883"><ele>615.3</ele></trkpt>
<trkpt lat="47.826389" lon="12.656585"><ele>617.1</ele></trkpt>
<trkpt lat="47.826481" lon="12.656347"><ele>617.8</ele></trkpt>
<trkpt lat="47.826569" lon="12.656100"><ele>617.1</ele></trkpt>
<trkpt lat="47.826629" lon="12.655942"><ele>616.5</ele></trkpt>
<trkpt lat="47.826664" lon="12.655820"><ele>615.7</ele></trkpt>
<trkpt lat="47.826693" lon="12.655717"><ele>615.3</ele></trkpt>
<trkpt lat="47.826874" lon="12.654961"><ele>610.9</ele></trkpt>
<trkpt lat="47.826874" lon="12.654961"><ele>610.9</ele></trkpt>
<trkpt lat="47.826887" lon="12.654909"><ele>610.7</ele></trkpt>
<trkpt lat="47.826887" lon="12.654909"><ele>610.7</ele></trkpt>
<trkpt lat="47.826919" lon="12.654774"><ele>610.1</ele></trkpt>
<trkpt lat="47.827103" lon="12.654049"><ele>607.8</ele></trkpt>
<trkpt lat="47.827126" lon="12.653962"><ele>607.6</ele></trkpt>
<trkpt lat="47.827285" lon="12.653437"><ele>606.8</ele></trkpt>
<trkpt lat="47.827302" lon="12.653384"><ele>606.6</ele></trkpt>
<trkpt lat="47.827332" lon="12.653287"><ele>606.2</ele></trkpt>
<trkpt lat="47.827332" lon="12.653287"><ele>606.2</ele></trkpt>
<trkpt lat="47.827360" lon="12.653200"><ele>606.0</ele></trkpt>
<trkpt lat="47.827360" lon="12.653199"><ele>606.0</ele></trkpt>
<trkpt lat="47.827400" lon="12.653071"><ele>605.7</ele></trkpt>
<trkpt lat="47.827451" lon="12.652911"><ele>605.4</ele></trkpt>
<trkpt lat="47.827451" lon="12.652911"><ele>605.4</ele></trkpt>
<trkpt lat="47.827551" lon="12.652645"><ele>604.6</ele></trkpt>
<trkpt lat="47.827551" lon="12.652645"><ele>604.6</ele></trkpt>
<trkpt lat="47.827582" lon="12.652564"><ele>604.3</ele></trkpt>
<trkpt lat="47.827582" lon="12.652564"><ele>604.3</ele></trkpt>
<trkpt lat="47.827709" lon="12.652227"><ele>602.8</ele></trkpt>
<trkpt lat="47.827709" lon="12.652227"><ele>602.8</ele></trkpt>
<trkpt lat="47.827770" lon="12.652067"><ele>602.4</ele></trkpt>
<trkpt lat="47.827875" lon="12.651853"><ele>602.9</ele></trkpt>
<trkpt lat="47.827927" lon="12.651770"><ele>603.3</ele></trkpt>
<trkpt lat="47.827962" lon="12.651729"><ele>603.5</ele></trkpt>
<trkpt lat="47.827992" lon="12.651700"><ele>603.6</ele></trkpt>
<trkpt lat="47.827992" lon="12.651700"><ele>603.6</ele></trkpt>
<trkpt lat="47.828055" lon="12.651649"><ele>603.9</ele></trkpt>
<trkpt lat="47.828051" lon="12.651567"><ele>603.6</ele></trkpt>
<trkpt lat="47.828051" lon="12.651567"><ele>603.6</ele></trkpt>
<trkpt lat="47.828051" lon="12.651501"><ele>603.4</ele></trkpt>
<trkpt lat="47.828057" lon="12.651449"><ele>603.2</ele></trkpt>
<trkpt lat="47.828069" lon="12.651380"><ele>603.1</ele></trkpt>
<trkpt lat="47.828093" lon="12.651293"><ele>603.4</ele></trkpt>
<trkpt lat="47.828152" lon="12.651133"><ele>603.7</ele></trkpt>
<trkpt lat="47.828197" lon="12.651035"><ele>603.6</ele></trkpt>
<trkpt lat="47.828283" lon="12.650897"><ele>603.2</ele></trkpt>
<trkpt lat="47.828375" lon="12.650762"><ele>602.9</ele></trkpt>
<trkpt lat="47.828467" lon="12.650629"><ele>602.7</ele></trkpt>
<trkpt lat="47.828624" lon="12.650443"><ele>603.1</ele></trkpt>
<trkpt lat="47.828675" lon="12.650393"><ele>603.6</ele></trkpt>
<trkpt lat="47.828675" lon="12.650393"><ele>603.6</ele></trkpt>
<trkpt lat="47.829046" lon="12.650013"><ele>603.1</ele></trkpt>
<trkpt lat="47.829046" lon="12.650013"><ele>603.1</ele></trkpt>
<trkpt lat="47.829222" lon="12.649838"><ele>601.8</ele></trkpt>
<trkpt lat="47.829222" lon="12.649838"><ele>601.8</ele></trkpt>
<trkpt lat="47.829462" lon="12.649617"><ele>600.6</ele></trkpt>
<trkpt lat="47.829656" lon="12.649453"><ele>599.3</ele></trkpt>
<trkpt lat="47.829657" lon="12.649453"><ele>599.3</ele></trkpt>
<trkpt lat="47.830331" lon="12.648884"><ele>600.0</ele></trkpt>
<trkpt lat="47.830496" lon="12.648752"><ele>600.0</ele></trkpt>
<trkpt lat="47.830531" lon="12.648724"><ele>600.0</ele></trkpt>
<trkpt lat="47.830765" lon="12.648537"><ele>600.0</ele></trkpt>
<trkpt lat="47.830780" lon="12.648445"><ele>600.0</ele></trkpt>
<trkpt lat="47.830788" lon="12.648358"><ele>600.0</ele></trkpt>
<trkpt lat="47.830782" lon="12.648293"><ele>600.1</ele></trkpt>
<trkpt lat="47.830752" lon="12.648164"><ele>600.4</ele></trkpt>
<trkpt lat="47.830589" lon="12.648233"><ele>600.0</ele></trkpt>
<trkpt lat="47.829898" lon="12.648458"><ele>600.3</ele></trkpt>
<trkpt lat="47.829296" lon="12.648592"><ele>600.0</ele></trkpt>
<trkpt lat="47.829059" lon="12.648623"><ele>600.0</ele></trkpt>
<trkpt lat="47.828744" lon="12.648647"><ele>600.6</ele></trkpt>
<trkpt lat="47.828860" lon="12.648151"><ele>600.9</ele></trkpt>
<trkpt lat="47.828888" lon="12.647984"><ele>601.3</ele></trkpt>
<trkpt lat="47.828918" lon="12.647747"><ele>601.9</ele></trkpt>
<trkpt lat="47.828932" lon="12.647649"><ele>601.8</ele></trkpt>
<trkpt lat="47.828959" lon="12.647510"><ele>601.7</ele></trkpt>
<trkpt lat="47.828959" lon="12.647509"><ele>601.7</ele></trkpt>
<trkpt lat="47.829027" lon="12.647421"><ele>601.4</ele></trkpt>
<trkpt lat="47.829064" lon="12.647155"><ele>600.7</ele></trkpt>
<trkpt lat="47.829064" lon="12.647155"><ele>600.7</ele></trkpt>
<trkpt lat="47.829060" lon="12.647067"><ele>600.6</ele></trkpt>
<trkpt lat="47.829038" lon="12.646655"><ele>600.4</ele></trkpt>
<trkpt lat="47.829035" lon="12.646602"><ele>600.4</ele></trkpt>
<trkpt lat="47.829207" lon="12.646490"><ele>599.7</ele></trkpt>
<trkpt lat="47.829207" lon="12.646490"><ele>599.7</ele></trkpt>
<trkpt lat="47.829224" lon="12.646479"><ele>599.6</ele></trkpt>
<trkpt lat="47.829224" lon="12.646479"><ele>599.6</ele></trkpt>
<trkpt lat="47.829239" lon="12.646470"><ele>599.5</ele></trkpt>
<trkpt lat="47.829342" lon="12.646403"><ele>598.7</ele></trkpt>
<trkpt lat="47.829625" lon="12.646240"><ele>597.7</ele></trkpt>
<trkpt lat="47.829725" lon="12.646187"><ele>597.3</ele></trkpt>
<trkpt lat="47.829825" lon="12.646158"><ele>598.0</ele></trkpt>
<trkpt lat="47.830123" lon="12.646128"><ele>600.0</ele></trkpt>
<trkpt lat="47.830890" lon="12.646042"><ele>598.8</ele></trkpt>
<trkpt lat="47.831466" lon="12.646068"><ele>598.8</ele></trkpt>
<trkpt lat="47.831709" lon="12.646081"><ele>599.0</ele></trkpt>
<trkpt lat="47.832095" lon="12.646055"><ele>599.3</ele></trkpt>
<trkpt lat="47.832422" lon="12.646009"><ele>599.1</ele></trkpt>
<trkpt lat="47.832648" lon="12.645935"><ele>600.0</ele></trkpt>
<trkpt lat="47.832893" lon="12.645805"><ele>600.2</ele></trkpt>
<trkpt lat="47.833161" lon="12.645592"><ele>599.6</ele></trkpt>
<trkpt lat="47.833385" lon="12.645412"><ele>599.9</ele></trkpt>
<trkpt lat="47.833795" lon="12.644965"><ele>599.7</ele></trkpt>
<trkpt lat="47.834325" lon="12.644381"><ele>595.0</ele></trkpt>
<trkpt lat="47.834786" lon="12.643961"><ele>592.5</ele></trkpt>
<trkpt lat="47.835206" lon="12.643583"><ele>595.4</ele></trkpt>
<trkpt lat="47.835760" lon="12.643034"><ele>599.9</ele></trkpt>
<trkpt lat="47.836439" lon="12.642373"><ele>598.6</ele></trkpt>
<trkpt lat="47.836923" lon="12.641944"><ele>599.9</ele></trkpt>
<trkpt lat="47.837350" lon="12.641540"><ele>599.5</ele></trkpt>
<trkpt lat="47.837563" lon="12.641354"><ele>599.9</ele></trkpt>
<trkpt lat="47.837563" lon="12.641354"><ele>599.9</ele></trkpt>
<trkpt lat="47.837561" lon="12.641302"><ele>599.7</ele></trkpt>
<trkpt lat="47.837564" lon="12.641236"><ele>599.5</ele></trkpt>
<trkpt lat="47.837569" lon="12.641200"><ele>599.3</ele></trkpt>
<trkpt lat="47.837582" lon="12.641130"><ele>599.1</ele></trkpt>
<trkpt lat="47.837590" lon="12.641095"><ele>598.9</ele></trkpt>
<trkpt lat="47.837747" lon="12.640628"><ele>595.5</ele></trkpt>
<trkpt lat="47.837889" lon="12.640244"><ele>594.6</ele></trkpt>
<trkpt lat="47.837918" lon="12.640166"><ele>594.5</ele></trkpt>
<trkpt lat="47.837918" lon="12.640166"><ele>594.5</ele></trkpt>
<trkpt lat="47.837943" lon="12.640064"><ele>594.4</ele></trkpt>
<trkpt lat="47.837964" lon="12.639997"><ele>594.3</ele></trkpt>
<trkpt lat="47.837995" lon="12.639924"><ele>594.5</ele></trkpt>
<trkpt lat="47.838017" lon="12.639880"><ele>594.6</ele></trkpt>
<trkpt lat="47.838074" lon="12.639774"><ele>594.8</ele></trkpt>
<trkpt lat="47.838133" lon="12.639679"><ele>594.9</ele></trkpt>
<trkpt lat="47.838172" lon="12.639619"><ele>595.0</ele></trkpt>
<trkpt lat="47.838204" lon="12.639558"><ele>595.1</ele></trkpt>
<trkpt lat="47.838255" lon="12.639444"><ele>595.3</ele></trkpt>
<trkpt lat="47.838368" lon="12.639143"><ele>595.0</ele></trkpt>
<trkpt lat="47.838380" lon="12.639078"><ele>595.1</ele></trkpt>
<trkpt lat="47.838380" lon="12.639007"><ele>595.3</ele></trkpt>
<trkpt lat="47.838377" lon="12.638864"><ele>595.8</ele></trkpt>
<trkpt lat="47.838363" lon="12.638789"><ele>596.1</ele></trkpt>
<trkpt lat="47.838341" lon="12.638711"><ele>596.6</ele></trkpt>
<trkpt lat="47.838301" lon="12.638625"><ele>597.3</ele></trkpt>
<trkpt lat="47.838202" lon="12.638463"><ele>599.8</ele></trkpt>
<trkpt lat="47.838202" lon="12.638462"><ele>599.8</ele></trkpt>
<trkpt lat="47.838157" lon="12.638376"><ele>600.9</ele></trkpt>
<trkpt lat="47.838157" lon="12.638376"><ele>600.9</ele></trkpt>
<trkpt lat="47.838100" lon="12.638257"><ele>602.0</ele></trkpt>
<trkpt lat="47.838047" lon="12.638070"><ele>603.0</ele></trkpt>
<trkpt lat="47.838068" lon="12.637808"><ele>604.7</ele></trkpt>
<trkpt lat="47.838134" lon="12.637428"><ele>605.8</ele></trkpt>
<trkpt lat="47.838134" lon="12.637428"><ele>605.8</ele></trkpt>
<trkpt lat="47.838177" lon="12.637181"><ele>607.3</ele></trkpt>
<trkpt lat="47.838169" lon="12.637051"><ele>608.1</ele></trkpt>
<trkpt lat="47.838093" lon="12.636691"><ele>610.0</ele></trkpt>
<trkpt lat="47.838087" lon="12.636664"><ele>610.1</ele></trkpt>
<trkpt lat="47.838087" lon="12.636664"><ele>610.1</ele></trkpt>
<trkpt lat="47.838074" lon="12.636598"><ele>610.5</ele></trkpt>
<trkpt lat="47.837806" lon="12.635932"><ele>611.0</ele></trkpt>
<trkpt lat="47.837657" lon="12.635544"><ele>610.6</ele></trkpt>
<trkpt lat="47.837670" lon="12.635544"><ele>610.6</ele></trkpt>
<trkpt lat="47.837794" lon="12.635556"><ele>611.0</ele></trkpt>
<trkpt lat="47.837980" lon="12.635553"><ele>611.0</ele></trkpt>
<trkpt lat="47.838114" lon="12.635543"><ele>611.0</ele></trkpt>
<trkpt lat="47.838223" lon="12.635525"><ele>611.0</ele></trkpt>
<trkpt lat="47.838328" lon="12.635499"><ele>611.0</ele></trkpt>
<trkpt lat="47.838328" lon="12.635499"><ele>611.0</ele></trkpt>
<trkpt lat="47.838416" lon="12.635468"><ele>610.7</ele></trkpt>
<trkpt lat="47.838509" lon="12.635429"><ele>610.4</ele></trkpt>
<trkpt lat="47.838612" lon="12.635377"><ele>610.0</ele></trkpt>
<trkpt lat="47.838711" lon="12.635325"><ele>609.3</ele></trkpt>
<trkpt lat="47.838982" lon="12.635174"><ele>607.8</ele></trkpt>
<trkpt lat="47.838982" lon="12.635174"><ele>607.8</ele></trkpt>
<trkpt lat="47.839280" lon="12.635006"><ele>608.0</ele></trkpt>
<trkpt lat="47.839579" lon="12.634834"><ele>607.8</ele></trkpt>
<trkpt lat="47.839715" lon="12.634745"><ele>607.9</ele></trkpt>
<trkpt lat="47.839795" lon="12.634681"><ele>607.4</ele></trkpt>
<trkpt lat="47.839795" lon="12.634681"><ele>607.4</ele></trkpt>
<trkpt lat="47.839851" lon="12.634630"><ele>606.9</ele></trkpt>
<trkpt lat="47.839899" lon="12.634583"><ele>606.6</ele></trkpt>
<trkpt lat="47.839990" lon="12.634487"><ele>606.0</ele></trkpt>
<trkpt lat="47.840088" lon="12.634367"><ele>605.6</ele></trkpt>
<trkpt lat="47.840189" lon="12.634240"><ele>605.4</ele></trkpt>
<trkpt lat="47.840295" lon="12.634099"><ele>605.5</ele></trkpt>
<trkpt lat="47.840497" lon="12.633829"><ele>608.5</ele></trkpt>
<trkpt lat="47.840578" lon="12.633722"><ele>609.8</ele></trkpt>
<trkpt lat="47.840664" lon="12.633613"><ele>611.0</ele></trkpt>
<trkpt lat="47.840795" lon="12.633471"><ele>611.6</ele></trkpt>
<trkpt lat="47.840892" lon="12.633381"><ele>612.2</ele></trkpt>
<trkpt lat="47.841032" lon="12.633272"><ele>613.2</ele></trkpt>
<trkpt lat="47.841162" lon="12.633189"><ele>614.3</ele></trkpt>
<trkpt lat="47.841482" lon="12.633025"><ele>617.6</ele></trkpt>
<trkpt lat="47.841665" lon="12.632923"><ele>617.0</ele></trkpt>
<trkpt lat="47.841854" lon="12.632775"><ele>614.6</ele></trkpt>
<trkpt lat="47.842020" lon="12.632634"><ele>612.2</ele></trkpt>
<trkpt lat="47.842571" lon="12.632100"><ele>615.5</ele></trkpt>
<trkpt lat="47.842857" lon="12.631870"><ele>616.2</ele></trkpt>
<trkpt lat="47.843087" lon="12.631725"><ele>616.9</ele></trkpt>
<trkpt lat="47.843088" lon="12.631725"><ele>616.9</ele></trkpt>
<trkpt lat="47.843602" lon="12.631448"><ele>614.9</ele></trkpt>
<trkpt lat="47.843649" lon="12.631423"><ele>614.5</ele></trkpt>
<trkpt lat="47.843649" lon="12.631423"><ele>614.5</ele></trkpt>
<trkpt lat="47.843729" lon="12.631381"><ele>614.0</ele></trkpt>
<trkpt lat="47.844184" lon="12.631236"><ele>615.0</ele></trkpt>
<trkpt lat="47.844651" lon="12.631133"><ele>619.6</ele></trkpt>
<trkpt lat="47.845080" lon="12.631080"><ele>621.9</ele></trkpt>
<trkpt lat="47.845419" lon="12.631025"><ele>617.2</ele></trkpt>
<trkpt lat="47.845827" lon="12.630978"><ele>614.0</ele></trkpt>
<trkpt lat="47.846223" lon="12.630952"><ele>613.6</ele></trkpt>
<trkpt lat="47.846512" lon="12.630931"><ele>609.7</ele></trkpt>
<trkpt lat="47.846638" lon="12.630921"><ele>607.6</ele></trkpt>
<trkpt lat="47.846954" lon="12.630966"><ele>604.0</ele></trkpt>
<trkpt lat="47.847268" lon="12.631013"><ele>603.8</ele></trkpt>
<trkpt lat="47.847736" lon="12.631122"><ele>604.8</ele></trkpt>
<trkpt lat="47.848042" lon="12.631225"><ele>605.0</ele></trkpt>
<trkpt lat="47.848344" lon="12.631345"><ele>604.2</ele></trkpt>
<trkpt lat="47.848414" lon="12.631373"><ele>604.1</ele></trkpt>
<trkpt lat="47.848414" lon="12.631373"><ele>604.1</ele></trkpt>
<trkpt lat="47.848616" lon="12.631446"><ele>604.0</ele></trkpt>
<trkpt lat="47.848735" lon="12.631475"><ele>604.3</ele></trkpt>
<trkpt lat="47.848860" lon="12.631406"><ele>604.8</ele></trkpt>
<trkpt lat="47.848939" lon="12.631341"><ele>604.8</ele></trkpt>
<trkpt lat="47.848962" lon="12.631301"><ele>604.7</ele></trkpt>
<trkpt lat="47.848990" lon="12.631271"><ele>604.6</ele></trkpt>
<trkpt lat="47.849023" lon="12.631252"><ele>604.5</ele></trkpt>
<trkpt lat="47.849057" lon="12.631246"><ele>604.5</ele></trkpt>
<trkpt lat="47.849170" lon="12.630966"><ele>604.0</ele></trkpt>
<trkpt lat="47.849211" lon="12.630817"><ele>604.2</ele></trkpt>
<trkpt lat="47.849211" lon="12.630817"><ele>604.2</ele></trkpt>
<trkpt lat="47.849357" lon="12.630155"><ele>608.1</ele></trkpt>
<trkpt lat="47.849588" lon="12.630289"><ele>609.0</ele></trkpt>
<trkpt lat="47.849588" lon="12.630289"><ele>609.0</ele></trkpt>
<trkpt lat="47.849783" lon="12.630403"><ele>609.8</ele></trkpt>
<trkpt lat="47.850141" lon="12.630584"><ele>610.4</ele></trkpt>
<trkpt lat="47.850141" lon="12.630584"><ele>610.4</ele></trkpt>
<trkpt lat="47.850537" lon="12.630806"><ele>611.2</ele></trkpt>
<trkpt lat="47.850814" lon="12.630924"><ele>610.6</ele></trkpt>
<trkpt lat="47.851027" lon="12.630995"><ele>610.1</ele></trkpt>
<trkpt lat="47.851027" lon="12.630995"><ele>610.1</ele></trkpt>
<trkpt lat="47.851090" lon="12.631017"><ele>610.0</ele></trkpt>
<trkpt lat="47.851252" lon="12.631053"><ele>608.9</ele></trkpt>
<trkpt lat="47.851416" lon="12.631057"><ele>608.0</ele></trkpt>
<trkpt lat="47.851572" lon="12.631049"><ele>607.1</ele></trkpt>
<trkpt lat="47.851728" lon="12.631008"><ele>606.7</ele></trkpt>
<trkpt lat="47.851908" lon="12.630935"><ele>607.3</ele></trkpt>
<trkpt lat="47.851992" lon="12.630897"><ele>607.5</ele></trkpt>
<trkpt lat="47.851993" lon="12.630897"><ele>607.5</ele></trkpt>
<trkpt lat="47.852155" lon="12.630813"><ele>608.2</ele></trkpt>
<trkpt lat="47.852237" lon="12.630754"><ele>608.5</ele></trkpt>
<trkpt lat="47.852309" lon="12.630678"><ele>608.5</ele></trkpt>
<trkpt lat="47.852424" lon="12.630529"><ele>608.7</ele></trkpt>
<trkpt lat="47.852519" lon="12.630388"><ele>608.4</ele></trkpt>
<trkpt lat="47.852728" lon="12.630067"><ele>607.6</ele></trkpt>
<trkpt lat="47.852961" lon="12.629662"><ele>605.8</ele></trkpt>
<trkpt lat="47.853023" lon="12.629767"><ele>605.2</ele></trkpt>
<trkpt lat="47.853078" lon="12.629855"><ele>605.0</ele></trkpt>
<trkpt lat="47.853144" lon="12.629957"><ele>605.0</ele></trkpt>
<trkpt lat="47.853204" lon="12.630039"><ele>604.9</ele></trkpt>
<trkpt lat="47.853361" lon="12.630230"><ele>604.3</ele></trkpt>
<trkpt lat="47.853468" lon="12.630288"><ele>604.5</ele></trkpt>
<trkpt lat="47.853568" lon="12.630320"><ele>604.7</ele></trkpt>
<trkpt lat="47.853597" lon="12.630293"><ele>604.9</ele></trkpt>
<trkpt lat="47.853641" lon="12.630276"><ele>605.0</ele></trkpt>
<trkpt lat="47.853686" lon="12.630279"><ele>605.0</ele></trkpt>
<trkpt lat="47.853728" lon="12.630300"><ele>604.9</ele></trkpt>
<trkpt lat="47.853835" lon="12.630241"><ele>605.2</ele></trkpt>
<trkpt lat="47.853835" lon="12.630241"><ele>605.2</ele></trkpt>
<trkpt lat="47.853808" lon="12.630186"><ele>605.6</ele></trkpt>
<trkpt lat="47.853920" lon="12.630470"><ele>604.4</ele></trkpt>
<trkpt lat="47.854250" lon="12.630090"><ele>606.7</ele></trkpt>
<trkpt lat="47.854850" lon="12.629830"><ele>608.3</ele></trkpt>
<trkpt lat="47.856280" lon="12.629610"><ele>604.4</ele></trkpt>
<trkpt lat="47.856330" lon="12.629590"><ele>604.2</ele></trkpt>
<trkpt lat="47.857330" lon="12.628880"><ele>605.0</ele></trkpt>
<trkpt lat="47.858800" lon="12.628860"><ele>605.0</ele></trkpt>
<trkpt lat="47.859310" lon="12.628810"><ele>604.0</ele></trkpt>
<trkpt lat="47.860340" lon="12.628320"><ele>606.8</ele></trkpt>
<trkpt lat="47.860610" lon="12.629150"><ele>604.7</ele></trkpt>
<trkpt lat="47.861160" lon="12.629980"><ele>609.7</ele></trkpt>
<trkpt lat="47.861750" lon="12.631770"><ele>621.1</ele></trkpt>
<trkpt lat="47.861800" lon="12.631870"><ele>621.5</ele></trkpt>
<trkpt lat="47.862830" lon="12.633450"><ele>620.2</ele></trkpt>
<trkpt lat="47.863690" lon="12.635100"><ele>619.1</ele></trkpt>
<trkpt lat="47.864690" lon="12.636600"><ele>606.5</ele></trkpt>
<trkpt lat="47.865220" lon="12.636300"><ele>608.8</ele></trkpt>
<trkpt lat="47.865610" lon="12.637020"><ele>610.7</ele></trkpt>
<trkpt lat="47.866950" lon="12.637580"><ele>605.2</ele></trkpt>
<trkpt lat="47.867640" lon="12.637880"><ele>599.2</ele></trkpt>
<trkpt lat="47.867800" lon="12.638010"><ele>597.5</ele></trkpt>
<trkpt lat="47.867750" lon="12.638250"><ele>595.6</ele></trkpt>
<trkpt lat="47.867910" lon="12.638550"><ele>596.4</ele></trkpt>
<trkpt lat="47.868540" lon="12.638500"><ele>597.1</ele></trkpt>
<trkpt lat="47.869360" lon="12.639070"><ele>595.3</ele></trkpt>
<trkpt lat="47.869800" lon="12.639830"><ele>598.5</ele></trkpt>
<trkpt lat="47.870530" lon="12.640410"><ele>592.5</ele></trkpt>
<trkpt lat="47.870670" lon="12.641150"><ele>590.9</ele></trkpt>
<trkpt lat="47.870360" lon="12.643300"><ele>591.1</ele></trkpt>
<trkpt lat="47.870200" lon="12.644570"><ele>593.3</ele></trkpt>
<trkpt lat="47.869930" lon="12.645500"><ele>594.5</ele></trkpt>
<trkpt lat="47.870610" lon="12.646010"><ele>591.8</ele></trkpt>
<trkpt lat="47.870830" lon="12.646530"><ele>590.5</ele></trkpt>
<trkpt lat="47.870830" lon="12.647160"><ele>585.7</ele></trkpt>
<trkpt lat="47.871380" lon="12.647520"><ele>577.1</ele></trkpt>
<trkpt lat="47.871730" lon="12.648850"><ele>576.0</ele></trkpt>
<trkpt lat="47.871920" lon="12.648930"><ele>576.0</ele></trkpt>
<trkpt lat="47.872230" lon="12.649950"><ele>576.0</ele></trkpt>
<trkpt lat="47.871240" lon="12.651220"><ele>577.5</ele></trkpt>
<trkpt lat="47.871190" lon="12.651300"><ele>577.7</ele></trkpt>
<trkpt lat="47.872390" lon="12.652640"><ele>576.4</ele></trkpt>
<trkpt lat="47.873170" lon="12.653460"><ele>578.2</ele></trkpt>
<trkpt lat="47.873770" lon="12.653810"><ele>584.8</ele></trkpt>
<trkpt lat="47.874080" lon="12.652610"><ele>582.1</ele></trkpt>
<trkpt lat="47.874050" lon="12.653490"><ele>585.6</ele></trkpt>
<trkpt lat="47.874720" lon="12.654290"><ele>593.0</ele></trkpt>
<trkpt lat="47.874780" lon="12.656360"><ele>601.0</ele></trkpt>
<trkpt lat="47.874780" lon="12.657420"><ele>602.9</ele></trkpt>
<trkpt lat="47.874060" lon="12.657480"><ele>602.6</ele></trkpt>
<trkpt lat="47.874140" lon="12.658090"><ele>602.7</ele></trkpt>
<trkpt lat="47.873910" lon="12.658280"><ele>601.1</ele></trkpt>
<trkpt lat="47.873790" lon="12.659680"><ele>602.0</ele></trkpt>
<trkpt lat="47.873370" lon="12.659830"><ele>602.3</ele></trkpt>
<trkpt lat="47.873310" lon="12.660160"><ele>602.9</ele></trkpt>
<trkpt lat="47.874010" lon="12.660770"><ele>604.8</ele></trkpt>
<trkpt lat="47.874740" lon="12.662680"><ele>605.0</ele></trkpt>
<trkpt lat="47.874830" lon="12.662860"><ele>605.3</ele></trkpt>
<trkpt lat="47.875310" lon="12.662960"><ele>606.4</ele></trkpt>
<trkpt lat="47.875730" lon="12.663970"><ele>607.7</ele></trkpt>
<trkpt lat="47.876480" lon="12.664700"><ele>610.8</ele></trkpt>
<trkpt lat="47.876500" lon="12.665570"><ele>611.8</ele></trkpt>
<trkpt lat="47.877130" lon="12.666390"><ele>611.3</ele></trkpt>
<trkpt lat="47.876990" lon="12.668450"><ele>630.0</ele></trkpt>
<trkpt lat="47.876920" lon="12.670610"><ele>630.8</ele></trkpt>
<trkpt lat="47.876810" lon="12.672670"><ele>622.4</ele></trkpt>
<trkpt lat="47.876740" lon="12.673720"><ele>615.4</ele></trkpt>
<trkpt lat="47.876930" lon="12.675770"><ele>617.1</ele></trkpt>
<trkpt lat="47.876930" lon="12.675770"><ele>617.1</ele></trkpt>
<trkpt lat="47.876400" lon="12.677770"><ele>620.1</ele></trkpt>
<trkpt lat="47.876380" lon="12.677850"><ele>620.7</ele></trkpt>
<trkpt lat="47.876260" lon="12.679350"><ele>627.2</ele></trkpt>
<trkpt lat="47.876270" lon="12.681470"><ele>624.0</ele></trkpt>
<trkpt lat="47.876290" lon="12.683600"><ele>628.1</ele></trkpt>
<trkpt lat="47.876340" lon="12.684800"><ele>626.3</ele></trkpt>
<trkpt lat="47.876680" lon="12.686910"><ele>623.0</ele></trkpt>
<trkpt lat="47.876940" lon="12.689020"><ele>622.0</ele></trkpt>
<trkpt lat="47.876970" lon="12.689480"><ele>623.1</ele></trkpt>
<trkpt lat="47.877000" lon="12.691530"><ele>624.1</ele></trkpt>
<trkpt lat="47.876840" lon="12.693460"><ele>618.7</ele></trkpt>
<trkpt lat="47.876470" lon="12.695570"><ele>616.0</ele></trkpt>
<trkpt lat="47.876030" lon="12.697620"><ele>616.4</ele></trkpt>
<trkpt lat="47.875630" lon="12.699810"><ele>609.3</ele></trkpt>
<trkpt lat="47.875350" lon="12.701810"><ele>612.9</ele></trkpt>
<trkpt lat="47.875270" lon="12.702240"><ele>614.1</ele></trkpt>
<trkpt lat="47.874600" lon="12.703790"><ele>612.8</ele></trkpt>
<trkpt lat="47.874330" lon="12.705430"><ele>613.5</ele></trkpt>
<trkpt lat="47.874230" lon="12.706680"><ele>610.8</ele></trkpt>
<trkpt lat="47.874360" lon="12.708760"><ele>610.2</ele></trkpt>
<trkpt lat="47.874360" lon="12.709980"><ele>612.0</ele></trkpt>
<trkpt lat="47.873720" lon="12.711490"><ele>612.0</ele></trkpt>
<trkpt lat="47.873670" lon="12.713290"><ele>612.1</ele></trkpt>
<trkpt lat="47.872800" lon="12.713530"><ele>608.2</ele></trkpt>
<trkpt lat="47.872690" lon="12.713740"><ele>608.8</ele></trkpt>
<trkpt lat="47.873070" lon="12.714610"><ele>606.4</ele></trkpt>
<trkpt lat="47.873160" lon="12.716170"><ele>597.0</ele></trkpt>
<trkpt lat="47.872850" lon="12.718130"><ele>600.5</ele></trkpt>
<trkpt lat="47.872820" lon="12.718350"><ele>600.9</ele></trkpt>
<trkpt lat="47.872670" lon="12.720470"><ele>606.0</ele></trkpt>
<trkpt lat="47.872470" lon="12.722650"><ele>613.5</ele></trkpt>
<trkpt lat="47.872380" lon="12.723390"><ele>614.7</ele></trkpt>
<trkpt lat="47.871700" lon="12.725150"><ele>609.0</ele></trkpt>
<trkpt lat="47.871180" lon="12.726190"><ele>607.5</ele></trkpt>
<trkpt lat="47.870240" lon="12.727800"><ele>606.9</ele></trkpt>
<trkpt lat="47.869270" lon="12.729290"><ele>606.9</ele></trkpt>
<trkpt lat="47.868770" lon="12.730130"><ele>608.1</ele></trkpt>
<trkpt lat="47.868210" lon="12.731310"><ele>601.1</ele></trkpt>
<trkpt lat="47.867620" lon="12.733140"><ele>593.3</ele></trkpt>
<trkpt lat="47.867530" lon="12.733510"><ele>592.5</ele></trkpt>
<trkpt lat="47.867290" lon="12.734980"><ele>580.4</ele></trkpt>
<trkpt lat="47.867110" lon="12.737170"><ele>580.2</ele></trkpt>
<trkpt lat="47.867110" lon="12.737690"><ele>584.6</ele></trkpt>
<trkpt lat="47.867630" lon="12.739220"><ele>581.1</ele></trkpt>
<trkpt lat="47.867680" lon="12.739910"><ele>586.4</ele></trkpt>
<trkpt lat="47.867380" lon="12.741680"><ele>601.4</ele></trkpt>
<trkpt lat="47.867350" lon="12.743730"><ele>610.5</ele></trkpt>
<trkpt lat="47.867270" lon="12.744610"><ele>611.5</ele></trkpt>
<trkpt lat="47.866930" lon="12.746770"><ele>609.6</ele></trkpt>
<trkpt lat="47.866640" lon="12.748830"><ele>611.1</ele></trkpt>
<trkpt lat="47.866610" lon="12.749050"><ele>611.2</ele></trkpt>
<trkpt lat="47.866470" lon="12.751300"><ele>609.5</ele></trkpt>
<trkpt lat="47.866430" lon="12.753160"><ele>606.7</ele></trkpt>
<trkpt lat="47.866520" lon="12.755300"><ele>602.0</ele></trkpt>
<trkpt lat="47.866600" lon="12.756310"><ele>604.1</ele></trkpt>
<trkpt lat="47.866880" lon="12.758310"><ele>604.1</ele></trkpt>
<trkpt lat="47.867100" lon="12.760080"><ele>603.2</ele></trkpt>
<trkpt lat="47.866980" lon="12.762110"><ele>591.5</ele></trkpt>
<trkpt lat="47.866980" lon="12.763090"><ele>586.6</ele></trkpt>
<trkpt lat="47.867130" lon="12.765090"><ele>580.1</ele></trkpt>
<trkpt lat="47.867160" lon="12.766310"><ele>576.1</ele></trkpt>
<trkpt lat="47.866930" lon="12.767320"><ele>571.7</ele></trkpt>
<trkpt lat="47.866180" lon="12.769010"><ele>574.6</ele></trkpt>
<trkpt lat="47.865950" lon="12.769770"><ele>574.6</ele></trkpt>
<trkpt lat="47.865950" lon="12.771840"><ele>573.6</ele></trkpt>
<trkpt lat="47.865880" lon="12.773360"><ele>567.0</ele></trkpt>
<trkpt lat="47.865120" lon="12.774710"><ele>570.5</ele></trkpt>
<trkpt lat="47.864930" lon="12.775580"><ele>568.8</ele></trkpt>
<trkpt lat="47.864900" lon="12.777830"><ele>571.3</ele></trkpt>
<trkpt lat="47.864920" lon="12.778910"><ele>558.9</ele></trkpt>
<trkpt lat="47.864760" lon="12.780980"><ele>547.7</ele></trkpt>
<trkpt lat="47.864760" lon="12.781040"><ele>547.6</ele></trkpt>
<trkpt lat="47.864940" lon="12.783030"><ele>543.3</ele></trkpt>
<trkpt lat="47.864960" lon="12.783410"><ele>542.1</ele></trkpt>
<trkpt lat="47.864910" lon="12.784600"><ele>548.2</ele></trkpt>
<trkpt lat="47.864420" lon="12.785990"><ele>556.4</ele></trkpt>
<trkpt lat="47.863530" lon="12.787590"><ele>551.0</ele></trkpt>
<trkpt lat="47.863300" lon="12.788050"><ele>549.5</ele></trkpt>
<trkpt lat="47.862860" lon="12.790110"><ele>545.9</ele></trkpt>
<trkpt lat="47.862520" lon="12.792000"><ele>540.7</ele></trkpt>
<trkpt lat="47.861770" lon="12.793350"><ele>521.5</ele></trkpt>
<trkpt lat="47.861070" lon="12.793710"><ele>518.6</ele></trkpt>
<trkpt lat="47.860450" lon="12.793710"><ele>528.2</ele></trkpt>
<trkpt lat="47.859040" lon="12.793100"><ele>507.5</ele></trkpt>
<trkpt lat="47.857900" lon="12.792520"><ele>502.6</ele></trkpt>
<trkpt lat="47.857800" lon="12.794650"><ele>500.3</ele></trkpt>
<trkpt lat="47.857730" lon="12.795230"><ele>499.0</ele></trkpt>
<trkpt lat="47.857370" lon="12.797080"><ele>500.3</ele></trkpt>
<trkpt lat="47.857000" lon="12.797710"><ele>501.2</ele></trkpt>
<trkpt lat="47.855510" lon="12.797900"><ele>502.2</ele></trkpt>
<trkpt lat="47.855130" lon="12.797920"><ele>501.7</ele></trkpt>
<trkpt lat="47.854190" lon="12.797800"><ele>497.3</ele></trkpt>
<trkpt lat="47.853030" lon="12.798180"><ele>500.8</ele></trkpt>
<trkpt lat="47.851780" lon="12.797670"><ele>497.5</ele></trkpt>
<trkpt lat="47.851450" lon="12.799830"><ele>493.7</ele></trkpt>
<trkpt lat="47.851070" lon="12.801890"><ele>494.0</ele></trkpt>
<trkpt lat="47.850880" lon="12.802970"><ele>492.4</ele></trkpt>
<trkpt lat="47.850310" lon="12.805070"><ele>492.1</ele></trkpt>
<trkpt lat="47.849730" lon="12.806860"><ele>492.0</ele></trkpt>
<trkpt lat="47.850010" lon="12.807220"><ele>492.9</ele></trkpt>
<trkpt lat="47.849890" lon="12.809390"><ele>492.4</ele></trkpt>
<trkpt lat="47.849830" lon="12.811490"><ele>491.9</ele></trkpt>
<trkpt lat="47.849800" lon="12.812290"><ele>492.1</ele></trkpt>
<trkpt lat="47.849890" lon="12.812490"><ele>492.6</ele></trkpt>
<trkpt lat="47.849730" lon="12.813480"><ele>492.9</ele></trkpt>
<trkpt lat="47.849730" lon="12.815500"><ele>491.8</ele></trkpt>
<trkpt lat="47.849760" lon="12.817700"><ele>494.6</ele></trkpt>
<trkpt lat="47.849780" lon="12.819080"><ele>496.0</ele></trkpt>
<trkpt lat="47.849400" lon="12.819350"><ele>497.1</ele></trkpt>
<trkpt lat="47.849370" lon="12.820730"><ele>499.0</ele></trkpt>
<trkpt lat="47.849090" lon="12.822120"><ele>501.8</ele></trkpt>
<trkpt lat="47.849060" lon="12.823670"><ele>504.1</ele></trkpt>
<trkpt lat="47.849200" lon="12.823960"><ele>503.6</ele></trkpt>
<trkpt lat="47.849860" lon="12.823490"><ele>503.9</ele></trkpt>
<trkpt lat="47.850200" lon="12.825550"><ele>493.0</ele></trkpt>
<trkpt lat="47.850200" lon="12.825810"><ele>493.0</ele></trkpt>
<trkpt lat="47.850120" lon="12.826690"><ele>490.7</ele></trkpt>
<trkpt lat="47.849920" lon="12.826710"><ele>488.6</ele></trkpt>
<trkpt lat="47.849850" lon="12.827100"><ele>486.1</ele></trkpt>
<trkpt lat="47.849850" lon="12.827390"><ele>486.3</ele></trkpt>
<trkpt lat="47.850020" lon="12.827590"><ele>486.0</ele></trkpt>
<trkpt lat="47.849800" lon="12.829750"><ele>487.8</ele></trkpt>
<trkpt lat="47.849780" lon="12.829850"><ele>488.3</ele></trkpt>
<trkpt lat="47.849520" lon="12.830690"><ele>491.6</ele></trkpt>
<trkpt lat="47.849010" lon="12.831550"><ele>493.5</ele></trkpt>
<trkpt lat="47.849140" lon="12.831980"><ele>496.9</ele></trkpt>
<trkpt lat="47.848820" lon="12.833570"><ele>499.9</ele></trkpt>
<trkpt lat="47.849150" lon="12.834100"><ele>502.5</ele></trkpt>
<trkpt lat="47.849030" lon="12.834500"><ele>503.5</ele></trkpt>
<trkpt lat="47.848550" lon="12.835250"><ele>501.4</ele></trkpt>
<trkpt lat="47.848310" lon="12.835000"><ele>502.1</ele></trkpt>
<trkpt lat="47.848400" lon="12.834810"><ele>501.1</ele></trkpt>
<trkpt lat="47.847460" lon="12.834250"><ele>497.9</ele></trkpt>
<trkpt lat="47.847930" lon="12.832810"><ele>493.9</ele></trkpt>
<trkpt lat="47.847310" lon="12.832250"><ele>485.2</ele></trkpt>
<trkpt lat="47.847320" lon="12.830870"><ele>484.1</ele></trkpt>
<trkpt lat="47.846690" lon="12.830740"><ele>485.0</ele></trkpt>
<trkpt lat="47.846300" lon="12.829450"><ele>485.0</ele></trkpt>
<trkpt lat="47.846500" lon="12.828180"><ele>484.2</ele></trkpt>
<trkpt lat="47.846230" lon="12.827800"><ele>485.0</ele></trkpt>
<trkpt lat="47.846120" lon="12.827230"><ele>490.8</ele></trkpt>
<trkpt lat="47.846540" lon="12.826660"><ele>493.5</ele></trkpt>
<trkpt lat="47.846600" lon="12.826290"><ele>497.5</ele></trkpt>
<trkpt lat="47.846180" lon="12.826550"><ele>497.9</ele></trkpt>
<trkpt lat="47.846000" lon="12.826420"><ele>499.3</ele></trkpt>
<trkpt lat="47.845460" lon="12.826880"><ele>500.3</ele></trkpt>
<trkpt lat="47.844120" lon="12.827270"><ele>502.5</ele></trkpt>
<trkpt lat="47.843910" lon="12.827330"><ele>502.6</ele></trkpt>
<trkpt lat="47.842640" lon="12.826660"><ele>494.4</ele></trkpt>
<trkpt lat="47.842340" lon="12.826480"><ele>494.0</ele></trkpt>
<trkpt lat="47.841420" lon="12.826410"><ele>496.9</ele></trkpt>
<trkpt lat="47.840860" lon="12.827080"><ele>509.9</ele></trkpt>
<trkpt lat="47.839990" lon="12.827160"><ele>510.8</ele></trkpt>
<trkpt lat="47.839430" lon="12.827660"><ele>501.3</ele></trkpt>
<trkpt lat="47.838130" lon="12.827030"><ele>518.8</ele></trkpt>
<trkpt lat="47.837960" lon="12.827000"><ele>521.9</ele></trkpt>
<trkpt lat="47.836810" lon="12.827270"><ele>520.7</ele></trkpt>
<trkpt lat="47.835600" lon="12.828340"><ele>521.6</ele></trkpt>
<trkpt lat="47.834790" lon="12.828980"><ele>517.7</ele></trkpt>
<trkpt lat="47.833760" lon="12.830070"><ele>516.0</ele></trkpt>
<trkpt lat="47.833550" lon="12.830610"><ele>516.2</ele></trkpt>
<trkpt lat="47.832680" lon="12.830490"><ele>512.5</ele></trkpt>
<trkpt lat="47.831740" lon="12.831050"><ele>530.0</ele></trkpt>
<trkpt lat="47.831360" lon="12.831850"><ele>520.9</ele></trkpt>
<trkpt lat="47.830550" lon="12.832510"><ele>519.8</ele></trkpt>
<trkpt lat="47.830160" lon="12.832450"><ele>520.6</ele></trkpt>
<trkpt lat="47.828850" lon="12.831560"><ele>515.8</ele></trkpt>
<trkpt lat="47.827740" lon="12.830880"><ele>518.3</ele></trkpt>
<trkpt lat="47.826360" lon="12.830250"><ele>523.3</ele></trkpt>
<trkpt lat="47.825690" lon="12.829950"><ele>529.9</ele></trkpt>
<trkpt lat="47.825240" lon="12.829810"><ele>533.6</ele></trkpt>
<trkpt lat="47.824390" lon="12.829930"><ele>543.1</ele></trkpt>
<trkpt lat="47.823970" lon="12.831950"><ele>536.6</ele></trkpt>
<trkpt lat="47.823820" lon="12.832390"><ele>532.6</ele></trkpt>
<trkpt lat="47.822470" lon="12.832770"><ele>540.0</ele></trkpt>
<trkpt lat="47.821920" lon="12.832880"><ele>535.4</ele></trkpt>
<trkpt lat="47.821210" lon="12.834250"><ele>536.3</ele></trkpt>
<trkpt lat="47.819740" lon="12.834370"><ele>553.3</ele></trkpt>
<trkpt lat="47.819580" lon="12.834480"><ele>556.1</ele></trkpt>
<trkpt lat="47.818950" lon="12.835650"><ele>559.0</ele></trkpt>
<trkpt lat="47.817810" lon="12.836770"><ele>558.6</ele></trkpt>
<trkpt lat="47.816760" lon="12.837580"><ele>554.4</ele></trkpt>
<trkpt lat="47.815790" lon="12.839000"><ele>560.8</ele></trkpt>
<trkpt lat="47.815560" lon="12.839290"><ele>562.9</ele></trkpt>
<trkpt lat="47.815080" lon="12.839450"><ele>567.7</ele></trkpt>
<trkpt lat="47.814380" lon="12.840060"><ele>577.1</ele></trkpt>
<trkpt lat="47.813290" lon="12.840360"><ele>586.2</ele></trkpt>
<trkpt lat="47.811950" lon="12.840010"><ele>588.0</ele></trkpt>
<trkpt lat="47.811460" lon="12.839820"><ele>594.0</ele></trkpt>
<trkpt lat="47.811030" lon="12.841880"><ele>584.5</ele></trkpt>
<trkpt lat="47.811000" lon="12.842090"><ele>584.2</ele></trkpt>
<trkpt lat="47.811280" lon="12.843770"><ele>585.2</ele></trkpt>
<trkpt lat="47.811010" lon="12.845710"><ele>582.4</ele></trkpt>
<trkpt lat="47.810850" lon="12.846450"><ele>582.7</ele></trkpt>
<trkpt lat="47.809810" lon="12.847510"><ele>576.3</ele></trkpt>
<trkpt lat="47.808440" lon="12.847530"><ele>577.4</ele></trkpt>
<trkpt lat="47.807690" lon="12.847600"><ele>574.6</ele></trkpt>
<trkpt lat="47.806860" lon="12.848630"><ele>569.2</ele></trkpt>
<trkpt lat="47.805920" lon="12.850060"><ele>561.8</ele></trkpt>
<trkpt lat="47.805540" lon="12.850740"><ele>561.2</ele></trkpt>
<trkpt lat="47.805430" lon="12.851970"><ele>556.6</ele></trkpt>
<trkpt lat="47.804830" lon="12.853050"><ele>554.8</ele></trkpt>
<trkpt lat="47.804810" lon="12.853870"><ele>555.3</ele></trkpt>
<trkpt lat="47.804590" lon="12.854720"><ele>555.6</ele></trkpt>
<trkpt lat="47.804190" lon="12.855470"><ele>554.9</ele></trkpt>
<trkpt lat="47.802970" lon="12.856670"><ele>553.3</ele></trkpt>
<trkpt lat="47.802950" lon="12.856680"><ele>553.5</ele></trkpt>
<trkpt lat="47.802240" lon="12.856980"><ele>551.7</ele></trkpt>
<trkpt lat="47.801910" lon="12.857820"><ele>544.0</ele></trkpt>
<trkpt lat="47.801950" lon="12.858420"><ele>542.1</ele></trkpt>
<trkpt lat="47.801280" lon="12.857360"><ele>532.7</ele></trkpt>
<trkpt lat="47.800350" lon="12.856690"><ele>532.2</ele></trkpt>
<trkpt lat="47.799310" lon="12.855420"><ele>533.5</ele></trkpt>
<trkpt lat="47.799230" lon="12.855310"><ele>534.4</ele></trkpt>
<trkpt lat="47.799010" lon="12.855280"><ele>535.6</ele></trkpt>
<trkpt lat="47.798730" lon="12.856260"><ele>530.3</ele></trkpt>
<trkpt lat="47.798240" lon="12.857080"><ele>527.8</ele></trkpt>
<trkpt lat="47.797580" lon="12.857230"><ele>525.7</ele></trkpt>
<trkpt lat="47.797170" lon="12.857560"><ele>523.4</ele></trkpt>
<trkpt lat="47.796180" lon="12.858980"><ele>516.8</ele></trkpt>
<trkpt lat="47.795120" lon="12.860390"><ele>514.3</ele></trkpt>
<trkpt lat="47.794010" lon="12.861380"><ele>508.9</ele></trkpt>
<trkpt lat="47.793160" lon="12.862820"><ele>505.0</ele></trkpt>
<trkpt lat="47.792020" lon="12.863910"><ele>502.3</ele></trkpt>
<trkpt lat="47.791580" lon="12.864330"><ele>500.1</ele></trkpt>
<trkpt lat="47.790310" lon="12.865270"><ele>495.3</ele></trkpt>
<trkpt lat="47.789120" lon="12.866210"><ele>494.6</ele></trkpt>
<trkpt lat="47.788890" lon="12.866350"><ele>494.1</ele></trkpt>
<trkpt lat="47.787890" lon="12.866630"><ele>494.4</ele></trkpt>
<trkpt lat="47.786830" lon="12.867350"><ele>494.5</ele></trkpt>
<trkpt lat="47.786360" lon="12.867210"><ele>495.0</ele></trkpt>
<trkpt lat="47.785730" lon="12.867380"><ele>496.3</ele></trkpt>
<trkpt lat="47.784620" lon="12.868610"><ele>502.4</ele></trkpt>
<trkpt lat="47.784380" lon="12.868920"><ele>503.3</ele></trkpt>
<trkpt lat="47.785040" lon="12.870070"><ele>499.6</ele></trkpt>
<trkpt lat="47.784790" lon="12.870950"><ele>496.0</ele></trkpt>
<trkpt lat="47.785120" lon="12.871520"><ele>495.7</ele></trkpt>
<trkpt lat="47.785470" lon="12.872810"><ele>491.3</ele></trkpt>
<trkpt lat="47.786030" lon="12.873450"><ele>489.9</ele></trkpt>
<trkpt lat="47.786520" lon="12.874780"><ele>487.3</ele></trkpt>
<trkpt lat="47.786500" lon="12.876200"><ele>483.2</ele></trkpt>
<trkpt lat="47.785550" lon="12.877630"><ele>480.0</ele></trkpt>
<trkpt lat="47.784530" lon="12.879280"><ele>478.6</ele></trkpt>
<trkpt lat="47.783530" lon="12.880980"><ele>475.0</ele></trkpt>
<trkpt lat="47.783150" lon="12.881640"><ele>475.7</ele></trkpt>
<trkpt lat="47.782630" lon="12.883210"><ele>474.1</ele></trkpt>
<trkpt lat="47.782120" lon="12.883720"><ele>475.2</ele></trkpt>
<trkpt lat="47.781620" lon="12.884670"><ele>473.2</ele></trkpt>
<trkpt lat="47.780910" lon="12.885160"><ele>471.7</ele></trkpt>
<trkpt lat="47.781350" lon="12.885740"><ele>472.0</ele></trkpt>
<trkpt lat="47.780320" lon="12.886790"><ele>471.0</ele></trkpt>
<trkpt lat="47.779900" lon="12.888460"><ele>470.6</ele></trkpt>
<trkpt lat="47.779090" lon="12.889060"><ele>467.3</ele></trkpt>
<trkpt lat="47.778020" lon="12.890300"><ele>465.7</ele></trkpt>
<trkpt lat="47.777430" lon="12.891050"><ele>464.0</ele></trkpt>
<trkpt lat="47.776690" lon="12.892720"><ele>464.0</ele></trkpt>
<trkpt lat="47.776310" lon="12.893710"><ele>461.6</ele></trkpt>
<trkpt lat="47.775400" lon="12.895460"><ele>460.4</ele></trkpt>
<trkpt lat="47.774540" lon="12.897070"><ele>460.0</ele></trkpt>
<trkpt lat="47.773630" lon="12.898770"><ele>456.5</ele></trkpt>
<trkpt lat="47.773500" lon="12.899100"><ele>456.9</ele></trkpt>
<trkpt lat="47.772200" lon="12.899890"><ele>455.9</ele></trkpt>
<trkpt lat="47.772070" lon="12.900050"><ele>455.0</ele></trkpt>
<trkpt lat="47.771410" lon="12.901940"><ele>453.9</ele></trkpt>
<trkpt lat="47.770690" lon="12.903900"><ele>454.0</ele></trkpt>
<trkpt lat="47.769950" lon="12.905750"><ele>452.9</ele></trkpt>
<trkpt lat="47.769470" lon="12.906970"><ele>455.2</ele></trkpt>
<trkpt lat="47.770080" lon="12.907670"><ele>458.0</ele></trkpt>
<trkpt lat="47.769160" lon="12.909230"><ele>454.0</ele></trkpt>
<trkpt lat="47.769140" lon="12.909320"><ele>454.0</ele></trkpt>
<trkpt lat="47.769590" lon="12.911230"><ele>454.3</ele></trkpt>
<trkpt lat="47.769790" lon="12.911780"><ele>454.3</ele></trkpt>
<trkpt lat="47.769520" lon="12.912570"><ele>457.0</ele></trkpt>
<trkpt lat="47.768620" lon="12.912080"><ele>454.0</ele></trkpt>
<trkpt lat="47.768210" lon="12.911330"><ele>453.0</ele></trkpt>
<trkpt lat="47.767290" lon="12.910640"><ele>449.5</ele></trkpt>
<trkpt lat="47.765890" lon="12.910820"><ele>450.2</ele></trkpt>
<trkpt lat="47.765550" lon="12.910900"><ele>449.0</ele></trkpt>
<trkpt lat="47.765270" lon="12.910760"><ele>448.0</ele></trkpt>
<trkpt lat="47.764610" lon="12.912720"><ele>451.6</ele></trkpt>
<trkpt lat="47.764500" lon="12.913000"><ele>450.6</ele></trkpt>
<trkpt lat="47.764010" lon="12.913380"><ele>449.6</ele></trkpt>
<trkpt lat="47.762610" lon="12.912890"><ele>449.4</ele></trkpt>
<trkpt lat="47.762180" lon="12.912690"><ele>449.0</ele></trkpt>
<trkpt lat="47.760920" lon="12.911780"><ele>451.0</ele></trkpt>
<trkpt lat="47.760680" lon="12.911570"><ele>451.0</ele></trkpt>
<trkpt lat="47.760050" lon="12.910710"><ele>449.7</ele></trkpt>
<trkpt lat="47.759710" lon="12.911580"><ele>451.7</ele></trkpt>
<trkpt lat="47.759820" lon="12.911380"><ele>450.6</ele></trkpt>
<trkpt lat="47.759680" lon="12.911090"><ele>451.1</ele></trkpt>
<trkpt lat="47.760050" lon="12.910710"><ele>449.7</ele></trkpt>
<trkpt lat="47.759770" lon="12.909270"><ele>449.6</ele></trkpt>
<trkpt lat="47.759170" lon="12.907440"><ele>451.8</ele></trkpt>
<trkpt lat="47.759130" lon="12.907250"><ele>451.1</ele></trkpt>
<trkpt lat="47.759010" lon="12.905170"><ele>451.0</ele></trkpt>
<trkpt lat="47.759000" lon="12.904960"><ele>451.0</ele></trkpt>
<trkpt lat="47.757660" lon="12.904370"><ele>450.8</ele></trkpt>
<trkpt lat="47.756490" lon="12.903380"><ele>452.2</ele></trkpt>
<trkpt lat="47.755190" lon="12.902260"><ele>450.7</ele></trkpt>
<trkpt lat="47.753970" lon="12.901210"><ele>453.0</ele></trkpt>
<trkpt lat="47.752780" lon="12.902290"><ele>458.7</ele></trkpt>
<trkpt lat="47.752610" lon="12.902420"><ele>458.6</ele></trkpt>
<trkpt lat="47.751850" lon="12.902650"><ele>458.0</ele></trkpt>
<trkpt lat="47.750650" lon="12.901390"><ele>471.7</ele></trkpt>
<trkpt lat="47.750590" lon="12.901340"><ele>472.2</ele></trkpt>
<trkpt lat="47.749240" lon="12.901100"><ele>467.3</ele></trkpt>
<trkpt lat="47.748940" lon="12.901010"><ele>467.4</ele></trkpt>
<trkpt lat="47.747720" lon="12.900050"><ele>458.1</ele></trkpt>
<trkpt lat="47.747600" lon="12.899940"><ele>457.0</ele></trkpt>
<trkpt lat="47.746530" lon="12.900820"><ele>459.0</ele></trkpt>
<trkpt lat="47.745920" lon="12.899040"><ele>458.1</ele></trkpt>
<trkpt lat="47.745580" lon="12.898210"><ele>458.0</ele></trkpt>
<trkpt lat="47.744560" lon="12.896720"><ele>460.6</ele></trkpt>
<trkpt lat="47.744550" lon="12.896710"><ele>460.6</ele></trkpt>
<trkpt lat="47.743250" lon="12.896000"><ele>457.4</ele></trkpt>
<trkpt lat="47.742270" lon="12.895490"><ele>459.0</ele></trkpt>
<trkpt lat="47.741410" lon="12.893710"><ele>459.6</ele></trkpt>
<trkpt lat="47.740800" lon="12.892590"><ele>460.2</ele></trkpt>
<trkpt lat="47.740030" lon="12.891500"><ele>458.2</ele></trkpt>
<trkpt lat="47.739340" lon="12.889750"><ele>460.5</ele></trkpt>
<trkpt lat="47.738990" lon="12.889120"><ele>459.6</ele></trkpt>
<trkpt lat="47.738020" lon="12.890610"><ele>461.0</ele></trkpt>
<trkpt lat="47.737980" lon="12.890700"><ele>461.0</ele></trkpt>
<trkpt lat="47.737240" lon="12.889800"><ele>462.0</ele></trkpt>
<trkpt lat="47.736320" lon="12.891270"><ele>460.7</ele></trkpt>
<trkpt lat="47.736230" lon="12.891390"><ele>461.0</ele></trkpt>
<trkpt lat="47.735560" lon="12.890720"><ele>462.4</ele></trkpt>
<trkpt lat="47.734270" lon="12.890050"><ele>463.8</ele></trkpt>
<trkpt lat="47.733920" lon="12.889800"><ele>464.0</ele></trkpt>
<trkpt lat="47.732700" lon="12.888860"><ele>463.4</ele></trkpt>
<trkpt lat="47.731700" lon="12.887900"><ele>465.8</ele></trkpt>
<trkpt lat="47.730710" lon="12.887280"><ele>466.8</ele></trkpt>
<trkpt lat="47.729590" lon="12.885890"><ele>470.0</ele></trkpt>
<trkpt lat="47.728700" lon="12.884650"><ele>467.7</ele></trkpt>
<trkpt lat="47.727720" lon="12.883940"><ele>471.1</ele></trkpt>
<trkpt lat="47.727490" lon="12.883110"><ele>470.2</ele></trkpt>
<trkpt lat="47.726900" lon="12.883840"><ele>474.7</ele></trkpt>
</trkseg></trk></gpx>