<?xml version="1.0" encoding="UTF-8"?>
<gpx version="1.1" creator="Bad Reichenhall gravel – saját gravel-router (OSM/Overture + SRTM)" xmlns="http://www.topografix.com/GPX/1/1">
<metadata><name>A sólé útja – 400 éves sóvezeték Traunsteinig</name><desc>GENERÁLT NYOMVONAL – Kreatív történelmi túra a 1619-ben épült sóvezeték (Soleleitung) nyomvonalán: a reichenhalli Alte Salinétól a Nesselgraben és az Antoniberg mentén, a Mauthäuslon és a Himmelsleiter lépcsője mellett (a lépcső kitérő gyalog), majd Inzellen és a Weiße Traun völgyén, Siegsdorfon át a Traun-parti bringaúton Traunsteinig, a sólé egykori céljáig. Haza vonattal.</desc><copyright author="OpenStreetMap contributors (via Overture Maps)"><license>https://opendatacommons.org/licenses/odbl/</license></copyright><time>2026-10-04T16:53:11Z</time></metadata>
<wpt lat="47.7232" lon="12.8726"><name>Alte Saline – a sóvezeték kezdete</name><type>history</type></wpt>
<wpt lat="47.7126" lon="12.8145"><name>Nesselgraben</name><type>history</type></wpt>
<wpt lat="47.7114" lon="12.8115"><name>Antoniberg</name><type>history</type></wpt>
<wpt lat="47.7116" lon="12.785"><name>Mauthäusl – brunnhaus</name><type>history</type></wpt>
<wpt lat="47.729" lon="12.7597"><name>Himmelsleiter</name><type>history</type></wpt>
<wpt lat="47.7622" lon="12.7517"><name>Inzell</name><type>town</type></wpt>
<wpt lat="47.7885" lon="12.7201"><name>Fantenberg</name><type>town</type></wpt>
<wpt lat="47.822" lon="12.645"><name>Siegsdorf</name><type>town</type></wpt>
<wpt lat="47.8565" lon="12.6382"><name>Traun-parti bringaút (Haslacher Steg)</name><type>view</type></wpt>
<wpt lat="47.865" lon="12.648"><name>Traun-part, Haferlbrücke</name><type>view</type></wpt>
<wpt lat="47.8687" lon="12.6436"><name>Traunstein óváros – Stadtplatz</name><type>history</type></wpt>
<wpt lat="47.8694" lon="12.639"><name>Traunstein Bahnhof</name><type>station</type></wpt>
<trk><name>A sólé útja – 400 éves sóvezeték Traunsteinig</name><type>gravel</type><trkseg>
<trkpt lat="47.726900" lon="12.883842"><ele>474.7</ele></trkpt>
<trkpt lat="47.726618" lon="12.884372"><ele>478.2</ele></trkpt>
<trkpt lat="47.726415" lon="12.884346"><ele>480.9</ele></trkpt>
<trkpt lat="47.726118" lon="12.883872"><ele>478.7</ele></trkpt>
<trkpt lat="47.725662" lon="12.883798"><ele>485.2</ele></trkpt>
<trkpt lat="47.724996" lon="12.883195"><ele>481.5</ele></trkpt>
<trkpt lat="47.724541" lon="12.882248"><ele>476.1</ele></trkpt>
<trkpt lat="47.724935" lon="12.881320"><ele>473.9</ele></trkpt>
<trkpt lat="47.724408" lon="12.880823"><ele>471.3</ele></trkpt>
<trkpt lat="47.724405" lon="12.880228"><ele>469.2</ele></trkpt>
<trkpt lat="47.723321" lon="12.879027"><ele>472.5</ele></trkpt>
<trkpt lat="47.722405" lon="12.877908"><ele>475.0</ele></trkpt>
<trkpt lat="47.722643" lon="12.877188"><ele>474.5</ele></trkpt>
<trkpt lat="47.721432" lon="12.876214"><ele>473.8</ele></trkpt>
<trkpt lat="47.720980" lon="12.875902"><ele>474.1</ele></trkpt>
<trkpt lat="47.719662" lon="12.875133"><ele>475.0</ele></trkpt>
<trkpt lat="47.719071" lon="12.874906"><ele>474.0</ele></trkpt>
<trkpt lat="47.719013" lon="12.874041"><ele>473.5</ele></trkpt>
<trkpt lat="47.718862" lon="12.873988"><ele>473.5</ele></trkpt>
<trkpt lat="47.718701" lon="12.873208"><ele>472.2</ele></trkpt>
<trkpt lat="47.718795" lon="12.872987"><ele>472.0</ele></trkpt>
<trkpt lat="47.718165" lon="12.871199"><ele>471.6</ele></trkpt>
<trkpt lat="47.718134" lon="12.870953"><ele>471.4</ele></trkpt>
<trkpt lat="47.718812" lon="12.869066"><ele>469.6</ele></trkpt>
<trkpt lat="47.719247" lon="12.867595"><ele>472.5</ele></trkpt>
<trkpt lat="47.719842" lon="12.866435"><ele>472.9</ele></trkpt>
<trkpt lat="47.719662" lon="12.864923"><ele>474.0</ele></trkpt>
<trkpt lat="47.719583" lon="12.862898"><ele>466.1</ele></trkpt>
<trkpt lat="47.719572" lon="12.861019"><ele>467.9</ele></trkpt>
<trkpt lat="47.720268" lon="12.861072"><ele>468.0</ele></trkpt>
<trkpt lat="47.720667" lon="12.859534"><ele>466.9</ele></trkpt>
<trkpt lat="47.720388" lon="12.857973"><ele>464.6</ele></trkpt>
<trkpt lat="47.720241" lon="12.855933"><ele>466.6</ele></trkpt>
<trkpt lat="47.720192" lon="12.854975"><ele>466.7</ele></trkpt>
<trkpt lat="47.720241" lon="12.852846"><ele>466.0</ele></trkpt>
<trkpt lat="47.720318" lon="12.850793"><ele>471.1</ele></trkpt>
<trkpt lat="47.720318" lon="12.850781"><ele>471.2</ele></trkpt>
<trkpt lat="47.721416" lon="12.849706"><ele>478.3</ele></trkpt>
<trkpt lat="47.721778" lon="12.849296"><ele>483.1</ele></trkpt>
<trkpt lat="47.721829" lon="12.848486"><ele>491.9</ele></trkpt>
<trkpt lat="47.721602" lon="12.847570"><ele>509.2</ele></trkpt>
<trkpt lat="47.722200" lon="12.848053"><ele>509.8</ele></trkpt>
<trkpt lat="47.722688" lon="12.847691"><ele>518.6</ele></trkpt>
<trkpt lat="47.722379" lon="12.845738"><ele>543.1</ele></trkpt>
<trkpt lat="47.721985" lon="12.843842"><ele>544.3</ele></trkpt>
<trkpt lat="47.721921" lon="12.842714"><ele>551.4</ele></trkpt>
<trkpt lat="47.722417" lon="12.840812"><ele>557.7</ele></trkpt>
<trkpt lat="47.722483" lon="12.840627"><ele>560.8</ele></trkpt>
<trkpt lat="47.723062" lon="12.840555"><ele>565.3</ele></trkpt>
<trkpt lat="47.722588" lon="12.838471"><ele>578.0</ele></trkpt>
<trkpt lat="47.722588" lon="12.838466"><ele>578.0</ele></trkpt>
<trkpt lat="47.722426" lon="12.836475"><ele>591.8</ele></trkpt>
<trkpt lat="47.722339" lon="12.835235"><ele>587.9</ele></trkpt>
<trkpt lat="47.722402" lon="12.834043"><ele>574.8</ele></trkpt>
<trkpt lat="47.722228" lon="12.832035"><ele>557.6</ele></trkpt>
<trkpt lat="47.722234" lon="12.830744"><ele>558.4</ele></trkpt>
<trkpt lat="47.721753" lon="12.829195"><ele>553.7</ele></trkpt>
<trkpt lat="47.721650" lon="12.828079"><ele>551.3</ele></trkpt>
<trkpt lat="47.721101" lon="12.826237"><ele>551.7</ele></trkpt>
<trkpt lat="47.720825" lon="12.825396"><ele>541.8</ele></trkpt>
<trkpt lat="47.720713" lon="12.824546"><ele>542.5</ele></trkpt>
<trkpt lat="47.719861" lon="12.822847"><ele>538.6</ele></trkpt>
<trkpt lat="47.719033" lon="12.821116"><ele>541.5</ele></trkpt>
<trkpt lat="47.718766" lon="12.820668"><ele>545.5</ele></trkpt>
<trkpt lat="47.717769" lon="12.819950"><ele>537.1</ele></trkpt>
<trkpt lat="47.716787" lon="12.818442"><ele>544.0</ele></trkpt>
<trkpt lat="47.716742" lon="12.818410"><ele>543.4</ele></trkpt>
<trkpt lat="47.716456" lon="12.818445"><ele>538.5</ele></trkpt>
<trkpt lat="47.716055" lon="12.818937"><ele>540.0</ele></trkpt>
<trkpt lat="47.715387" lon="12.817167"><ele>549.5</ele></trkpt>
<trkpt lat="47.715328" lon="12.817056"><ele>551.3</ele></trkpt>
<trkpt lat="47.714343" lon="12.815928"><ele>562.1</ele></trkpt>
<trkpt lat="47.713349" lon="12.814414"><ele>573.7</ele></trkpt>
<trkpt lat="47.713113" lon="12.814081"><ele>575.2</ele></trkpt>
<trkpt lat="47.712533" lon="12.812863"><ele>587.6</ele></trkpt>
<trkpt lat="47.711546" lon="12.811746"><ele>591.5</ele></trkpt>
<trkpt lat="47.710780" lon="12.810476"><ele>605.5</ele></trkpt>
<trkpt lat="47.709426" lon="12.809631"><ele>601.9</ele></trkpt>
<trkpt lat="47.708469" lon="12.808955"><ele>629.5</ele></trkpt>
<trkpt lat="47.707127" lon="12.809198"><ele>631.7</ele></trkpt>
<trkpt lat="47.706755" lon="12.809290"><ele>629.1</ele></trkpt>
<trkpt lat="47.706084" lon="12.809148"><ele>621.8</ele></trkpt>
<trkpt lat="47.705072" lon="12.807698"><ele>626.5</ele></trkpt>
<trkpt lat="47.705070" lon="12.807695"><ele>626.5</ele></trkpt>
<trkpt lat="47.704899" lon="12.807189"><ele>626.2</ele></trkpt>
<trkpt lat="47.704969" lon="12.806510"><ele>622.7</ele></trkpt>
<trkpt lat="47.704681" lon="12.806035"><ele>616.5</ele></trkpt>
<trkpt lat="47.704727" lon="12.803951"><ele>634.8</ele></trkpt>
<trkpt lat="47.704780" lon="12.801858"><ele>634.5</ele></trkpt>
<trkpt lat="47.704742" lon="12.800969"><ele>625.4</ele></trkpt>
<trkpt lat="47.704869" lon="12.800486"><ele>626.2</ele></trkpt>
<trkpt lat="47.705967" lon="12.799432"><ele>638.1</ele></trkpt>
<trkpt lat="47.706785" lon="12.797727"><ele>634.1</ele></trkpt>
<trkpt lat="47.707096" lon="12.797108"><ele>644.7</ele></trkpt>
<trkpt lat="47.707777" lon="12.796156"><ele>628.5</ele></trkpt>
<trkpt lat="47.708342" lon="12.795677"><ele>650.0</ele></trkpt>
<trkpt lat="47.709086" lon="12.793988"><ele>634.0</ele></trkpt>
<trkpt lat="47.709428" lon="12.793405"><ele>626.9</ele></trkpt>
<trkpt lat="47.710733" lon="12.792556"><ele>643.8</ele></trkpt>
<trkpt lat="47.711280" lon="12.792198"><ele>642.1</ele></trkpt>
<trkpt lat="47.711650" lon="12.791678"><ele>628.9</ele></trkpt>
<trkpt lat="47.711581" lon="12.789625"><ele>642.0</ele></trkpt>
<trkpt lat="47.711582" lon="12.789505"><ele>641.6</ele></trkpt>
<trkpt lat="47.711987" lon="12.787572"><ele>636.5</ele></trkpt>
<trkpt lat="47.712002" lon="12.787367"><ele>633.9</ele></trkpt>
<trkpt lat="47.711932" lon="12.785607"><ele>632.5</ele></trkpt>
<trkpt lat="47.711789" lon="12.784888"><ele>635.4</ele></trkpt>
<trkpt lat="47.711662" lon="12.784850"><ele>629.0</ele></trkpt>
<trkpt lat="47.711730" lon="12.784238"><ele>632.7</ele></trkpt>
<trkpt lat="47.711509" lon="12.784500"><ele>623.1</ele></trkpt>
<trkpt lat="47.711505" lon="12.784192"><ele>620.4</ele></trkpt>
<trkpt lat="47.711736" lon="12.783590"><ele>622.2</ele></trkpt>
<trkpt lat="47.711965" lon="12.781578"><ele>608.9</ele></trkpt>
<trkpt lat="47.712353" lon="12.780276"><ele>601.4</ele></trkpt>
<trkpt lat="47.712972" lon="12.779489"><ele>606.1</ele></trkpt>
<trkpt lat="47.713220" lon="12.777642"><ele>607.3</ele></trkpt>
<trkpt lat="47.713536" lon="12.776927"><ele>607.2</ele></trkpt>
<trkpt lat="47.714873" lon="12.776054"><ele>606.6</ele></trkpt>
<trkpt lat="47.714959" lon="12.775989"><ele>606.8</ele></trkpt>
<trkpt lat="47.716086" lon="12.774707"><ele>606.8</ele></trkpt>
<trkpt lat="47.716443" lon="12.774374"><ele>608.9</ele></trkpt>
<trkpt lat="47.717369" lon="12.774300"><ele>611.3</ele></trkpt>
<trkpt lat="47.717513" lon="12.774657"><ele>613.7</ele></trkpt>
<trkpt lat="47.718104" lon="12.774159"><ele>611.6</ele></trkpt>
<trkpt lat="47.718944" lon="12.772496"><ele>610.0</ele></trkpt>
<trkpt lat="47.719060" lon="12.772290"><ele>609.7</ele></trkpt>
<trkpt lat="47.719554" lon="12.771939"><ele>611.0</ele></trkpt>
<trkpt lat="47.720206" lon="12.770391"><ele>610.3</ele></trkpt>
<trkpt lat="47.721174" lon="12.768935"><ele>614.8</ele></trkpt>
<trkpt lat="47.721494" lon="12.768445"><ele>616.1</ele></trkpt>
<trkpt lat="47.722382" lon="12.766749"><ele>619.6</ele></trkpt>
<trkpt lat="47.722869" lon="12.765861"><ele>622.0</ele></trkpt>
<trkpt lat="47.723581" lon="12.764953"><ele>622.3</ele></trkpt>
<trkpt lat="47.724567" lon="12.764232"><ele>629.1</ele></trkpt>
<trkpt lat="47.725396" lon="12.762676"><ele>630.1</ele></trkpt>
<trkpt lat="47.725654" lon="12.762094"><ele>630.9</ele></trkpt>
<trkpt lat="47.726626" lon="12.760898"><ele>634.0</ele></trkpt>
<trkpt lat="47.727179" lon="12.759702"><ele>638.1</ele></trkpt>
<trkpt lat="47.728168" lon="12.758318"><ele>640.4</ele></trkpt>
<trkpt lat="47.728519" lon="12.757955"><ele>645.8</ele></trkpt>
<trkpt lat="47.728833" lon="12.757208"><ele>640.0</ele></trkpt>
<trkpt lat="47.728858" lon="12.757738"><ele>649.1</ele></trkpt>
<trkpt lat="47.728477" lon="12.758903"><ele>660.5</ele></trkpt>
<trkpt lat="47.729217" lon="12.757863"><ele>667.7</ele></trkpt>
<trkpt lat="47.730130" lon="12.757267"><ele>692.3</ele></trkpt>
<trkpt lat="47.729710" lon="12.758686"><ele>705.2</ele></trkpt>
<trkpt lat="47.730335" lon="12.758327"><ele>722.5</ele></trkpt>
<trkpt lat="47.731322" lon="12.756839"><ele>740.0</ele></trkpt>
<trkpt lat="47.731722" lon="12.756084"><ele>726.7</ele></trkpt>
<trkpt lat="47.732231" lon="12.756333"><ele>741.3</ele></trkpt>
<trkpt lat="47.733255" lon="12.756199"><ele>731.6</ele></trkpt>
<trkpt lat="47.734258" lon="12.756578"><ele>738.0</ele></trkpt>
<trkpt lat="47.734955" lon="12.757100"><ele>742.1</ele></trkpt>
<trkpt lat="47.735755" lon="12.756875"><ele>735.2</ele></trkpt>
<trkpt lat="47.737017" lon="12.757137"><ele>738.4</ele></trkpt>
<trkpt lat="47.738175" lon="12.756866"><ele>731.5</ele></trkpt>
<trkpt lat="47.738728" lon="12.757071"><ele>728.1</ele></trkpt>
<trkpt lat="47.739649" lon="12.758092"><ele>734.8</ele></trkpt>
<trkpt lat="47.740532" lon="12.758005"><ele>730.4</ele></trkpt>
<trkpt lat="47.740394" lon="12.756941"><ele>734.0</ele></trkpt>
<trkpt lat="47.740944" lon="12.755759"><ele>731.3</ele></trkpt>
<trkpt lat="47.741288" lon="12.753742"><ele>720.5</ele></trkpt>
<trkpt lat="47.741449" lon="12.753354"><ele>720.3</ele></trkpt>
<trkpt lat="47.741894" lon="12.752902"><ele>724.4</ele></trkpt>
<trkpt lat="47.742471" lon="12.751853"><ele>716.5</ele></trkpt>
<trkpt lat="47.743714" lon="12.750973"><ele>728.2</ele></trkpt>
<trkpt lat="47.744700" lon="12.750322"><ele>725.7</ele></trkpt>
<trkpt lat="47.746217" lon="12.750239"><ele>730.8</ele></trkpt>
<trkpt lat="47.746699" lon="12.750286"><ele>736.0</ele></trkpt>
<trkpt lat="47.747738" lon="12.749995"><ele>725.5</ele></trkpt>
<trkpt lat="47.748743" lon="12.751386"><ele>714.1</ele></trkpt>
<trkpt lat="47.748809" lon="12.751432"><ele>714.2</ele></trkpt>
<trkpt lat="47.750165" lon="12.751749"><ele>710.1</ele></trkpt>
<trkpt lat="47.751424" lon="12.752050"><ele>705.0</ele></trkpt>
<trkpt lat="47.751592" lon="12.752027"><ele>701.2</ele></trkpt>
<trkpt lat="47.751747" lon="12.750954"><ele>693.6</ele></trkpt>
<trkpt lat="47.753082" lon="12.751405"><ele>692.0</ele></trkpt>
<trkpt lat="47.753166" lon="12.751445"><ele>692.0</ele></trkpt>
<trkpt lat="47.753224" lon="12.750720"><ele>693.8</ele></trkpt>
<trkpt lat="47.753357" lon="12.750580"><ele>693.8</ele></trkpt>
<trkpt lat="47.754740" lon="12.750503"><ele>688.9</ele></trkpt>
<trkpt lat="47.756195" lon="12.750367"><ele>689.3</ele></trkpt>
<trkpt lat="47.757584" lon="12.750182"><ele>689.0</ele></trkpt>
<trkpt lat="47.759014" lon="12.750100"><ele>689.6</ele></trkpt>
<trkpt lat="47.759481" lon="12.750079"><ele>690.2</ele></trkpt>
<trkpt lat="47.760958" lon="12.749550"><ele>688.3</ele></trkpt>
<trkpt lat="47.762367" lon="12.748998"><ele>692.3</ele></trkpt>
<trkpt lat="47.763761" lon="12.748466"><ele>696.0</ele></trkpt>
<trkpt lat="47.765225" lon="12.747931"><ele>689.9</ele></trkpt>
<trkpt lat="47.765555" lon="12.747817"><ele>686.3</ele></trkpt>
<trkpt lat="47.766145" lon="12.747661"><ele>688.1</ele></trkpt>
<trkpt lat="47.766445" lon="12.747905"><ele>687.6</ele></trkpt>
<trkpt lat="47.766913" lon="12.747326"><ele>689.6</ele></trkpt>
<trkpt lat="47.768219" lon="12.746573"><ele>689.2</ele></trkpt>
<trkpt lat="47.769548" lon="12.745968"><ele>688.5</ele></trkpt>
<trkpt lat="47.770881" lon="12.745382"><ele>688.9</ele></trkpt>
<trkpt lat="47.771525" lon="12.745063"><ele>688.1</ele></trkpt>
<trkpt lat="47.772710" lon="12.744067"><ele>690.4</ele></trkpt>
<trkpt lat="47.773318" lon="12.743587"><ele>691.8</ele></trkpt>
<trkpt lat="47.774573" lon="12.742828"><ele>691.6</ele></trkpt>
<trkpt lat="47.775900" lon="12.742065"><ele>692.3</ele></trkpt>
<trkpt lat="47.777354" lon="12.741396"><ele>696.9</ele></trkpt>
<trkpt lat="47.778104" lon="12.741138"><ele>701.4</ele></trkpt>
<trkpt lat="47.779229" lon="12.740164"><ele>705.5</ele></trkpt>
<trkpt lat="47.780187" lon="12.738643"><ele>722.9</ele></trkpt>
<trkpt lat="47.781106" lon="12.737378"><ele>721.1</ele></trkpt>
<trkpt lat="47.780902" lon="12.736578"><ele>707.5</ele></trkpt>
<trkpt lat="47.781779" lon="12.734811"><ele>702.9</ele></trkpt>
<trkpt lat="47.782601" lon="12.733077"><ele>699.9</ele></trkpt>
<trkpt lat="47.783010" lon="12.732475"><ele>692.7</ele></trkpt>
<trkpt lat="47.784070" lon="12.731224"><ele>688.3</ele></trkpt>
<trkpt lat="47.784658" lon="12.730539"><ele>690.6</ele></trkpt>
<trkpt lat="47.784764" lon="12.730634"><ele>688.7</ele></trkpt>
<trkpt lat="47.785305" lon="12.730171"><ele>694.5</ele></trkpt>
<trkpt lat="47.786481" lon="12.729657"><ele>697.1</ele></trkpt>
<trkpt lat="47.787246" lon="12.728770"><ele>689.5</ele></trkpt>
<trkpt lat="47.787780" lon="12.728911"><ele>691.5</ele></trkpt>
<trkpt lat="47.788039" lon="12.728716"><ele>691.6</ele></trkpt>
<trkpt lat="47.788090" lon="12.727624"><ele>687.0</ele></trkpt>
<trkpt lat="47.788434" lon="12.725742"><ele>682.4</ele></trkpt>
<trkpt lat="47.788947" lon="12.723843"><ele>683.0</ele></trkpt>
<trkpt lat="47.788978" lon="12.723553"><ele>683.8</ele></trkpt>
<trkpt lat="47.788596" lon="12.721366"><ele>677.5</ele></trkpt>
<trkpt lat="47.788399" lon="12.720268"><ele>666.7</ele></trkpt>
<trkpt lat="47.789147" lon="12.718611"><ele>667.5</ele></trkpt>
<trkpt lat="47.790281" lon="12.717460"><ele>660.9</ele></trkpt>
<trkpt lat="47.791551" lon="12.716286"><ele>666.1</ele></trkpt>
<trkpt lat="47.792158" lon="12.715562"><ele>668.7</ele></trkpt>
<trkpt lat="47.792765" lon="12.714471"><ele>666.0</ele></trkpt>
<trkpt lat="47.792872" lon="12.713367"><ele>658.4</ele></trkpt>
<trkpt lat="47.793677" lon="12.713121"><ele>658.6</ele></trkpt>
<trkpt lat="47.794831" lon="12.712043"><ele>661.1</ele></trkpt>
<trkpt lat="47.794940" lon="12.711905"><ele>661.2</ele></trkpt>
<trkpt lat="47.795556" lon="12.710129"><ele>653.0</ele></trkpt>
<trkpt lat="47.795746" lon="12.709558"><ele>654.2</ele></trkpt>
<trkpt lat="47.796358" lon="12.708648"><ele>652.0</ele></trkpt>
<trkpt lat="47.797646" lon="12.707535"><ele>647.2</ele></trkpt>
<trkpt lat="47.798363" lon="12.706836"><ele>646.3</ele></trkpt>
<trkpt lat="47.799751" lon="12.706616"><ele>649.0</ele></trkpt>
<trkpt lat="47.800275" lon="12.706220"><ele>647.0</ele></trkpt>
<trkpt lat="47.800642" lon="12.706316"><ele>647.3</ele></trkpt>
<trkpt lat="47.800975" lon="12.706010"><ele>647.4</ele></trkpt>
<trkpt lat="47.801252" lon="12.704007"><ele>642.9</ele></trkpt>
<trkpt lat="47.801252" lon="12.704007"><ele>642.9</ele></trkpt>
<trkpt lat="47.800838" lon="12.703809"><ele>642.0</ele></trkpt>
<trkpt lat="47.800979" lon="12.702925"><ele>644.7</ele></trkpt>
<trkpt lat="47.801072" lon="12.702567"><ele>645.8</ele></trkpt>
<trkpt lat="47.801214" lon="12.702629"><ele>645.7</ele></trkpt>
<trkpt lat="47.801616" lon="12.700560"><ele>650.0</ele></trkpt>
<trkpt lat="47.801891" lon="12.699035"><ele>652.2</ele></trkpt>
<trkpt lat="47.802678" lon="12.697383"><ele>659.9</ele></trkpt>
<trkpt lat="47.802836" lon="12.697063"><ele>658.8</ele></trkpt>
<trkpt lat="47.803942" lon="12.695831"><ele>658.0</ele></trkpt>
<trkpt lat="47.805035" lon="12.694582"><ele>657.8</ele></trkpt>
<trkpt lat="47.805601" lon="12.694019"><ele>656.8</ele></trkpt>
<trkpt lat="47.806175" lon="12.694236"><ele>654.6</ele></trkpt>
<trkpt lat="47.807121" lon="12.693210"><ele>652.2</ele></trkpt>
<trkpt lat="47.808128" lon="12.691684"><ele>651.5</ele></trkpt>
<trkpt lat="47.808921" lon="12.690413"><ele>647.6</ele></trkpt>
<trkpt lat="47.809634" lon="12.688689"><ele>649.1</ele></trkpt>
<trkpt lat="47.810268" lon="12.686906"><ele>635.1</ele></trkpt>
<trkpt lat="47.810671" lon="12.686076"><ele>628.4</ele></trkpt>
<trkpt lat="47.811733" lon="12.684709"><ele>625.7</ele></trkpt>
<trkpt lat="47.812833" lon="12.683269"><ele>629.6</ele></trkpt>
<trkpt lat="47.813223" lon="12.682696"><ele>642.3</ele></trkpt>
<trkpt lat="47.814485" lon="12.681532"><ele>642.0</ele></trkpt>
<trkpt lat="47.815067" lon="12.680811"><ele>639.1</ele></trkpt>
<trkpt lat="47.816006" lon="12.679344"><ele>636.6</ele></trkpt>
<trkpt lat="47.816507" lon="12.678285"><ele>634.0</ele></trkpt>
<trkpt lat="47.816431" lon="12.677521"><ele>635.0</ele></trkpt>
<trkpt lat="47.816709" lon="12.676508"><ele>636.9</ele></trkpt>
<trkpt lat="47.817413" lon="12.674594"><ele>634.3</ele></trkpt>
<trkpt lat="47.818206" lon="12.672947"><ele>633.2</ele></trkpt>
<trkpt lat="47.818353" lon="12.671332"><ele>636.0</ele></trkpt>
<trkpt lat="47.818680" lon="12.670661"><ele>634.5</ele></trkpt>
<trkpt lat="47.818653" lon="12.668671"><ele>636.8</ele></trkpt>
<trkpt lat="47.818656" lon="12.668646"><ele>636.8</ele></trkpt>
<trkpt lat="47.819071" lon="12.666722"><ele>633.6</ele></trkpt>
<trkpt lat="47.819161" lon="12.666509"><ele>633.6</ele></trkpt>
<trkpt lat="47.819128" lon="12.664483"><ele>636.0</ele></trkpt>
<trkpt lat="47.819111" lon="12.662823"><ele>633.8</ele></trkpt>
<trkpt lat="47.819310" lon="12.660837"><ele>630.5</ele></trkpt>
<trkpt lat="47.819305" lon="12.659981"><ele>632.0</ele></trkpt>
<trkpt lat="47.819140" lon="12.659495"><ele>631.2</ele></trkpt>
<trkpt lat="47.818414" lon="12.658812"><ele>631.4</ele></trkpt>
<trkpt lat="47.818299" lon="12.656812"><ele>630.5</ele></trkpt>
<trkpt lat="47.818192" lon="12.654804"><ele>632.2</ele></trkpt>
<trkpt lat="47.818032" lon="12.652671"><ele>631.4</ele></trkpt>
<trkpt lat="47.817993" lon="12.652624"><ele>631.6</ele></trkpt>
<trkpt lat="47.818218" lon="12.651477"><ele>629.5</ele></trkpt>
<trkpt lat="47.818161" lon="12.649613"><ele>607.5</ele></trkpt>
<trkpt lat="47.818305" lon="12.647515"><ele>607.4</ele></trkpt>
<trkpt lat="47.818357" lon="12.647178"><ele>605.8</ele></trkpt>
<trkpt lat="47.819519" lon="12.646445"><ele>606.6</ele></trkpt>
<trkpt lat="47.820955" lon="12.646118"><ele>605.5</ele></trkpt>
<trkpt lat="47.822079" lon="12.645721"><ele>605.5</ele></trkpt>
<trkpt lat="47.821938" lon="12.644746"><ele>605.0</ele></trkpt>
<trkpt lat="47.822324" lon="12.644609"><ele>604.6</ele></trkpt>
<trkpt lat="47.822174" lon="12.644122"><ele>604.7</ele></trkpt>
<trkpt lat="47.822384" lon="12.643894"><ele>603.4</ele></trkpt>
<trkpt lat="47.823299" lon="12.643936"><ele>603.0</ele></trkpt>
<trkpt lat="47.823661" lon="12.644338"><ele>604.6</ele></trkpt>
<trkpt lat="47.824028" lon="12.644130"><ele>603.6</ele></trkpt>
<trkpt lat="47.825291" lon="12.644930"><ele>600.0</ele></trkpt>
<trkpt lat="47.825712" lon="12.644543"><ele>600.4</ele></trkpt>
<trkpt lat="47.826479" lon="12.645988"><ele>602.8</ele></trkpt>
<trkpt lat="47.827565" lon="12.646723"><ele>607.2</ele></trkpt>
<trkpt lat="47.828436" lon="12.646781"><ele>601.0</ele></trkpt>
<trkpt lat="47.829725" lon="12.646187"><ele>597.3</ele></trkpt>
<trkpt lat="47.829825" lon="12.646158"><ele>598.0</ele></trkpt>
<trkpt lat="47.831249" lon="12.646058"><ele>598.8</ele></trkpt>
<trkpt lat="47.832422" lon="12.646009"><ele>599.1</ele></trkpt>
<trkpt lat="47.833385" lon="12.645412"><ele>599.9</ele></trkpt>
<trkpt lat="47.834631" lon="12.644102"><ele>593.4</ele></trkpt>
<trkpt lat="47.835910" lon="12.642888"><ele>599.5</ele></trkpt>
<trkpt lat="47.837075" lon="12.641800"><ele>599.7</ele></trkpt>
<trkpt lat="47.837989" lon="12.640991"><ele>596.9</ele></trkpt>
<trkpt lat="47.839256" lon="12.640167"><ele>595.1</ele></trkpt>
<trkpt lat="47.839827" lon="12.639901"><ele>592.8</ele></trkpt>
<trkpt lat="47.841199" lon="12.639654"><ele>596.1</ele></trkpt>
<trkpt lat="47.842460" lon="12.639549"><ele>595.9</ele></trkpt>
<trkpt lat="47.843890" lon="12.638767"><ele>590.1</ele></trkpt>
<trkpt lat="47.845318" lon="12.638158"><ele>592.9</ele></trkpt>
<trkpt lat="47.846738" lon="12.637563"><ele>593.2</ele></trkpt>
<trkpt lat="47.847267" lon="12.637246"><ele>591.9</ele></trkpt>
<trkpt lat="47.848663" lon="12.637083"><ele>592.5</ele></trkpt>
<trkpt lat="47.849337" lon="12.636980"><ele>592.5</ele></trkpt>
<trkpt lat="47.850684" lon="12.637069"><ele>594.4</ele></trkpt>
<trkpt lat="47.850738" lon="12.637065"><ele>594.4</ele></trkpt>
<trkpt lat="47.851086" lon="12.636703"><ele>591.4</ele></trkpt>
<trkpt lat="47.852105" lon="12.636767"><ele>590.2</ele></trkpt>
<trkpt lat="47.853475" lon="12.637438"><ele>591.4</ele></trkpt>
<trkpt lat="47.853717" lon="12.637524"><ele>590.8</ele></trkpt>
<trkpt lat="47.855195" lon="12.637831"><ele>585.7</ele></trkpt>
<trkpt lat="47.855287" lon="12.637841"><ele>585.1</ele></trkpt>
<trkpt lat="47.855975" lon="12.637721"><ele>592.3</ele></trkpt>
<trkpt lat="47.857372" lon="12.637055"><ele>588.5</ele></trkpt>
<trkpt lat="47.858751" lon="12.636343"><ele>595.2</ele></trkpt>
<trkpt lat="47.859211" lon="12.636191"><ele>597.1</ele></trkpt>
<trkpt lat="47.859979" lon="12.636743"><ele>596.8</ele></trkpt>
<trkpt lat="47.860955" lon="12.638233"><ele>592.2</ele></trkpt>
<trkpt lat="47.861223" lon="12.638716"><ele>593.0</ele></trkpt>
<trkpt lat="47.861568" lon="12.639664"><ele>588.9</ele></trkpt>
<trkpt lat="47.861788" lon="12.639796"><ele>588.8</ele></trkpt>
<trkpt lat="47.862435" lon="12.641602"><ele>577.8</ele></trkpt>
<trkpt lat="47.863126" lon="12.643430"><ele>581.5</ele></trkpt>
<trkpt lat="47.863800" lon="12.645193"><ele>581.7</ele></trkpt>
<trkpt lat="47.864612" lon="12.646799"><ele>581.3</ele></trkpt>
<trkpt lat="47.865014" lon="12.647751"><ele>581.9</ele></trkpt>
<trkpt lat="47.865157" lon="12.648781"><ele>582.3</ele></trkpt>
<trkpt lat="47.865250" lon="12.648643"><ele>582.1</ele></trkpt>
<trkpt lat="47.864946" lon="12.647206"><ele>582.0</ele></trkpt>
<trkpt lat="47.865540" lon="12.647806"><ele>580.9</ele></trkpt>
<trkpt lat="47.865942" lon="12.647954"><ele>580.8</ele></trkpt>
<trkpt lat="47.866848" lon="12.646551"><ele>583.0</ele></trkpt>
<trkpt lat="47.866908" lon="12.646388"><ele>582.0</ele></trkpt>
<trkpt lat="47.866702" lon="12.644492"><ele>591.5</ele></trkpt>
<trkpt lat="47.867033" lon="12.642473"><ele>597.6</ele></trkpt>
<trkpt lat="47.867316" lon="12.640272"><ele>597.0</ele></trkpt>
<trkpt lat="47.867481" lon="12.639298"><ele>596.7</ele></trkpt>
<trkpt lat="47.868203" lon="12.638490"><ele>597.2</ele></trkpt>
<trkpt lat="47.868545" lon="12.638499"><ele>597.1</ele></trkpt>
<trkpt lat="47.869360" lon="12.639069"><ele>595.3</ele></trkpt>
</trkseg></trk></gpx>