<?xml version="1.0" encoding="UTF-8"?>
<gpx version="1.1" creator="Bad Reichenhall gravel – saját gravel-router (OSM/Overture + SRTM)" xmlns="http://www.topografix.com/GPX/1/1">
<metadata><name>A sólé útja oda-vissza – Traunstein és vissza bringával</name><desc>GENERÁLT NYOMVONAL – Kreatív történelmi túra a 1619-ben épült sóvezeték (Soleleitung) nyomvonalán: a reichenhalli Alte Salinétól a Nesselgraben és az Antoniberg mentén, a Mauthäuslon és a Himmelsleiter lépcsője mellett (a lépcső kitérő gyalog), majd Inzellen és a Weiße Traun völgyén, Siegsdorfon át a Traun-parti bringaúton Traunsteinig, a sólé egykori céljáig. Vissza is bringával, de könnyebben: Traunsteintől a Rupertiwinkel lankás, kis forgalmú útjain és kerékpárútjain Teisendorfon, Angeren és Pidingen át a szállodáig – a sóvezeték hegyes szakaszát (Mauthäusl, Inzell) nem kell még egyszer megmászni. A visszaút kb. 38 km és 300 m szint, 90% felett aszfalt, szinte végig falusi mellékutakon; különálló kerékpárút ezen a vonalon kevés van.</desc><copyright author="OpenStreetMap contributors (via Overture Maps)"><license>https://opendatacommons.org/licenses/odbl/</license></copyright><time>2026-10-04T16:53:15Z</time></metadata>
<wpt lat="47.7232" lon="12.8726"><name>Alte Saline – a sóvezeték kezdete</name><type>history</type></wpt>
<wpt lat="47.7126" lon="12.8145"><name>Nesselgraben</name><type>history</type></wpt>
<wpt lat="47.7114" lon="12.8115"><name>Antoniberg</name><type>history</type></wpt>
<wpt lat="47.7116" lon="12.785"><name>Mauthäusl – brunnhaus</name><type>history</type></wpt>
<wpt lat="47.729" lon="12.7597"><name>Himmelsleiter</name><type>history</type></wpt>
<wpt lat="47.7622" lon="12.7517"><name>Inzell</name><type>town</type></wpt>
<wpt lat="47.7885" lon="12.7201"><name>Fantenberg</name><type>town</type></wpt>
<wpt lat="47.822" lon="12.645"><name>Siegsdorf</name><type>town</type></wpt>
<wpt lat="47.8565" lon="12.6382"><name>Traun-parti bringaút (Haslacher Steg)</name><type>view</type></wpt>
<wpt lat="47.8687" lon="12.6436"><name>Traunstein óváros – Stadtplatz (400 m gyalog fel)</name><type>history</type></wpt>
<wpt lat="47.865" lon="12.648"><name>Traun-part, Haferlbrücke – forduló</name><type>town</type></wpt>
<wpt lat="47.8493" lon="12.8343"><name>Teisendorf</name><type>town</type></wpt>
<wpt lat="47.8039" lon="12.8559"><name>Anger</name><type>town</type></wpt>
<wpt lat="47.7596" lon="12.9114"><name>Piding</name><type>town</type></wpt>
<trk><name>A sólé útja oda-vissza – Traunstein és vissza bringával</name><type>gravel</type><trkseg>
<trkpt lat="47.726900" lon="12.883842"><ele>474.7</ele></trkpt>
<trkpt lat="47.726618" lon="12.884372"><ele>478.2</ele></trkpt>
<trkpt lat="47.726415" lon="12.884346"><ele>480.9</ele></trkpt>
<trkpt lat="47.726118" lon="12.883872"><ele>478.7</ele></trkpt>
<trkpt lat="47.725662" lon="12.883798"><ele>485.2</ele></trkpt>
<trkpt lat="47.724996" lon="12.883195"><ele>481.5</ele></trkpt>
<trkpt lat="47.724541" lon="12.882248"><ele>476.1</ele></trkpt>
<trkpt lat="47.724935" lon="12.881320"><ele>473.9</ele></trkpt>
<trkpt lat="47.724408" lon="12.880823"><ele>471.3</ele></trkpt>
<trkpt lat="47.724405" lon="12.880228"><ele>469.2</ele></trkpt>
<trkpt lat="47.723321" lon="12.879027"><ele>472.5</ele></trkpt>
<trkpt lat="47.722405" lon="12.877908"><ele>475.0</ele></trkpt>
<trkpt lat="47.722643" lon="12.877188"><ele>474.5</ele></trkpt>
<trkpt lat="47.721432" lon="12.876214"><ele>473.8</ele></trkpt>
<trkpt lat="47.720980" lon="12.875902"><ele>474.1</ele></trkpt>
<trkpt lat="47.719662" lon="12.875133"><ele>475.0</ele></trkpt>
<trkpt lat="47.719071" lon="12.874906"><ele>474.0</ele></trkpt>
<trkpt lat="47.719013" lon="12.874041"><ele>473.5</ele></trkpt>
<trkpt lat="47.718862" lon="12.873988"><ele>473.5</ele></trkpt>
<trkpt lat="47.718701" lon="12.873208"><ele>472.2</ele></trkpt>
<trkpt lat="47.718795" lon="12.872987"><ele>472.0</ele></trkpt>
<trkpt lat="47.718165" lon="12.871199"><ele>471.6</ele></trkpt>
<trkpt lat="47.718134" lon="12.870953"><ele>471.4</ele></trkpt>
<trkpt lat="47.718812" lon="12.869066"><ele>469.6</ele></trkpt>
<trkpt lat="47.719247" lon="12.867595"><ele>472.5</ele></trkpt>
<trkpt lat="47.719842" lon="12.866435"><ele>472.9</ele></trkpt>
<trkpt lat="47.719662" lon="12.864923"><ele>474.0</ele></trkpt>
<trkpt lat="47.719583" lon="12.862898"><ele>466.1</ele></trkpt>
<trkpt lat="47.719572" lon="12.861019"><ele>467.9</ele></trkpt>
<trkpt lat="47.720268" lon="12.861072"><ele>468.0</ele></trkpt>
<trkpt lat="47.720667" lon="12.859534"><ele>466.9</ele></trkpt>
<trkpt lat="47.720388" lon="12.857973"><ele>464.6</ele></trkpt>
<trkpt lat="47.720241" lon="12.855933"><ele>466.6</ele></trkpt>
<trkpt lat="47.720192" lon="12.854975"><ele>466.7</ele></trkpt>
<trkpt lat="47.720241" lon="12.852846"><ele>466.0</ele></trkpt>
<trkpt lat="47.720318" lon="12.850793"><ele>471.1</ele></trkpt>
<trkpt lat="47.720318" lon="12.850781"><ele>471.2</ele></trkpt>
<trkpt lat="47.721416" lon="12.849706"><ele>478.3</ele></trkpt>
<trkpt lat="47.721778" lon="12.849296"><ele>483.1</ele></trkpt>
<trkpt lat="47.721829" lon="12.848486"><ele>491.9</ele></trkpt>
<trkpt lat="47.721602" lon="12.847570"><ele>509.2</ele></trkpt>
<trkpt lat="47.722200" lon="12.848053"><ele>509.8</ele></trkpt>
<trkpt lat="47.722688" lon="12.847691"><ele>518.6</ele></trkpt>
<trkpt lat="47.722379" lon="12.845738"><ele>543.1</ele></trkpt>
<trkpt lat="47.721985" lon="12.843842"><ele>544.3</ele></trkpt>
<trkpt lat="47.721921" lon="12.842714"><ele>551.4</ele></trkpt>
<trkpt lat="47.722417" lon="12.840812"><ele>557.7</ele></trkpt>
<trkpt lat="47.722483" lon="12.840627"><ele>560.8</ele></trkpt>
<trkpt lat="47.723062" lon="12.840555"><ele>565.3</ele></trkpt>
<trkpt lat="47.722588" lon="12.838471"><ele>578.0</ele></trkpt>
<trkpt lat="47.722588" lon="12.838466"><ele>578.0</ele></trkpt>
<trkpt lat="47.722426" lon="12.836475"><ele>591.8</ele></trkpt>
<trkpt lat="47.722339" lon="12.835235"><ele>587.9</ele></trkpt>
<trkpt lat="47.722402" lon="12.834043"><ele>574.8</ele></trkpt>
<trkpt lat="47.722228" lon="12.832035"><ele>557.6</ele></trkpt>
<trkpt lat="47.722234" lon="12.830744"><ele>558.4</ele></trkpt>
<trkpt lat="47.721753" lon="12.829195"><ele>553.7</ele></trkpt>
<trkpt lat="47.721650" lon="12.828079"><ele>551.3</ele></trkpt>
<trkpt lat="47.721101" lon="12.826237"><ele>551.7</ele></trkpt>
<trkpt lat="47.720825" lon="12.825396"><ele>541.8</ele></trkpt>
<trkpt lat="47.720713" lon="12.824546"><ele>542.5</ele></trkpt>
<trkpt lat="47.719861" lon="12.822847"><ele>538.6</ele></trkpt>
<trkpt lat="47.719033" lon="12.821116"><ele>541.5</ele></trkpt>
<trkpt lat="47.718766" lon="12.820668"><ele>545.5</ele></trkpt>
<trkpt lat="47.717769" lon="12.819950"><ele>537.1</ele></trkpt>
<trkpt lat="47.716787" lon="12.818442"><ele>544.0</ele></trkpt>
<trkpt lat="47.716742" lon="12.818410"><ele>543.4</ele></trkpt>
<trkpt lat="47.716456" lon="12.818445"><ele>538.5</ele></trkpt>
<trkpt lat="47.716055" lon="12.818937"><ele>540.0</ele></trkpt>
<trkpt lat="47.715387" lon="12.817167"><ele>549.5</ele></trkpt>
<trkpt lat="47.715328" lon="12.817056"><ele>551.3</ele></trkpt>
<trkpt lat="47.714343" lon="12.815928"><ele>562.1</ele></trkpt>
<trkpt lat="47.713349" lon="12.814414"><ele>573.7</ele></trkpt>
<trkpt lat="47.713113" lon="12.814081"><ele>575.2</ele></trkpt>
<trkpt lat="47.712533" lon="12.812863"><ele>587.6</ele></trkpt>
<trkpt lat="47.711546" lon="12.811746"><ele>591.5</ele></trkpt>
<trkpt lat="47.710780" lon="12.810476"><ele>605.5</ele></trkpt>
<trkpt lat="47.709426" lon="12.809631"><ele>601.9</ele></trkpt>
<trkpt lat="47.708469" lon="12.808955"><ele>629.5</ele></trkpt>
<trkpt lat="47.707127" lon="12.809198"><ele>631.7</ele></trkpt>
<trkpt lat="47.706755" lon="12.809290"><ele>629.1</ele></trkpt>
<trkpt lat="47.706084" lon="12.809148"><ele>621.8</ele></trkpt>
<trkpt lat="47.705072" lon="12.807698"><ele>626.5</ele></trkpt>
<trkpt lat="47.705070" lon="12.807695"><ele>626.5</ele></trkpt>
<trkpt lat="47.704899" lon="12.807189"><ele>626.2</ele></trkpt>
<trkpt lat="47.704969" lon="12.806510"><ele>622.7</ele></trkpt>
<trkpt lat="47.704681" lon="12.806035"><ele>616.5</ele></trkpt>
<trkpt lat="47.704727" lon="12.803951"><ele>634.8</ele></trkpt>
<trkpt lat="47.704780" lon="12.801858"><ele>634.5</ele></trkpt>
<trkpt lat="47.704742" lon="12.800969"><ele>625.4</ele></trkpt>
<trkpt lat="47.704869" lon="12.800486"><ele>626.2</ele></trkpt>
<trkpt lat="47.705967" lon="12.799432"><ele>638.1</ele></trkpt>
<trkpt lat="47.706785" lon="12.797727"><ele>634.1</ele></trkpt>
<trkpt lat="47.707096" lon="12.797108"><ele>644.7</ele></trkpt>
<trkpt lat="47.707777" lon="12.796156"><ele>628.5</ele></trkpt>
<trkpt lat="47.708342" lon="12.795677"><ele>650.0</ele></trkpt>
<trkpt lat="47.709086" lon="12.793988"><ele>634.0</ele></trkpt>
<trkpt lat="47.709428" lon="12.793405"><ele>626.9</ele></trkpt>
<trkpt lat="47.710733" lon="12.792556"><ele>643.8</ele></trkpt>
<trkpt lat="47.711280" lon="12.792198"><ele>642.1</ele></trkpt>
<trkpt lat="47.711650" lon="12.791678"><ele>628.9</ele></trkpt>
<trkpt lat="47.711581" lon="12.789625"><ele>642.0</ele></trkpt>
<trkpt lat="47.711582" lon="12.789505"><ele>641.6</ele></trkpt>
<trkpt lat="47.711987" lon="12.787572"><ele>636.5</ele></trkpt>
<trkpt lat="47.712002" lon="12.787367"><ele>633.9</ele></trkpt>
<trkpt lat="47.711932" lon="12.785607"><ele>632.5</ele></trkpt>
<trkpt lat="47.711789" lon="12.784888"><ele>635.4</ele></trkpt>
<trkpt lat="47.711662" lon="12.784850"><ele>629.0</ele></trkpt>
<trkpt lat="47.711730" lon="12.784238"><ele>632.7</ele></trkpt>
<trkpt lat="47.711509" lon="12.784500"><ele>623.1</ele></trkpt>
<trkpt lat="47.711505" lon="12.784192"><ele>620.4</ele></trkpt>
<trkpt lat="47.711736" lon="12.783590"><ele>622.2</ele></trkpt>
<trkpt lat="47.711965" lon="12.781578"><ele>608.9</ele></trkpt>
<trkpt lat="47.712353" lon="12.780276"><ele>601.4</ele></trkpt>
<trkpt lat="47.712972" lon="12.779489"><ele>606.1</ele></trkpt>
<trkpt lat="47.713110" lon="12.778145"><ele>605.3</ele></trkpt>
<trkpt lat="47.713399" lon="12.777166"><ele>606.9</ele></trkpt>
<trkpt lat="47.714713" lon="12.776176"><ele>606.1</ele></trkpt>
<trkpt lat="47.715479" lon="12.775512"><ele>606.5</ele></trkpt>
<trkpt lat="47.716300" lon="12.774465"><ele>608.4</ele></trkpt>
<trkpt lat="47.717369" lon="12.774300"><ele>611.3</ele></trkpt>
<trkpt lat="47.717513" lon="12.774657"><ele>613.7</ele></trkpt>
<trkpt lat="47.718104" lon="12.774159"><ele>611.6</ele></trkpt>
<trkpt lat="47.718944" lon="12.772496"><ele>610.0</ele></trkpt>
<trkpt lat="47.719060" lon="12.772290"><ele>609.7</ele></trkpt>
<trkpt lat="47.719554" lon="12.771939"><ele>611.0</ele></trkpt>
<trkpt lat="47.720206" lon="12.770391"><ele>610.3</ele></trkpt>
<trkpt lat="47.721174" lon="12.768935"><ele>614.8</ele></trkpt>
<trkpt lat="47.721494" lon="12.768445"><ele>616.1</ele></trkpt>
<trkpt lat="47.722382" lon="12.766749"><ele>619.6</ele></trkpt>
<trkpt lat="47.722869" lon="12.765861"><ele>622.0</ele></trkpt>
<trkpt lat="47.723581" lon="12.764953"><ele>622.3</ele></trkpt>
<trkpt lat="47.724567" lon="12.764232"><ele>629.1</ele></trkpt>
<trkpt lat="47.725396" lon="12.762676"><ele>630.1</ele></trkpt>
<trkpt lat="47.725654" lon="12.762094"><ele>630.9</ele></trkpt>
<trkpt lat="47.726626" lon="12.760898"><ele>634.0</ele></trkpt>
<trkpt lat="47.727179" lon="12.759702"><ele>638.1</ele></trkpt>
<trkpt lat="47.728168" lon="12.758318"><ele>640.4</ele></trkpt>
<trkpt lat="47.728519" lon="12.757955"><ele>645.8</ele></trkpt>
<trkpt lat="47.728833" lon="12.757208"><ele>640.0</ele></trkpt>
<trkpt lat="47.728858" lon="12.757738"><ele>649.1</ele></trkpt>
<trkpt lat="47.728477" lon="12.758903"><ele>660.5</ele></trkpt>
<trkpt lat="47.729217" lon="12.757863"><ele>667.7</ele></trkpt>
<trkpt lat="47.730130" lon="12.757267"><ele>692.3</ele></trkpt>
<trkpt lat="47.729710" lon="12.758686"><ele>705.2</ele></trkpt>
<trkpt lat="47.730335" lon="12.758327"><ele>722.5</ele></trkpt>
<trkpt lat="47.731322" lon="12.756839"><ele>740.0</ele></trkpt>
<trkpt lat="47.731722" lon="12.756084"><ele>726.7</ele></trkpt>
<trkpt lat="47.732231" lon="12.756333"><ele>741.3</ele></trkpt>
<trkpt lat="47.733255" lon="12.756199"><ele>731.6</ele></trkpt>
<trkpt lat="47.734258" lon="12.756578"><ele>738.0</ele></trkpt>
<trkpt lat="47.734955" lon="12.757100"><ele>742.1</ele></trkpt>
<trkpt lat="47.735755" lon="12.756875"><ele>735.2</ele></trkpt>
<trkpt lat="47.737017" lon="12.757137"><ele>738.4</ele></trkpt>
<trkpt lat="47.738175" lon="12.756866"><ele>731.5</ele></trkpt>
<trkpt lat="47.738728" lon="12.757071"><ele>728.1</ele></trkpt>
<trkpt lat="47.739649" lon="12.758092"><ele>734.8</ele></trkpt>
<trkpt lat="47.740532" lon="12.758005"><ele>730.4</ele></trkpt>
<trkpt lat="47.740394" lon="12.756941"><ele>734.0</ele></trkpt>
<trkpt lat="47.740944" lon="12.755759"><ele>731.3</ele></trkpt>
<trkpt lat="47.741288" lon="12.753742"><ele>720.5</ele></trkpt>
<trkpt lat="47.741449" lon="12.753354"><ele>720.3</ele></trkpt>
<trkpt lat="47.741894" lon="12.752902"><ele>724.4</ele></trkpt>
<trkpt lat="47.742471" lon="12.751853"><ele>716.5</ele></trkpt>
<trkpt lat="47.743714" lon="12.750973"><ele>728.2</ele></trkpt>
<trkpt lat="47.744700" lon="12.750322"><ele>725.7</ele></trkpt>
<trkpt lat="47.746217" lon="12.750239"><ele>730.8</ele></trkpt>
<trkpt lat="47.746699" lon="12.750286"><ele>736.0</ele></trkpt>
<trkpt lat="47.747738" lon="12.749995"><ele>725.5</ele></trkpt>
<trkpt lat="47.748743" lon="12.751386"><ele>714.1</ele></trkpt>
<trkpt lat="47.748809" lon="12.751432"><ele>714.2</ele></trkpt>
<trkpt lat="47.750165" lon="12.751749"><ele>710.1</ele></trkpt>
<trkpt lat="47.751424" lon="12.752050"><ele>705.0</ele></trkpt>
<trkpt lat="47.751592" lon="12.752027"><ele>701.2</ele></trkpt>
<trkpt lat="47.751747" lon="12.750954"><ele>693.6</ele></trkpt>
<trkpt lat="47.753082" lon="12.751405"><ele>692.0</ele></trkpt>
<trkpt lat="47.753166" lon="12.751445"><ele>692.0</ele></trkpt>
<trkpt lat="47.753224" lon="12.750720"><ele>693.8</ele></trkpt>
<trkpt lat="47.753357" lon="12.750580"><ele>693.8</ele></trkpt>
<trkpt lat="47.754740" lon="12.750503"><ele>688.9</ele></trkpt>
<trkpt lat="47.756195" lon="12.750367"><ele>689.3</ele></trkpt>
<trkpt lat="47.757584" lon="12.750182"><ele>689.0</ele></trkpt>
<trkpt lat="47.759014" lon="12.750100"><ele>689.6</ele></trkpt>
<trkpt lat="47.759481" lon="12.750079"><ele>690.2</ele></trkpt>
<trkpt lat="47.760958" lon="12.749550"><ele>688.3</ele></trkpt>
<trkpt lat="47.762367" lon="12.748998"><ele>692.3</ele></trkpt>
<trkpt lat="47.763761" lon="12.748466"><ele>696.0</ele></trkpt>
<trkpt lat="47.765225" lon="12.747931"><ele>689.9</ele></trkpt>
<trkpt lat="47.765555" lon="12.747817"><ele>686.3</ele></trkpt>
<trkpt lat="47.766145" lon="12.747661"><ele>688.1</ele></trkpt>
<trkpt lat="47.766445" lon="12.747905"><ele>687.6</ele></trkpt>
<trkpt lat="47.766913" lon="12.747326"><ele>689.6</ele></trkpt>
<trkpt lat="47.768219" lon="12.746573"><ele>689.2</ele></trkpt>
<trkpt lat="47.769548" lon="12.745968"><ele>688.5</ele></trkpt>
<trkpt lat="47.770881" lon="12.745382"><ele>688.9</ele></trkpt>
<trkpt lat="47.771525" lon="12.745063"><ele>688.1</ele></trkpt>
<trkpt lat="47.772710" lon="12.744067"><ele>690.4</ele></trkpt>
<trkpt lat="47.773318" lon="12.743587"><ele>691.8</ele></trkpt>
<trkpt lat="47.774573" lon="12.742828"><ele>691.6</ele></trkpt>
<trkpt lat="47.775900" lon="12.742065"><ele>692.3</ele></trkpt>
<trkpt lat="47.777354" lon="12.741396"><ele>696.9</ele></trkpt>
<trkpt lat="47.778104" lon="12.741138"><ele>701.4</ele></trkpt>
<trkpt lat="47.779229" lon="12.740164"><ele>705.5</ele></trkpt>
<trkpt lat="47.780187" lon="12.738643"><ele>722.9</ele></trkpt>
<trkpt lat="47.781106" lon="12.737378"><ele>721.1</ele></trkpt>
<trkpt lat="47.780902" lon="12.736578"><ele>707.5</ele></trkpt>
<trkpt lat="47.781779" lon="12.734811"><ele>702.9</ele></trkpt>
<trkpt lat="47.782601" lon="12.733077"><ele>699.9</ele></trkpt>
<trkpt lat="47.783010" lon="12.732475"><ele>692.7</ele></trkpt>
<trkpt lat="47.784070" lon="12.731224"><ele>688.3</ele></trkpt>
<trkpt lat="47.784658" lon="12.730539"><ele>690.6</ele></trkpt>
<trkpt lat="47.784764" lon="12.730634"><ele>688.7</ele></trkpt>
<trkpt lat="47.785305" lon="12.730171"><ele>694.5</ele></trkpt>
<trkpt lat="47.786481" lon="12.729657"><ele>697.1</ele></trkpt>
<trkpt lat="47.787246" lon="12.728770"><ele>689.5</ele></trkpt>
<trkpt lat="47.787780" lon="12.728911"><ele>691.5</ele></trkpt>
<trkpt lat="47.788039" lon="12.728716"><ele>691.6</ele></trkpt>
<trkpt lat="47.788090" lon="12.727624"><ele>687.0</ele></trkpt>
<trkpt lat="47.788434" lon="12.725742"><ele>682.4</ele></trkpt>
<trkpt lat="47.788947" lon="12.723843"><ele>683.0</ele></trkpt>
<trkpt lat="47.788978" lon="12.723553"><ele>683.8</ele></trkpt>
<trkpt lat="47.788596" lon="12.721366"><ele>677.5</ele></trkpt>
<trkpt lat="47.788399" lon="12.720268"><ele>666.7</ele></trkpt>
<trkpt lat="47.789147" lon="12.718611"><ele>667.5</ele></trkpt>
<trkpt lat="47.790281" lon="12.717460"><ele>660.9</ele></trkpt>
<trkpt lat="47.791551" lon="12.716286"><ele>666.1</ele></trkpt>
<trkpt lat="47.792158" lon="12.715562"><ele>668.7</ele></trkpt>
<trkpt lat="47.792765" lon="12.714471"><ele>666.0</ele></trkpt>
<trkpt lat="47.792872" lon="12.713367"><ele>658.4</ele></trkpt>
<trkpt lat="47.793677" lon="12.713121"><ele>658.6</ele></trkpt>
<trkpt lat="47.794831" lon="12.712043"><ele>661.1</ele></trkpt>
<trkpt lat="47.794940" lon="12.711905"><ele>661.2</ele></trkpt>
<trkpt lat="47.795556" lon="12.710129"><ele>653.0</ele></trkpt>
<trkpt lat="47.795746" lon="12.709558"><ele>654.2</ele></trkpt>
<trkpt lat="47.796358" lon="12.708648"><ele>652.0</ele></trkpt>
<trkpt lat="47.797646" lon="12.707535"><ele>647.2</ele></trkpt>
<trkpt lat="47.798363" lon="12.706836"><ele>646.3</ele></trkpt>
<trkpt lat="47.799751" lon="12.706616"><ele>649.0</ele></trkpt>
<trkpt lat="47.800275" lon="12.706220"><ele>647.0</ele></trkpt>
<trkpt lat="47.800642" lon="12.706316"><ele>647.3</ele></trkpt>
<trkpt lat="47.800975" lon="12.706010"><ele>647.4</ele></trkpt>
<trkpt lat="47.801252" lon="12.704007"><ele>642.9</ele></trkpt>
<trkpt lat="47.801252" lon="12.704007"><ele>642.9</ele></trkpt>
<trkpt lat="47.800838" lon="12.703809"><ele>642.0</ele></trkpt>
<trkpt lat="47.800979" lon="12.702925"><ele>644.7</ele></trkpt>
<trkpt lat="47.801072" lon="12.702567"><ele>645.8</ele></trkpt>
<trkpt lat="47.801214" lon="12.702629"><ele>645.7</ele></trkpt>
<trkpt lat="47.801616" lon="12.700560"><ele>650.0</ele></trkpt>
<trkpt lat="47.801891" lon="12.699035"><ele>652.2</ele></trkpt>
<trkpt lat="47.802678" lon="12.697383"><ele>659.9</ele></trkpt>
<trkpt lat="47.802836" lon="12.697063"><ele>658.8</ele></trkpt>
<trkpt lat="47.803942" lon="12.695831"><ele>658.0</ele></trkpt>
<trkpt lat="47.805035" lon="12.694582"><ele>657.8</ele></trkpt>
<trkpt lat="47.805601" lon="12.694019"><ele>656.8</ele></trkpt>
<trkpt lat="47.806175" lon="12.694236"><ele>654.6</ele></trkpt>
<trkpt lat="47.807121" lon="12.693210"><ele>652.2</ele></trkpt>
<trkpt lat="47.808128" lon="12.691684"><ele>651.5</ele></trkpt>
<trkpt lat="47.808921" lon="12.690413"><ele>647.6</ele></trkpt>
<trkpt lat="47.809634" lon="12.688689"><ele>649.1</ele></trkpt>
<trkpt lat="47.810268" lon="12.686906"><ele>635.1</ele></trkpt>
<trkpt lat="47.810671" lon="12.686076"><ele>628.4</ele></trkpt>
<trkpt lat="47.811733" lon="12.684709"><ele>625.7</ele></trkpt>
<trkpt lat="47.812833" lon="12.683269"><ele>629.6</ele></trkpt>
<trkpt lat="47.813223" lon="12.682696"><ele>642.3</ele></trkpt>
<trkpt lat="47.814485" lon="12.681532"><ele>642.0</ele></trkpt>
<trkpt lat="47.815067" lon="12.680811"><ele>639.1</ele></trkpt>
<trkpt lat="47.816006" lon="12.679344"><ele>636.6</ele></trkpt>
<trkpt lat="47.816507" lon="12.678285"><ele>634.0</ele></trkpt>
<trkpt lat="47.816431" lon="12.677521"><ele>635.0</ele></trkpt>
<trkpt lat="47.816709" lon="12.676508"><ele>636.9</ele></trkpt>
<trkpt lat="47.817413" lon="12.674594"><ele>634.3</ele></trkpt>
<trkpt lat="47.818206" lon="12.672947"><ele>633.2</ele></trkpt>
<trkpt lat="47.818353" lon="12.671332"><ele>636.0</ele></trkpt>
<trkpt lat="47.818680" lon="12.670661"><ele>634.5</ele></trkpt>
<trkpt lat="47.818653" lon="12.668671"><ele>636.8</ele></trkpt>
<trkpt lat="47.818656" lon="12.668646"><ele>636.8</ele></trkpt>
<trkpt lat="47.819071" lon="12.666722"><ele>633.6</ele></trkpt>
<trkpt lat="47.819161" lon="12.666509"><ele>633.6</ele></trkpt>
<trkpt lat="47.819128" lon="12.664483"><ele>636.0</ele></trkpt>
<trkpt lat="47.819111" lon="12.662823"><ele>633.8</ele></trkpt>
<trkpt lat="47.819310" lon="12.660837"><ele>630.5</ele></trkpt>
<trkpt lat="47.819305" lon="12.659981"><ele>632.0</ele></trkpt>
<trkpt lat="47.819140" lon="12.659495"><ele>631.2</ele></trkpt>
<trkpt lat="47.818414" lon="12.658812"><ele>631.4</ele></trkpt>
<trkpt lat="47.818299" lon="12.656812"><ele>630.5</ele></trkpt>
<trkpt lat="47.818192" lon="12.654804"><ele>632.2</ele></trkpt>
<trkpt lat="47.818032" lon="12.652671"><ele>631.4</ele></trkpt>
<trkpt lat="47.817993" lon="12.652624"><ele>631.6</ele></trkpt>
<trkpt lat="47.818218" lon="12.651477"><ele>629.5</ele></trkpt>
<trkpt lat="47.818161" lon="12.649613"><ele>607.5</ele></trkpt>
<trkpt lat="47.818305" lon="12.647515"><ele>607.4</ele></trkpt>
<trkpt lat="47.818357" lon="12.647178"><ele>605.8</ele></trkpt>
<trkpt lat="47.819519" lon="12.646445"><ele>606.6</ele></trkpt>
<trkpt lat="47.820955" lon="12.646118"><ele>605.5</ele></trkpt>
<trkpt lat="47.822079" lon="12.645721"><ele>605.5</ele></trkpt>
<trkpt lat="47.821938" lon="12.644746"><ele>605.0</ele></trkpt>
<trkpt lat="47.822324" lon="12.644609"><ele>604.6</ele></trkpt>
<trkpt lat="47.822174" lon="12.644122"><ele>604.7</ele></trkpt>
<trkpt lat="47.822384" lon="12.643894"><ele>603.4</ele></trkpt>
<trkpt lat="47.823299" lon="12.643936"><ele>603.0</ele></trkpt>
<trkpt lat="47.823661" lon="12.644338"><ele>604.6</ele></trkpt>
<trkpt lat="47.824028" lon="12.644130"><ele>603.6</ele></trkpt>
<trkpt lat="47.825291" lon="12.644930"><ele>600.0</ele></trkpt>
<trkpt lat="47.825712" lon="12.644543"><ele>600.4</ele></trkpt>
<trkpt lat="47.826479" lon="12.645988"><ele>602.8</ele></trkpt>
<trkpt lat="47.827565" lon="12.646723"><ele>607.2</ele></trkpt>
<trkpt lat="47.828436" lon="12.646781"><ele>601.0</ele></trkpt>
<trkpt lat="47.829725" lon="12.646187"><ele>597.3</ele></trkpt>
<trkpt lat="47.829825" lon="12.646158"><ele>598.0</ele></trkpt>
<trkpt lat="47.831249" lon="12.646058"><ele>598.8</ele></trkpt>
<trkpt lat="47.832597" lon="12.645952"><ele>599.7</ele></trkpt>
<trkpt lat="47.832648" lon="12.645935"><ele>600.0</ele></trkpt>
<trkpt lat="47.833385" lon="12.645412"><ele>599.9</ele></trkpt>
<trkpt lat="47.834631" lon="12.644102"><ele>593.4</ele></trkpt>
<trkpt lat="47.835910" lon="12.642888"><ele>599.5</ele></trkpt>
<trkpt lat="47.837075" lon="12.641800"><ele>599.7</ele></trkpt>
<trkpt lat="47.837621" lon="12.641303"><ele>599.7</ele></trkpt>
<trkpt lat="47.838951" lon="12.640350"><ele>596.4</ele></trkpt>
<trkpt lat="47.839256" lon="12.640167"><ele>595.1</ele></trkpt>
<trkpt lat="47.840719" lon="12.639728"><ele>594.3</ele></trkpt>
<trkpt lat="47.841019" lon="12.639669"><ele>595.2</ele></trkpt>
<trkpt lat="47.842456" lon="12.639550"><ele>595.9</ele></trkpt>
<trkpt lat="47.842460" lon="12.639549"><ele>595.9</ele></trkpt>
<trkpt lat="47.843890" lon="12.638767"><ele>590.1</ele></trkpt>
<trkpt lat="47.845318" lon="12.638158"><ele>592.9</ele></trkpt>
<trkpt lat="47.846738" lon="12.637563"><ele>593.2</ele></trkpt>
<trkpt lat="47.847267" lon="12.637246"><ele>591.9</ele></trkpt>
<trkpt lat="47.848663" lon="12.637083"><ele>592.5</ele></trkpt>
<trkpt lat="47.849337" lon="12.636980"><ele>592.5</ele></trkpt>
<trkpt lat="47.850684" lon="12.637069"><ele>594.4</ele></trkpt>
<trkpt lat="47.850738" lon="12.637065"><ele>594.4</ele></trkpt>
<trkpt lat="47.851086" lon="12.636703"><ele>591.4</ele></trkpt>
<trkpt lat="47.852105" lon="12.636767"><ele>590.2</ele></trkpt>
<trkpt lat="47.853475" lon="12.637438"><ele>591.4</ele></trkpt>
<trkpt lat="47.853717" lon="12.637524"><ele>590.8</ele></trkpt>
<trkpt lat="47.855195" lon="12.637831"><ele>585.7</ele></trkpt>
<trkpt lat="47.855287" lon="12.637841"><ele>585.1</ele></trkpt>
<trkpt lat="47.855975" lon="12.637721"><ele>592.3</ele></trkpt>
<trkpt lat="47.857372" lon="12.637055"><ele>588.5</ele></trkpt>
<trkpt lat="47.858751" lon="12.636343"><ele>595.2</ele></trkpt>
<trkpt lat="47.859092" lon="12.636203"><ele>596.4</ele></trkpt>
<trkpt lat="47.859539" lon="12.636286"><ele>600.0</ele></trkpt>
<trkpt lat="47.859979" lon="12.636743"><ele>596.8</ele></trkpt>
<trkpt lat="47.860955" lon="12.638233"><ele>592.2</ele></trkpt>
<trkpt lat="47.861223" lon="12.638716"><ele>593.0</ele></trkpt>
<trkpt lat="47.861568" lon="12.639664"><ele>588.9</ele></trkpt>
<trkpt lat="47.861803" lon="12.639828"><ele>588.5</ele></trkpt>
<trkpt lat="47.862435" lon="12.641602"><ele>577.8</ele></trkpt>
<trkpt lat="47.863126" lon="12.643430"><ele>581.5</ele></trkpt>
<trkpt lat="47.863800" lon="12.645193"><ele>581.7</ele></trkpt>
<trkpt lat="47.864612" lon="12.646799"><ele>581.3</ele></trkpt>
<trkpt lat="47.865014" lon="12.647751"><ele>581.9</ele></trkpt>
<trkpt lat="47.865175" lon="12.648562"><ele>581.9</ele></trkpt>
<trkpt lat="47.865104" lon="12.649661"><ele>579.4</ele></trkpt>
<trkpt lat="47.865434" lon="12.650943"><ele>578.3</ele></trkpt>
<trkpt lat="47.866689" lon="12.651778"><ele>579.8</ele></trkpt>
<trkpt lat="47.866901" lon="12.651945"><ele>578.3</ele></trkpt>
<trkpt lat="47.866602" lon="12.652543"><ele>587.8</ele></trkpt>
<trkpt lat="47.867007" lon="12.652756"><ele>586.5</ele></trkpt>
<trkpt lat="47.866945" lon="12.653047"><ele>593.8</ele></trkpt>
<trkpt lat="47.868165" lon="12.653940"><ele>591.3</ele></trkpt>
<trkpt lat="47.869216" lon="12.654889"><ele>584.4</ele></trkpt>
<trkpt lat="47.869295" lon="12.655353"><ele>591.9</ele></trkpt>
<trkpt lat="47.869622" lon="12.655199"><ele>584.2</ele></trkpt>
<trkpt lat="47.870131" lon="12.655469"><ele>583.6</ele></trkpt>
<trkpt lat="47.870408" lon="12.656116"><ele>580.1</ele></trkpt>
<trkpt lat="47.870405" lon="12.656892"><ele>581.6</ele></trkpt>
<trkpt lat="47.870004" lon="12.658449"><ele>590.6</ele></trkpt>
<trkpt lat="47.869690" lon="12.660657"><ele>595.3</ele></trkpt>
<trkpt lat="47.869552" lon="12.661590"><ele>593.5</ele></trkpt>
<trkpt lat="47.869718" lon="12.661746"><ele>585.3</ele></trkpt>
<trkpt lat="47.869735" lon="12.663021"><ele>581.7</ele></trkpt>
<trkpt lat="47.870007" lon="12.665010"><ele>582.0</ele></trkpt>
<trkpt lat="47.870065" lon="12.665679"><ele>582.5</ele></trkpt>
<trkpt lat="47.869961" lon="12.667089"><ele>582.1</ele></trkpt>
<trkpt lat="47.869301" lon="12.668348"><ele>581.4</ele></trkpt>
<trkpt lat="47.868191" lon="12.669515"><ele>583.2</ele></trkpt>
<trkpt lat="47.867680" lon="12.670057"><ele>586.7</ele></trkpt>
<trkpt lat="47.867082" lon="12.671125"><ele>594.1</ele></trkpt>
<trkpt lat="47.866782" lon="12.672348"><ele>584.5</ele></trkpt>
<trkpt lat="47.866661" lon="12.674520"><ele>584.0</ele></trkpt>
<trkpt lat="47.866457" lon="12.676051"><ele>584.9</ele></trkpt>
<trkpt lat="47.865907" lon="12.677973"><ele>593.8</ele></trkpt>
<trkpt lat="47.865675" lon="12.678733"><ele>593.7</ele></trkpt>
<trkpt lat="47.864696" lon="12.680186"><ele>588.5</ele></trkpt>
<trkpt lat="47.864174" lon="12.680964"><ele>592.0</ele></trkpt>
<trkpt lat="47.862994" lon="12.682390"><ele>608.5</ele></trkpt>
<trkpt lat="47.862417" lon="12.683067"><ele>607.4</ele></trkpt>
<trkpt lat="47.861487" lon="12.684608"><ele>612.3</ele></trkpt>
<trkpt lat="47.861461" lon="12.684656"><ele>611.8</ele></trkpt>
<trkpt lat="47.860978" lon="12.686245"><ele>611.9</ele></trkpt>
<trkpt lat="47.860889" lon="12.688412"><ele>598.1</ele></trkpt>
<trkpt lat="47.860932" lon="12.690013"><ele>608.2</ele></trkpt>
<trkpt lat="47.861203" lon="12.691747"><ele>606.8</ele></trkpt>
<trkpt lat="47.861755" lon="12.693643"><ele>600.6</ele></trkpt>
<trkpt lat="47.862309" lon="12.695641"><ele>600.5</ele></trkpt>
<trkpt lat="47.862817" lon="12.697712"><ele>597.1</ele></trkpt>
<trkpt lat="47.862833" lon="12.697766"><ele>597.2</ele></trkpt>
<trkpt lat="47.863286" lon="12.698930"><ele>598.0</ele></trkpt>
<trkpt lat="47.864243" lon="12.700485"><ele>591.7</ele></trkpt>
<trkpt lat="47.864905" lon="12.701724"><ele>588.9</ele></trkpt>
<trkpt lat="47.865580" lon="12.703483"><ele>588.9</ele></trkpt>
<trkpt lat="47.866161" lon="12.705030"><ele>587.5</ele></trkpt>
<trkpt lat="47.866903" lon="12.705177"><ele>585.0</ele></trkpt>
<trkpt lat="47.867784" lon="12.706556"><ele>578.4</ele></trkpt>
<trkpt lat="47.868535" lon="12.707101"><ele>577.1</ele></trkpt>
<trkpt lat="47.868925" lon="12.708267"><ele>571.7</ele></trkpt>
<trkpt lat="47.869140" lon="12.710080"><ele>569.1</ele></trkpt>
<trkpt lat="47.870022" lon="12.710415"><ele>572.7</ele></trkpt>
<trkpt lat="47.870290" lon="12.710746"><ele>574.4</ele></trkpt>
<trkpt lat="47.871018" lon="12.712407"><ele>591.3</ele></trkpt>
<trkpt lat="47.871268" lon="12.714380"><ele>597.6</ele></trkpt>
<trkpt lat="47.871367" lon="12.714782"><ele>598.8</ele></trkpt>
<trkpt lat="47.872039" lon="12.716136"><ele>596.7</ele></trkpt>
<trkpt lat="47.872267" lon="12.716278"><ele>596.5</ele></trkpt>
<trkpt lat="47.873157" lon="12.716175"><ele>596.9</ele></trkpt>
<trkpt lat="47.872845" lon="12.718126"><ele>600.6</ele></trkpt>
<trkpt lat="47.872820" lon="12.718345"><ele>600.9</ele></trkpt>
<trkpt lat="47.872666" lon="12.720469"><ele>605.9</ele></trkpt>
<trkpt lat="47.872475" lon="12.722654"><ele>613.6</ele></trkpt>
<trkpt lat="47.872375" lon="12.723392"><ele>614.6</ele></trkpt>
<trkpt lat="47.871696" lon="12.725148"><ele>609.0</ele></trkpt>
<trkpt lat="47.871176" lon="12.726191"><ele>607.5</ele></trkpt>
<trkpt lat="47.871253" lon="12.726601"><ele>607.0</ele></trkpt>
<trkpt lat="47.871022" lon="12.728710"><ele>611.6</ele></trkpt>
<trkpt lat="47.870833" lon="12.730456"><ele>610.0</ele></trkpt>
<trkpt lat="47.870898" lon="12.731826"><ele>606.8</ele></trkpt>
<trkpt lat="47.871343" lon="12.733798"><ele>594.8</ele></trkpt>
<trkpt lat="47.871639" lon="12.734813"><ele>593.3</ele></trkpt>
<trkpt lat="47.872253" lon="12.736630"><ele>584.7</ele></trkpt>
<trkpt lat="47.872766" lon="12.737993"><ele>579.3</ele></trkpt>
<trkpt lat="47.873135" lon="12.738742"><ele>583.2</ele></trkpt>
<trkpt lat="47.873924" lon="12.739372"><ele>587.0</ele></trkpt>
<trkpt lat="47.874151" lon="12.739777"><ele>587.0</ele></trkpt>
<trkpt lat="47.874579" lon="12.741732"><ele>586.5</ele></trkpt>
<trkpt lat="47.874945" lon="12.743723"><ele>581.8</ele></trkpt>
<trkpt lat="47.874976" lon="12.744396"><ele>579.3</ele></trkpt>
<trkpt lat="47.875576" lon="12.744479"><ele>575.8</ele></trkpt>
<trkpt lat="47.876077" lon="12.746409"><ele>569.8</ele></trkpt>
<trkpt lat="47.876089" lon="12.746447"><ele>570.0</ele></trkpt>
<trkpt lat="47.877020" lon="12.747974"><ele>570.7</ele></trkpt>
<trkpt lat="47.877069" lon="12.748111"><ele>572.2</ele></trkpt>
<trkpt lat="47.877344" lon="12.750293"><ele>583.5</ele></trkpt>
<trkpt lat="47.877822" lon="12.752275"><ele>587.1</ele></trkpt>
<trkpt lat="47.878013" lon="12.753409"><ele>585.1</ele></trkpt>
<trkpt lat="47.878074" lon="12.755234"><ele>582.1</ele></trkpt>
<trkpt lat="47.878456" lon="12.757165"><ele>581.9</ele></trkpt>
<trkpt lat="47.878474" lon="12.757236"><ele>581.4</ele></trkpt>
<trkpt lat="47.879106" lon="12.759066"><ele>575.2</ele></trkpt>
<trkpt lat="47.879180" lon="12.759314"><ele>574.3</ele></trkpt>
<trkpt lat="47.879170" lon="12.760389"><ele>569.6</ele></trkpt>
<trkpt lat="47.879370" lon="12.761421"><ele>567.6</ele></trkpt>
<trkpt lat="47.878787" lon="12.761575"><ele>569.8</ele></trkpt>
<trkpt lat="47.878589" lon="12.762510"><ele>572.2</ele></trkpt>
<trkpt lat="47.878302" lon="12.762637"><ele>573.9</ele></trkpt>
<trkpt lat="47.877308" lon="12.764040"><ele>572.0</ele></trkpt>
<trkpt lat="47.877127" lon="12.764344"><ele>571.4</ele></trkpt>
<trkpt lat="47.876675" lon="12.765834"><ele>572.0</ele></trkpt>
<trkpt lat="47.876302" lon="12.767883"><ele>572.2</ele></trkpt>
<trkpt lat="47.875925" lon="12.769820"><ele>568.1</ele></trkpt>
<trkpt lat="47.875573" lon="12.771785"><ele>565.1</ele></trkpt>
<trkpt lat="47.875796" lon="12.773313"><ele>565.0</ele></trkpt>
<trkpt lat="47.875680" lon="12.774585"><ele>560.4</ele></trkpt>
<trkpt lat="47.875958" lon="12.775746"><ele>555.4</ele></trkpt>
<trkpt lat="47.876000" lon="12.776770"><ele>560.6</ele></trkpt>
<trkpt lat="47.875864" lon="12.777401"><ele>561.1</ele></trkpt>
<trkpt lat="47.874609" lon="12.778426"><ele>558.3</ele></trkpt>
<trkpt lat="47.874126" lon="12.778888"><ele>558.9</ele></trkpt>
<trkpt lat="47.873418" lon="12.780602"><ele>559.1</ele></trkpt>
<trkpt lat="47.872967" lon="12.781643"><ele>554.4</ele></trkpt>
<trkpt lat="47.872923" lon="12.782792"><ele>550.9</ele></trkpt>
<trkpt lat="47.871693" lon="12.783974"><ele>549.7</ele></trkpt>
<trkpt lat="47.871387" lon="12.784320"><ele>547.0</ele></trkpt>
<trkpt lat="47.870514" lon="12.785589"><ele>546.0</ele></trkpt>
<trkpt lat="47.869767" lon="12.787508"><ele>547.1</ele></trkpt>
<trkpt lat="47.869140" lon="12.789523"><ele>546.7</ele></trkpt>
<trkpt lat="47.868462" lon="12.791364"><ele>545.2</ele></trkpt>
<trkpt lat="47.867654" lon="12.793071"><ele>544.8</ele></trkpt>
<trkpt lat="47.866840" lon="12.794669"><ele>542.3</ele></trkpt>
<trkpt lat="47.866592" lon="12.795374"><ele>539.3</ele></trkpt>
<trkpt lat="47.865952" lon="12.794447"><ele>542.4</ele></trkpt>
<trkpt lat="47.864730" lon="12.794810"><ele>542.6</ele></trkpt>
<trkpt lat="47.863895" lon="12.795290"><ele>541.0</ele></trkpt>
<trkpt lat="47.862743" lon="12.796372"><ele>541.1</ele></trkpt>
<trkpt lat="47.862569" lon="12.797051"><ele>539.8</ele></trkpt>
<trkpt lat="47.862029" lon="12.797679"><ele>531.1</ele></trkpt>
<trkpt lat="47.861246" lon="12.797679"><ele>529.5</ele></trkpt>
<trkpt lat="47.860928" lon="12.799725"><ele>525.3</ele></trkpt>
<trkpt lat="47.860742" lon="12.800227"><ele>525.9</ele></trkpt>
<trkpt lat="47.859891" lon="12.801887"><ele>527.4</ele></trkpt>
<trkpt lat="47.859891" lon="12.801887"><ele>527.4</ele></trkpt>
<trkpt lat="47.858780" lon="12.802947"><ele>525.2</ele></trkpt>
<trkpt lat="47.857988" lon="12.804499"><ele>515.2</ele></trkpt>
<trkpt lat="47.857606" lon="12.806611"><ele>519.1</ele></trkpt>
<trkpt lat="47.857593" lon="12.807115"><ele>523.2</ele></trkpt>
<trkpt lat="47.856799" lon="12.808270"><ele>518.8</ele></trkpt>
<trkpt lat="47.855980" lon="12.809909"><ele>514.7</ele></trkpt>
<trkpt lat="47.855081" lon="12.811546"><ele>500.1</ele></trkpt>
<trkpt lat="47.855076" lon="12.811553"><ele>499.9</ele></trkpt>
<trkpt lat="47.854186" lon="12.812456"><ele>490.0</ele></trkpt>
<trkpt lat="47.853034" lon="12.813030"><ele>491.9</ele></trkpt>
<trkpt lat="47.853152" lon="12.814668"><ele>491.1</ele></trkpt>
<trkpt lat="47.852870" lon="12.815154"><ele>491.7</ele></trkpt>
<trkpt lat="47.852765" lon="12.815974"><ele>493.6</ele></trkpt>
<trkpt lat="47.852258" lon="12.816243"><ele>494.1</ele></trkpt>
<trkpt lat="47.851550" lon="12.817001"><ele>492.0</ele></trkpt>
<trkpt lat="47.851590" lon="12.817619"><ele>491.5</ele></trkpt>
<trkpt lat="47.851397" lon="12.817670"><ele>491.6</ele></trkpt>
<trkpt lat="47.851167" lon="12.818704"><ele>494.6</ele></trkpt>
<trkpt lat="47.850798" lon="12.819184"><ele>495.0</ele></trkpt>
<trkpt lat="47.850435" lon="12.819276"><ele>494.7</ele></trkpt>
<trkpt lat="47.850471" lon="12.820330"><ele>497.6</ele></trkpt>
<trkpt lat="47.849819" lon="12.820491"><ele>498.1</ele></trkpt>
<trkpt lat="47.849709" lon="12.822546"><ele>504.3</ele></trkpt>
<trkpt lat="47.849711" lon="12.822664"><ele>505.2</ele></trkpt>
<trkpt lat="47.850053" lon="12.824357"><ele>500.0</ele></trkpt>
<trkpt lat="47.850196" lon="12.825958"><ele>493.2</ele></trkpt>
<trkpt lat="47.849975" lon="12.828007"><ele>486.2</ele></trkpt>
<trkpt lat="47.849778" lon="12.829854"><ele>488.3</ele></trkpt>
<trkpt lat="47.849521" lon="12.830690"><ele>491.6</ele></trkpt>
<trkpt lat="47.849011" lon="12.831546"><ele>493.5</ele></trkpt>
<trkpt lat="47.849141" lon="12.831980"><ele>496.9</ele></trkpt>
<trkpt lat="47.848816" lon="12.833567"><ele>499.8</ele></trkpt>
<trkpt lat="47.849148" lon="12.834098"><ele>502.5</ele></trkpt>
<trkpt lat="47.849027" lon="12.834501"><ele>503.5</ele></trkpt>
<trkpt lat="47.848548" lon="12.835247"><ele>501.4</ele></trkpt>
<trkpt lat="47.848309" lon="12.834997"><ele>502.1</ele></trkpt>
<trkpt lat="47.848396" lon="12.834807"><ele>501.1</ele></trkpt>
<trkpt lat="47.847463" lon="12.834246"><ele>497.9</ele></trkpt>
<trkpt lat="47.847932" lon="12.832810"><ele>493.9</ele></trkpt>
<trkpt lat="47.847311" lon="12.832246"><ele>485.1</ele></trkpt>
<trkpt lat="47.847317" lon="12.830869"><ele>484.1</ele></trkpt>
<trkpt lat="47.846692" lon="12.830742"><ele>485.0</ele></trkpt>
<trkpt lat="47.846300" lon="12.829446"><ele>485.0</ele></trkpt>
<trkpt lat="47.846502" lon="12.828176"><ele>484.2</ele></trkpt>
<trkpt lat="47.846230" lon="12.827799"><ele>485.0</ele></trkpt>
<trkpt lat="47.846118" lon="12.827226"><ele>490.9</ele></trkpt>
<trkpt lat="47.846535" lon="12.826657"><ele>493.5</ele></trkpt>
<trkpt lat="47.846604" lon="12.826287"><ele>497.5</ele></trkpt>
<trkpt lat="47.846182" lon="12.826552"><ele>497.9</ele></trkpt>
<trkpt lat="47.845997" lon="12.826421"><ele>499.3</ele></trkpt>
<trkpt lat="47.845464" lon="12.826877"><ele>500.3</ele></trkpt>
<trkpt lat="47.844121" lon="12.827267"><ele>502.5</ele></trkpt>
<trkpt lat="47.843911" lon="12.827335"><ele>502.7</ele></trkpt>
<trkpt lat="47.842640" lon="12.826658"><ele>494.4</ele></trkpt>
<trkpt lat="47.842338" lon="12.826479"><ele>494.0</ele></trkpt>
<trkpt lat="47.841417" lon="12.826410"><ele>496.9</ele></trkpt>
<trkpt lat="47.840860" lon="12.827077"><ele>509.9</ele></trkpt>
<trkpt lat="47.839987" lon="12.827164"><ele>510.8</ele></trkpt>
<trkpt lat="47.839432" lon="12.827661"><ele>501.3</ele></trkpt>
<trkpt lat="47.838126" lon="12.827029"><ele>518.9</ele></trkpt>
<trkpt lat="47.837964" lon="12.827001"><ele>521.8</ele></trkpt>
<trkpt lat="47.836812" lon="12.827271"><ele>520.7</ele></trkpt>
<trkpt lat="47.835602" lon="12.828337"><ele>521.6</ele></trkpt>
<trkpt lat="47.834786" lon="12.828978"><ele>517.7</ele></trkpt>
<trkpt lat="47.833755" lon="12.830070"><ele>515.9</ele></trkpt>
<trkpt lat="47.833546" lon="12.830607"><ele>516.1</ele></trkpt>
<trkpt lat="47.832678" lon="12.830493"><ele>512.5</ele></trkpt>
<trkpt lat="47.831740" lon="12.831050"><ele>530.0</ele></trkpt>
<trkpt lat="47.831363" lon="12.831851"><ele>520.8</ele></trkpt>
<trkpt lat="47.830551" lon="12.832507"><ele>519.9</ele></trkpt>
<trkpt lat="47.830161" lon="12.832447"><ele>520.6</ele></trkpt>
<trkpt lat="47.828854" lon="12.831560"><ele>515.8</ele></trkpt>
<trkpt lat="47.827737" lon="12.830878"><ele>518.3</ele></trkpt>
<trkpt lat="47.826363" lon="12.830245"><ele>523.3</ele></trkpt>
<trkpt lat="47.825686" lon="12.829951"><ele>529.9</ele></trkpt>
<trkpt lat="47.825235" lon="12.829807"><ele>533.7</ele></trkpt>
<trkpt lat="47.824391" lon="12.829929"><ele>543.1</ele></trkpt>
<trkpt lat="47.823973" lon="12.831949"><ele>536.5</ele></trkpt>
<trkpt lat="47.823818" lon="12.832390"><ele>532.7</ele></trkpt>
<trkpt lat="47.822471" lon="12.832769"><ele>540.1</ele></trkpt>
<trkpt lat="47.821922" lon="12.832876"><ele>535.4</ele></trkpt>
<trkpt lat="47.821209" lon="12.834246"><ele>536.2</ele></trkpt>
<trkpt lat="47.819736" lon="12.834373"><ele>553.3</ele></trkpt>
<trkpt lat="47.819577" lon="12.834480"><ele>556.2</ele></trkpt>
<trkpt lat="47.818948" lon="12.835648"><ele>559.1</ele></trkpt>
<trkpt lat="47.817814" lon="12.836773"><ele>558.7</ele></trkpt>
<trkpt lat="47.816755" lon="12.837580"><ele>554.4</ele></trkpt>
<trkpt lat="47.815786" lon="12.839001"><ele>560.8</ele></trkpt>
<trkpt lat="47.815557" lon="12.839292"><ele>562.9</ele></trkpt>
<trkpt lat="47.815076" lon="12.839450"><ele>567.8</ele></trkpt>
<trkpt lat="47.814384" lon="12.840059"><ele>577.1</ele></trkpt>
<trkpt lat="47.813294" lon="12.840365"><ele>586.2</ele></trkpt>
<trkpt lat="47.811954" lon="12.840008"><ele>588.0</ele></trkpt>
<trkpt lat="47.811457" lon="12.839816"><ele>594.1</ele></trkpt>
<trkpt lat="47.811034" lon="12.841876"><ele>584.5</ele></trkpt>
<trkpt lat="47.811004" lon="12.842085"><ele>584.2</ele></trkpt>
<trkpt lat="47.811279" lon="12.843769"><ele>585.2</ele></trkpt>
<trkpt lat="47.811010" lon="12.845713"><ele>582.4</ele></trkpt>
<trkpt lat="47.810845" lon="12.846455"><ele>582.7</ele></trkpt>
<trkpt lat="47.809810" lon="12.847509"><ele>576.3</ele></trkpt>
<trkpt lat="47.808437" lon="12.847535"><ele>577.4</ele></trkpt>
<trkpt lat="47.807691" lon="12.847599"><ele>574.6</ele></trkpt>
<trkpt lat="47.806865" lon="12.848626"><ele>569.2</ele></trkpt>
<trkpt lat="47.805916" lon="12.850064"><ele>561.8</ele></trkpt>
<trkpt lat="47.805537" lon="12.850745"><ele>561.2</ele></trkpt>
<trkpt lat="47.805434" lon="12.851967"><ele>556.6</ele></trkpt>
<trkpt lat="47.804831" lon="12.853053"><ele>554.8</ele></trkpt>
<trkpt lat="47.804694" lon="12.854456"><ele>554.8</ele></trkpt>
<trkpt lat="47.804190" lon="12.855468"><ele>554.9</ele></trkpt>
<trkpt lat="47.802967" lon="12.856672"><ele>553.3</ele></trkpt>
<trkpt lat="47.802954" lon="12.856685"><ele>553.5</ele></trkpt>
<trkpt lat="47.802238" lon="12.856984"><ele>551.7</ele></trkpt>
<trkpt lat="47.801910" lon="12.857817"><ele>544.0</ele></trkpt>
<trkpt lat="47.801951" lon="12.858424"><ele>542.1</ele></trkpt>
<trkpt lat="47.801319" lon="12.857484"><ele>533.4</ele></trkpt>
<trkpt lat="47.800890" lon="12.858821"><ele>531.0</ele></trkpt>
<trkpt lat="47.799808" lon="12.860152"><ele>526.1</ele></trkpt>
<trkpt lat="47.799804" lon="12.860157"><ele>526.1</ele></trkpt>
<trkpt lat="47.798846" lon="12.861189"><ele>522.5</ele></trkpt>
<trkpt lat="47.798182" lon="12.861635"><ele>518.5</ele></trkpt>
<trkpt lat="47.797331" lon="12.862746"><ele>516.4</ele></trkpt>
<trkpt lat="47.796126" lon="12.863391"><ele>512.8</ele></trkpt>
<trkpt lat="47.795016" lon="12.864601"><ele>508.0</ele></trkpt>
<trkpt lat="47.793888" lon="12.865829"><ele>504.0</ele></trkpt>
<trkpt lat="47.792816" lon="12.867128"><ele>499.0</ele></trkpt>
<trkpt lat="47.792611" lon="12.867349"><ele>498.8</ele></trkpt>
<trkpt lat="47.791162" lon="12.868031"><ele>498.1</ele></trkpt>
<trkpt lat="47.790439" lon="12.868331"><ele>495.6</ele></trkpt>
<trkpt lat="47.789372" lon="12.869568"><ele>493.0</ele></trkpt>
<trkpt lat="47.789321" lon="12.869683"><ele>493.3</ele></trkpt>
<trkpt lat="47.788548" lon="12.869919"><ele>490.5</ele></trkpt>
<trkpt lat="47.788682" lon="12.870715"><ele>489.1</ele></trkpt>
<trkpt lat="47.788512" lon="12.871152"><ele>490.0</ele></trkpt>
<trkpt lat="47.787637" lon="12.872146"><ele>489.4</ele></trkpt>
<trkpt lat="47.787146" lon="12.872293"><ele>488.0</ele></trkpt>
<trkpt lat="47.786031" lon="12.873451"><ele>489.9</ele></trkpt>
<trkpt lat="47.786541" lon="12.874853"><ele>487.1</ele></trkpt>
<trkpt lat="47.786589" lon="12.875759"><ele>485.0</ele></trkpt>
<trkpt lat="47.786412" lon="12.876377"><ele>482.2</ele></trkpt>
<trkpt lat="47.785420" lon="12.877820"><ele>480.3</ele></trkpt>
<trkpt lat="47.784414" lon="12.879478"><ele>478.0</ele></trkpt>
<trkpt lat="47.783413" lon="12.881184"><ele>474.9</ele></trkpt>
<trkpt lat="47.783147" lon="12.881637"><ele>475.7</ele></trkpt>
<trkpt lat="47.782634" lon="12.883212"><ele>474.1</ele></trkpt>
<trkpt lat="47.782122" lon="12.883716"><ele>475.2</ele></trkpt>
<trkpt lat="47.781622" lon="12.884667"><ele>473.2</ele></trkpt>
<trkpt lat="47.780911" lon="12.885157"><ele>471.7</ele></trkpt>
<trkpt lat="47.781351" lon="12.885740"><ele>472.0</ele></trkpt>
<trkpt lat="47.780324" lon="12.886793"><ele>471.0</ele></trkpt>
<trkpt lat="47.779903" lon="12.888463"><ele>470.7</ele></trkpt>
<trkpt lat="47.779094" lon="12.889059"><ele>467.3</ele></trkpt>
<trkpt lat="47.778022" lon="12.890296"><ele>465.7</ele></trkpt>
<trkpt lat="47.777430" lon="12.891054"><ele>464.0</ele></trkpt>
<trkpt lat="47.776692" lon="12.892722"><ele>464.0</ele></trkpt>
<trkpt lat="47.776313" lon="12.893714"><ele>461.6</ele></trkpt>
<trkpt lat="47.775395" lon="12.895462"><ele>460.4</ele></trkpt>
<trkpt lat="47.774539" lon="12.897066"><ele>460.0</ele></trkpt>
<trkpt lat="47.773626" lon="12.898767"><ele>456.5</ele></trkpt>
<trkpt lat="47.773503" lon="12.899102"><ele>456.9</ele></trkpt>
<trkpt lat="47.772202" lon="12.899885"><ele>455.9</ele></trkpt>
<trkpt lat="47.772068" lon="12.900055"><ele>455.0</ele></trkpt>
<trkpt lat="47.771405" lon="12.901944"><ele>453.9</ele></trkpt>
<trkpt lat="47.770695" lon="12.903897"><ele>454.0</ele></trkpt>
<trkpt lat="47.769949" lon="12.905748"><ele>452.9</ele></trkpt>
<trkpt lat="47.769469" lon="12.906970"><ele>455.2</ele></trkpt>
<trkpt lat="47.770077" lon="12.907675"><ele>458.0</ele></trkpt>
<trkpt lat="47.769165" lon="12.909230"><ele>454.0</ele></trkpt>
<trkpt lat="47.769139" lon="12.909324"><ele>454.0</ele></trkpt>
<trkpt lat="47.769588" lon="12.911226"><ele>454.3</ele></trkpt>
<trkpt lat="47.769790" lon="12.911775"><ele>454.3</ele></trkpt>
<trkpt lat="47.769523" lon="12.912569"><ele>457.0</ele></trkpt>
<trkpt lat="47.768625" lon="12.912084"><ele>454.0</ele></trkpt>
<trkpt lat="47.768286" lon="12.911408"><ele>453.0</ele></trkpt>
<trkpt lat="47.767889" lon="12.911210"><ele>453.2</ele></trkpt>
<trkpt lat="47.767715" lon="12.911629"><ele>453.7</ele></trkpt>
<trkpt lat="47.767389" lon="12.911841"><ele>451.4</ele></trkpt>
<trkpt lat="47.766019" lon="12.911750"><ele>451.0</ele></trkpt>
<trkpt lat="47.765966" lon="12.911796"><ele>451.0</ele></trkpt>
<trkpt lat="47.765492" lon="12.912505"><ele>451.2</ele></trkpt>
<trkpt lat="47.765370" lon="12.913527"><ele>452.3</ele></trkpt>
<trkpt lat="47.764592" lon="12.913447"><ele>450.1</ele></trkpt>
<trkpt lat="47.764432" lon="12.913111"><ele>450.0</ele></trkpt>
<trkpt lat="47.763885" lon="12.913379"><ele>450.0</ele></trkpt>
<trkpt lat="47.762442" lon="12.912817"><ele>449.0</ele></trkpt>
<trkpt lat="47.762348" lon="12.912779"><ele>449.0</ele></trkpt>
<trkpt lat="47.762394" lon="12.913533"><ele>449.0</ele></trkpt>
<trkpt lat="47.762171" lon="12.914155"><ele>450.0</ele></trkpt>
<trkpt lat="47.761248" lon="12.913381"><ele>451.1</ele></trkpt>
<trkpt lat="47.760249" lon="12.912168"><ele>451.1</ele></trkpt>
<trkpt lat="47.759681" lon="12.911087"><ele>451.1</ele></trkpt>
<trkpt lat="47.759194" lon="12.910957"><ele>452.3</ele></trkpt>
<trkpt lat="47.758070" lon="12.909591"><ele>451.0</ele></trkpt>
<trkpt lat="47.757110" lon="12.908335"><ele>451.0</ele></trkpt>
<trkpt lat="47.756202" lon="12.909920"><ele>451.9</ele></trkpt>
<trkpt lat="47.755975" lon="12.910304"><ele>453.0</ele></trkpt>
<trkpt lat="47.754798" lon="12.908904"><ele>452.7</ele></trkpt>
<trkpt lat="47.753666" lon="12.907539"><ele>452.3</ele></trkpt>
<trkpt lat="47.752814" lon="12.906503"><ele>452.1</ele></trkpt>
<trkpt lat="47.752692" lon="12.906605"><ele>452.3</ele></trkpt>
<trkpt lat="47.752041" lon="12.905976"><ele>454.5</ele></trkpt>
<trkpt lat="47.751005" lon="12.904685"><ele>456.3</ele></trkpt>
<trkpt lat="47.750880" lon="12.904529"><ele>455.9</ele></trkpt>
<trkpt lat="47.750445" lon="12.904478"><ele>454.5</ele></trkpt>
<trkpt lat="47.749898" lon="12.903293"><ele>458.3</ele></trkpt>
<trkpt lat="47.749191" lon="12.902442"><ele>457.1</ele></trkpt>
<trkpt lat="47.748616" lon="12.902192"><ele>451.1</ele></trkpt>
<trkpt lat="47.748226" lon="12.901550"><ele>453.1</ele></trkpt>
<trkpt lat="47.748542" lon="12.900782"><ele>467.0</ele></trkpt>
<trkpt lat="47.747599" lon="12.899938"><ele>457.0</ele></trkpt>
<trkpt lat="47.746683" lon="12.900793"><ele>459.1</ele></trkpt>
<trkpt lat="47.745282" lon="12.900783"><ele>454.2</ele></trkpt>
<trkpt lat="47.744878" lon="12.900827"><ele>454.4</ele></trkpt>
<trkpt lat="47.744234" lon="12.901478"><ele>455.6</ele></trkpt>
<trkpt lat="47.743486" lon="12.899774"><ele>455.5</ele></trkpt>
<trkpt lat="47.742709" lon="12.897977"><ele>459.2</ele></trkpt>
<trkpt lat="47.741940" lon="12.896157"><ele>462.2</ele></trkpt>
<trkpt lat="47.741149" lon="12.894366"><ele>467.9</ele></trkpt>
<trkpt lat="47.740871" lon="12.893655"><ele>462.9</ele></trkpt>
<trkpt lat="47.740420" lon="12.893505"><ele>468.4</ele></trkpt>
<trkpt lat="47.740206" lon="12.892743"><ele>464.0</ele></trkpt>
<trkpt lat="47.739559" lon="12.892888"><ele>465.2</ele></trkpt>
<trkpt lat="47.739380" lon="12.892474"><ele>461.7</ele></trkpt>
<trkpt lat="47.739059" lon="12.892616"><ele>461.4</ele></trkpt>
<trkpt lat="47.738557" lon="12.893727"><ele>465.9</ele></trkpt>
<trkpt lat="47.737294" lon="12.893123"><ele>465.8</ele></trkpt>
<trkpt lat="47.736845" lon="12.892688"><ele>464.9</ele></trkpt>
<trkpt lat="47.735964" lon="12.891039"><ele>460.7</ele></trkpt>
<trkpt lat="47.735913" lon="12.890981"><ele>460.5</ele></trkpt>
<trkpt lat="47.734570" lon="12.890228"><ele>464.0</ele></trkpt>
<trkpt lat="47.733919" lon="12.889805"><ele>464.0</ele></trkpt>
<trkpt lat="47.732702" lon="12.888857"><ele>463.4</ele></trkpt>
<trkpt lat="47.731702" lon="12.887899"><ele>465.8</ele></trkpt>
<trkpt lat="47.730708" lon="12.887277"><ele>466.8</ele></trkpt>
<trkpt lat="47.729595" lon="12.885887"><ele>470.0</ele></trkpt>
<trkpt lat="47.728704" lon="12.884653"><ele>467.7</ele></trkpt>
<trkpt lat="47.727719" lon="12.883943"><ele>471.1</ele></trkpt>
<trkpt lat="47.727494" lon="12.883113"><ele>470.2</ele></trkpt>
<trkpt lat="47.726900" lon="12.883842"><ele>474.7</ele></trkpt>
</trkseg></trk></gpx>