<?xml version="1.0" encoding="UTF-8"?>
<gpx version="1.1" creator="Bad Reichenhall gravel – saját gravel-router (OSM/Overture + SRTM)" xmlns="http://www.topografix.com/GPX/1/1">
<metadata><name>Hochstaufen-kör</name><desc>GENERÁLT NYOMVONAL – A Staufen-masszívum teljes megkerülése. Pidingen és Angeren át a Stoißberg alatti dombokon nyugatra fordulsz, Inzell felé ereszkedsz, majd Weißbachon és a Mauthäuslon át a Saalach völgyébe érsz vissza. Változatos: lankás rétek északon, szűk erdős völgyek délen.</desc><copyright author="OpenStreetMap contributors (via Overture Maps)"><license>https://opendatacommons.org/licenses/odbl/</license></copyright><time>2026-10-03T21:46:46Z</time></metadata>
<wpt lat="47.7596" lon="12.9114"><name>Piding</name><type>town</type></wpt>
<wpt lat="47.8039" lon="12.8559"><name>Anger</name><type>town</type></wpt>
<wpt lat="47.8336" lon="12.7422"><name>Neukirchen am Teisenberg</name><type>town</type></wpt>
<wpt lat="47.7622" lon="12.7517"><name>Inzell</name><type>town</type></wpt>
<wpt lat="47.729" lon="12.7597"><name>Himmelsleiter (sóvezeték)</name><type>history</type></wpt>
<wpt lat="47.7116" lon="12.785"><name>Mauthäusl</name><type>hut</type></wpt>
<wpt lat="47.7193" lon="12.8219"><name>Thumsee</name><type>lake</type></wpt>
<trk><name>Hochstaufen-kör</name><type>gravel</type><trkseg>
<trkpt lat="47.726900" lon="12.883842"><ele>474.7</ele></trkpt>
<trkpt lat="47.727494" lon="12.883113"><ele>470.2</ele></trkpt>
<trkpt lat="47.727719" lon="12.883943"><ele>471.1</ele></trkpt>
<trkpt lat="47.728704" lon="12.884653"><ele>467.7</ele></trkpt>
<trkpt lat="47.729731" lon="12.886062"><ele>468.9</ele></trkpt>
<trkpt lat="47.730708" lon="12.887277"><ele>466.8</ele></trkpt>
<trkpt lat="47.731702" lon="12.887899"><ele>465.8</ele></trkpt>
<trkpt lat="47.732859" lon="12.888988"><ele>463.3</ele></trkpt>
<trkpt lat="47.733919" lon="12.889805"><ele>464.0</ele></trkpt>
<trkpt lat="47.735182" lon="12.890496"><ele>464.3</ele></trkpt>
<trkpt lat="47.735557" lon="12.890716"><ele>462.4</ele></trkpt>
<trkpt lat="47.736228" lon="12.891388"><ele>461.0</ele></trkpt>
<trkpt lat="47.737171" lon="12.889930"><ele>462.2</ele></trkpt>
<trkpt lat="47.737239" lon="12.889804"><ele>462.0</ele></trkpt>
<trkpt lat="47.737978" lon="12.890699"><ele>461.0</ele></trkpt>
<trkpt lat="47.738960" lon="12.889148"><ele>459.7</ele></trkpt>
<trkpt lat="47.738985" lon="12.889117"><ele>459.7</ele></trkpt>
<trkpt lat="47.739735" lon="12.890770"><ele>458.2</ele></trkpt>
<trkpt lat="47.740027" lon="12.891500"><ele>458.2</ele></trkpt>
<trkpt lat="47.740805" lon="12.892594"><ele>460.2</ele></trkpt>
<trkpt lat="47.741743" lon="12.894348"><ele>460.8</ele></trkpt>
<trkpt lat="47.742266" lon="12.895494"><ele>459.0</ele></trkpt>
<trkpt lat="47.743626" lon="12.896191"><ele>456.8</ele></trkpt>
<trkpt lat="47.744554" lon="12.896710"><ele>460.6</ele></trkpt>
<trkpt lat="47.745584" lon="12.898214"><ele>458.0</ele></trkpt>
<trkpt lat="47.746300" lon="12.900075"><ele>458.0</ele></trkpt>
<trkpt lat="47.746535" lon="12.900820"><ele>459.0</ele></trkpt>
<trkpt lat="47.747599" lon="12.899938"><ele>457.0</ele></trkpt>
<trkpt lat="47.748542" lon="12.900782"><ele>467.0</ele></trkpt>
<trkpt lat="47.748204" lon="12.901429"><ele>454.6</ele></trkpt>
<trkpt lat="47.748616" lon="12.902192"><ele>451.1</ele></trkpt>
<trkpt lat="47.749440" lon="12.902699"><ele>460.2</ele></trkpt>
<trkpt lat="47.750209" lon="12.903734"><ele>456.4</ele></trkpt>
<trkpt lat="47.750445" lon="12.904478"><ele>454.5</ele></trkpt>
<trkpt lat="47.750880" lon="12.904529"><ele>455.9</ele></trkpt>
<trkpt lat="47.751969" lon="12.905887"><ele>454.8</ele></trkpt>
<trkpt lat="47.752041" lon="12.905976"><ele>454.5</ele></trkpt>
<trkpt lat="47.752692" lon="12.906605"><ele>452.3</ele></trkpt>
<trkpt lat="47.752814" lon="12.906503"><ele>452.1</ele></trkpt>
<trkpt lat="47.753927" lon="12.907856"><ele>453.0</ele></trkpt>
<trkpt lat="47.755062" lon="12.909223"><ele>451.6</ele></trkpt>
<trkpt lat="47.755975" lon="12.910304"><ele>453.0</ele></trkpt>
<trkpt lat="47.756901" lon="12.908690"><ele>451.2</ele></trkpt>
<trkpt lat="47.757110" lon="12.908334"><ele>451.0</ele></trkpt>
<trkpt lat="47.758200" lon="12.909740"><ele>451.0</ele></trkpt>
<trkpt lat="47.759194" lon="12.910957"><ele>452.3</ele></trkpt>
<trkpt lat="47.759681" lon="12.911087"><ele>451.1</ele></trkpt>
<trkpt lat="47.759823" lon="12.911380"><ele>450.6</ele></trkpt>
<trkpt lat="47.759712" lon="12.911579"><ele>451.7</ele></trkpt>
<trkpt lat="47.760047" lon="12.910710"><ele>449.7</ele></trkpt>
<trkpt lat="47.760676" lon="12.911566"><ele>451.0</ele></trkpt>
<trkpt lat="47.761981" lon="12.912557"><ele>449.7</ele></trkpt>
<trkpt lat="47.762179" lon="12.912694"><ele>449.0</ele></trkpt>
<trkpt lat="47.763617" lon="12.913281"><ele>450.8</ele></trkpt>
<trkpt lat="47.763964" lon="12.913383"><ele>449.7</ele></trkpt>
<trkpt lat="47.764501" lon="12.912998"><ele>450.6</ele></trkpt>
<trkpt lat="47.765186" lon="12.911056"><ele>449.1</ele></trkpt>
<trkpt lat="47.765272" lon="12.910757"><ele>448.0</ele></trkpt>
<trkpt lat="47.765553" lon="12.910896"><ele>449.0</ele></trkpt>
<trkpt lat="47.766958" lon="12.910685"><ele>450.5</ele></trkpt>
<trkpt lat="47.767285" lon="12.910636"><ele>449.5</ele></trkpt>
<trkpt lat="47.767738" lon="12.909601"><ele>452.4</ele></trkpt>
<trkpt lat="47.768242" lon="12.909947"><ele>453.7</ele></trkpt>
<trkpt lat="47.768360" lon="12.909819"><ele>454.1</ele></trkpt>
<trkpt lat="47.768337" lon="12.908251"><ele>455.7</ele></trkpt>
<trkpt lat="47.768032" lon="12.907997"><ele>454.8</ele></trkpt>
<trkpt lat="47.768205" lon="12.907192"><ele>454.6</ele></trkpt>
<trkpt lat="47.767974" lon="12.906466"><ele>455.0</ele></trkpt>
<trkpt lat="47.768055" lon="12.905969"><ele>454.5</ele></trkpt>
<trkpt lat="47.767783" lon="12.905635"><ele>454.3</ele></trkpt>
<trkpt lat="47.767731" lon="12.905277"><ele>454.3</ele></trkpt>
<trkpt lat="47.768251" lon="12.903212"><ele>456.6</ele></trkpt>
<trkpt lat="47.768691" lon="12.901083"><ele>455.6</ele></trkpt>
<trkpt lat="47.769127" lon="12.899051"><ele>456.9</ele></trkpt>
<trkpt lat="47.769373" lon="12.897995"><ele>456.5</ele></trkpt>
<trkpt lat="47.769479" lon="12.897053"><ele>458.7</ele></trkpt>
<trkpt lat="47.770413" lon="12.895525"><ele>458.1</ele></trkpt>
<trkpt lat="47.771441" lon="12.894103"><ele>459.0</ele></trkpt>
<trkpt lat="47.771570" lon="12.893914"><ele>459.6</ele></trkpt>
<trkpt lat="47.772301" lon="12.892242"><ele>460.6</ele></trkpt>
<trkpt lat="47.772737" lon="12.891415"><ele>461.6</ele></trkpt>
<trkpt lat="47.773868" lon="12.890015"><ele>463.0</ele></trkpt>
<trkpt lat="47.774802" lon="12.888953"><ele>462.3</ele></trkpt>
<trkpt lat="47.776194" lon="12.888189"><ele>465.1</ele></trkpt>
<trkpt lat="47.776981" lon="12.887787"><ele>465.0</ele></trkpt>
<trkpt lat="47.777373" lon="12.886972"><ele>465.4</ele></trkpt>
<trkpt lat="47.778649" lon="12.885812"><ele>467.1</ele></trkpt>
<trkpt lat="47.778868" lon="12.885618"><ele>468.6</ele></trkpt>
<trkpt lat="47.779622" lon="12.883799"><ele>469.8</ele></trkpt>
<trkpt lat="47.780405" lon="12.881898"><ele>472.9</ele></trkpt>
<trkpt lat="47.781150" lon="12.880110"><ele>473.7</ele></trkpt>
<trkpt lat="47.781356" lon="12.879643"><ele>474.0</ele></trkpt>
<trkpt lat="47.782334" lon="12.878026"><ele>475.4</ele></trkpt>
<trkpt lat="47.782596" lon="12.877687"><ele>476.7</ele></trkpt>
<trkpt lat="47.782727" lon="12.876984"><ele>477.0</ele></trkpt>
<trkpt lat="47.784077" lon="12.876082"><ele>482.3</ele></trkpt>
<trkpt lat="47.785106" lon="12.875413"><ele>483.2</ele></trkpt>
<trkpt lat="47.785807" lon="12.875145"><ele>485.4</ele></trkpt>
<trkpt lat="47.786020" lon="12.874158"><ele>488.0</ele></trkpt>
<trkpt lat="47.785715" lon="12.873139"><ele>490.7</ele></trkpt>
<trkpt lat="47.786031" lon="12.873451"><ele>489.9</ele></trkpt>
<trkpt lat="47.787137" lon="12.872303"><ele>488.0</ele></trkpt>
<trkpt lat="47.787146" lon="12.872293"><ele>488.0</ele></trkpt>
<trkpt lat="47.787637" lon="12.872146"><ele>489.4</ele></trkpt>
<trkpt lat="47.788512" lon="12.871152"><ele>490.0</ele></trkpt>
<trkpt lat="47.788682" lon="12.870715"><ele>489.1</ele></trkpt>
<trkpt lat="47.788548" lon="12.869919"><ele>490.5</ele></trkpt>
<trkpt lat="47.789321" lon="12.869683"><ele>493.3</ele></trkpt>
<trkpt lat="47.790425" lon="12.868348"><ele>495.5</ele></trkpt>
<trkpt lat="47.790439" lon="12.868331"><ele>495.6</ele></trkpt>
<trkpt lat="47.791849" lon="12.867714"><ele>496.9</ele></trkpt>
<trkpt lat="47.792611" lon="12.867349"><ele>498.8</ele></trkpt>
<trkpt lat="47.793756" lon="12.865983"><ele>503.5</ele></trkpt>
<trkpt lat="47.794879" lon="12.864735"><ele>507.5</ele></trkpt>
<trkpt lat="47.796068" lon="12.863451"><ele>512.5</ele></trkpt>
<trkpt lat="47.796126" lon="12.863391"><ele>512.8</ele></trkpt>
<trkpt lat="47.797331" lon="12.862746"><ele>516.4</ele></trkpt>
<trkpt lat="47.798182" lon="12.861635"><ele>518.5</ele></trkpt>
<trkpt lat="47.798846" lon="12.861189"><ele>522.5</ele></trkpt>
<trkpt lat="47.799804" lon="12.860157"><ele>526.1</ele></trkpt>
<trkpt lat="47.800834" lon="12.858865"><ele>531.0</ele></trkpt>
<trkpt lat="47.800890" lon="12.858821"><ele>531.0</ele></trkpt>
<trkpt lat="47.801319" lon="12.857484"><ele>533.4</ele></trkpt>
<trkpt lat="47.801951" lon="12.858424"><ele>542.1</ele></trkpt>
<trkpt lat="47.801910" lon="12.857817"><ele>544.0</ele></trkpt>
<trkpt lat="47.802238" lon="12.856984"><ele>551.7</ele></trkpt>
<trkpt lat="47.802954" lon="12.856685"><ele>553.5</ele></trkpt>
<trkpt lat="47.804102" lon="12.855560"><ele>554.3</ele></trkpt>
<trkpt lat="47.804190" lon="12.855468"><ele>554.9</ele></trkpt>
<trkpt lat="47.804591" lon="12.854719"><ele>555.6</ele></trkpt>
<trkpt lat="47.804806" lon="12.853870"><ele>555.3</ele></trkpt>
<trkpt lat="47.804831" lon="12.853053"><ele>554.8</ele></trkpt>
<trkpt lat="47.805434" lon="12.851967"><ele>556.6</ele></trkpt>
<trkpt lat="47.805659" lon="12.850448"><ele>560.4</ele></trkpt>
<trkpt lat="47.806603" lon="12.849019"><ele>568.3</ele></trkpt>
<trkpt lat="47.807623" lon="12.847749"><ele>573.9</ele></trkpt>
<trkpt lat="47.808006" lon="12.846425"><ele>576.1</ele></trkpt>
<trkpt lat="47.808514" lon="12.845545"><ele>581.4</ele></trkpt>
<trkpt lat="47.809667" lon="12.844076"><ele>582.7</ele></trkpt>
<trkpt lat="47.809762" lon="12.843951"><ele>582.9</ele></trkpt>
<trkpt lat="47.810286" lon="12.843544"><ele>585.0</ele></trkpt>
<trkpt lat="47.811002" lon="12.842488"><ele>584.0</ele></trkpt>
<trkpt lat="47.811371" lon="12.840349"><ele>592.7</ele></trkpt>
<trkpt lat="47.811457" lon="12.839816"><ele>594.1</ele></trkpt>
<trkpt lat="47.812307" lon="12.838055"><ele>608.1</ele></trkpt>
<trkpt lat="47.812549" lon="12.836708"><ele>604.1</ele></trkpt>
<trkpt lat="47.813154" lon="12.836016"><ele>603.4</ele></trkpt>
<trkpt lat="47.813897" lon="12.834648"><ele>609.6</ele></trkpt>
<trkpt lat="47.813249" lon="12.834184"><ele>616.2</ele></trkpt>
<trkpt lat="47.813142" lon="12.832937"><ele>632.0</ele></trkpt>
<trkpt lat="47.812675" lon="12.832475"><ele>643.0</ele></trkpt>
<trkpt lat="47.813256" lon="12.830671"><ele>667.2</ele></trkpt>
<trkpt lat="47.813841" lon="12.828712"><ele>692.5</ele></trkpt>
<trkpt lat="47.814110" lon="12.827920"><ele>696.5</ele></trkpt>
<trkpt lat="47.814966" lon="12.826224"><ele>715.6</ele></trkpt>
<trkpt lat="47.815053" lon="12.826071"><ele>716.4</ele></trkpt>
<trkpt lat="47.815625" lon="12.824194"><ele>734.3</ele></trkpt>
<trkpt lat="47.815929" lon="12.823330"><ele>745.0</ele></trkpt>
<trkpt lat="47.816536" lon="12.822546"><ele>747.0</ele></trkpt>
<trkpt lat="47.817378" lon="12.820875"><ele>764.8</ele></trkpt>
<trkpt lat="47.817505" lon="12.820597"><ele>769.0</ele></trkpt>
<trkpt lat="47.817802" lon="12.819071"><ele>788.0</ele></trkpt>
<trkpt lat="47.817724" lon="12.817755"><ele>806.5</ele></trkpt>
<trkpt lat="47.818468" lon="12.817755"><ele>804.8</ele></trkpt>
<trkpt lat="47.818487" lon="12.816824"><ele>811.5</ele></trkpt>
<trkpt lat="47.818865" lon="12.816044"><ele>817.2</ele></trkpt>
<trkpt lat="47.819397" lon="12.815432"><ele>827.0</ele></trkpt>
<trkpt lat="47.819819" lon="12.813447"><ele>840.0</ele></trkpt>
<trkpt lat="47.819851" lon="12.812378"><ele>843.5</ele></trkpt>
<trkpt lat="47.820100" lon="12.811126"><ele>848.1</ele></trkpt>
<trkpt lat="47.820535" lon="12.810007"><ele>841.7</ele></trkpt>
<trkpt lat="47.820576" lon="12.808654"><ele>849.7</ele></trkpt>
<trkpt lat="47.821017" lon="12.807120"><ele>858.0</ele></trkpt>
<trkpt lat="47.820962" lon="12.804873"><ele>864.0</ele></trkpt>
<trkpt lat="47.821070" lon="12.803495"><ele>863.2</ele></trkpt>
<trkpt lat="47.821263" lon="12.803208"><ele>855.4</ele></trkpt>
<trkpt lat="47.821645" lon="12.803100"><ele>839.7</ele></trkpt>
<trkpt lat="47.822199" lon="12.802366"><ele>844.6</ele></trkpt>
<trkpt lat="47.822383" lon="12.801723"><ele>846.9</ele></trkpt>
<trkpt lat="47.822575" lon="12.799737"><ele>835.6</ele></trkpt>
<trkpt lat="47.822576" lon="12.799676"><ele>834.7</ele></trkpt>
<trkpt lat="47.822389" lon="12.798503"><ele>835.6</ele></trkpt>
<trkpt lat="47.822741" lon="12.797079"><ele>818.2</ele></trkpt>
<trkpt lat="47.822701" lon="12.795424"><ele>819.5</ele></trkpt>
<trkpt lat="47.822371" lon="12.794942"><ele>814.0</ele></trkpt>
<trkpt lat="47.821019" lon="12.794882"><ele>817.6</ele></trkpt>
<trkpt lat="47.820958" lon="12.794796"><ele>819.0</ele></trkpt>
<trkpt lat="47.821390" lon="12.793659"><ele>815.7</ele></trkpt>
<trkpt lat="47.821751" lon="12.793334"><ele>807.3</ele></trkpt>
<trkpt lat="47.821780" lon="12.792074"><ele>814.9</ele></trkpt>
<trkpt lat="47.821028" lon="12.790160"><ele>824.0</ele></trkpt>
<trkpt lat="47.820235" lon="12.788516"><ele>819.2</ele></trkpt>
<trkpt lat="47.820093" lon="12.788116"><ele>824.2</ele></trkpt>
<trkpt lat="47.820548" lon="12.788464"><ele>811.6</ele></trkpt>
<trkpt lat="47.820807" lon="12.788045"><ele>806.4</ele></trkpt>
<trkpt lat="47.821375" lon="12.786384"><ele>792.6</ele></trkpt>
<trkpt lat="47.821806" lon="12.784271"><ele>772.9</ele></trkpt>
<trkpt lat="47.821886" lon="12.783955"><ele>768.5</ele></trkpt>
<trkpt lat="47.822620" lon="12.782497"><ele>757.3</ele></trkpt>
<trkpt lat="47.823877" lon="12.782073"><ele>739.2</ele></trkpt>
<trkpt lat="47.824644" lon="12.781531"><ele>718.5</ele></trkpt>
<trkpt lat="47.825303" lon="12.781490"><ele>707.3</ele></trkpt>
<trkpt lat="47.826230" lon="12.780821"><ele>690.2</ele></trkpt>
<trkpt lat="47.826331" lon="12.780466"><ele>690.7</ele></trkpt>
<trkpt lat="47.826259" lon="12.779882"><ele>695.2</ele></trkpt>
<trkpt lat="47.825647" lon="12.778988"><ele>707.2</ele></trkpt>
<trkpt lat="47.825454" lon="12.778268"><ele>710.3</ele></trkpt>
<trkpt lat="47.825601" lon="12.776138"><ele>711.3</ele></trkpt>
<trkpt lat="47.825817" lon="12.774100"><ele>708.1</ele></trkpt>
<trkpt lat="47.825844" lon="12.773627"><ele>707.9</ele></trkpt>
<trkpt lat="47.825899" lon="12.771398"><ele>709.3</ele></trkpt>
<trkpt lat="47.825831" lon="12.770633"><ele>708.0</ele></trkpt>
<trkpt lat="47.825074" lon="12.768742"><ele>721.4</ele></trkpt>
<trkpt lat="47.824950" lon="12.768401"><ele>719.5</ele></trkpt>
<trkpt lat="47.824468" lon="12.766362"><ele>722.5</ele></trkpt>
<trkpt lat="47.824434" lon="12.765992"><ele>729.6</ele></trkpt>
<trkpt lat="47.824860" lon="12.764848"><ele>730.1</ele></trkpt>
<trkpt lat="47.825151" lon="12.762845"><ele>726.7</ele></trkpt>
<trkpt lat="47.825047" lon="12.760825"><ele>710.3</ele></trkpt>
<trkpt lat="47.825038" lon="12.760649"><ele>709.3</ele></trkpt>
<trkpt lat="47.825195" lon="12.758412"><ele>704.4</ele></trkpt>
<trkpt lat="47.825239" lon="12.756654"><ele>706.1</ele></trkpt>
<trkpt lat="47.825122" lon="12.755222"><ele>705.0</ele></trkpt>
<trkpt lat="47.825351" lon="12.753217"><ele>705.8</ele></trkpt>
<trkpt lat="47.825431" lon="12.752837"><ele>706.8</ele></trkpt>
<trkpt lat="47.825693" lon="12.751871"><ele>704.8</ele></trkpt>
<trkpt lat="47.826032" lon="12.751354"><ele>701.9</ele></trkpt>
<trkpt lat="47.827273" lon="12.750821"><ele>699.2</ele></trkpt>
<trkpt lat="47.827651" lon="12.751028"><ele>700.6</ele></trkpt>
<trkpt lat="47.828034" lon="12.750905"><ele>701.9</ele></trkpt>
<trkpt lat="47.828603" lon="12.750461"><ele>700.0</ele></trkpt>
<trkpt lat="47.829468" lon="12.748880"><ele>683.9</ele></trkpt>
<trkpt lat="47.830315" lon="12.747177"><ele>688.3</ele></trkpt>
<trkpt lat="47.830399" lon="12.747006"><ele>686.5</ele></trkpt>
<trkpt lat="47.831004" lon="12.746809"><ele>682.6</ele></trkpt>
<trkpt lat="47.831167" lon="12.744646"><ele>681.9</ele></trkpt>
<trkpt lat="47.831192" lon="12.744445"><ele>682.4</ele></trkpt>
<trkpt lat="47.832493" lon="12.743886"><ele>678.0</ele></trkpt>
<trkpt lat="47.832601" lon="12.743785"><ele>678.0</ele></trkpt>
<trkpt lat="47.832906" lon="12.743339"><ele>677.5</ele></trkpt>
<trkpt lat="47.832787" lon="12.743149"><ele>678.0</ele></trkpt>
<trkpt lat="47.833045" lon="12.742606"><ele>678.0</ele></trkpt>
<trkpt lat="47.833431" lon="12.742107"><ele>677.9</ele></trkpt>
<trkpt lat="47.833169" lon="12.742362"><ele>678.0</ele></trkpt>
<trkpt lat="47.832451" lon="12.742249"><ele>677.4</ele></trkpt>
<trkpt lat="47.832305" lon="12.742453"><ele>679.2</ele></trkpt>
<trkpt lat="47.832072" lon="12.742119"><ele>678.8</ele></trkpt>
<trkpt lat="47.831855" lon="12.743461"><ele>679.5</ele></trkpt>
<trkpt lat="47.831171" lon="12.743386"><ele>682.4</ele></trkpt>
<trkpt lat="47.830508" lon="12.741470"><ele>684.8</ele></trkpt>
<trkpt lat="47.830464" lon="12.741345"><ele>684.6</ele></trkpt>
<trkpt lat="47.830202" lon="12.739701"><ele>682.0</ele></trkpt>
<trkpt lat="47.830040" lon="12.739475"><ele>683.4</ele></trkpt>
<trkpt lat="47.829681" lon="12.739748"><ele>690.0</ele></trkpt>
<trkpt lat="47.829875" lon="12.741456"><ele>701.2</ele></trkpt>
<trkpt lat="47.829781" lon="12.742755"><ele>714.1</ele></trkpt>
<trkpt lat="47.829132" lon="12.743548"><ele>745.9</ele></trkpt>
<trkpt lat="47.828423" lon="12.743549"><ele>757.6</ele></trkpt>
<trkpt lat="47.828290" lon="12.742219"><ele>758.5</ele></trkpt>
<trkpt lat="47.827914" lon="12.741825"><ele>754.7</ele></trkpt>
<trkpt lat="47.827107" lon="12.741988"><ele>770.8</ele></trkpt>
<trkpt lat="47.826891" lon="12.742579"><ele>777.6</ele></trkpt>
<trkpt lat="47.826620" lon="12.742764"><ele>780.4</ele></trkpt>
<trkpt lat="47.825201" lon="12.742580"><ele>801.4</ele></trkpt>
<trkpt lat="47.825083" lon="12.742563"><ele>802.6</ele></trkpt>
<trkpt lat="47.824237" lon="12.741259"><ele>806.4</ele></trkpt>
<trkpt lat="47.822921" lon="12.740233"><ele>813.8</ele></trkpt>
<trkpt lat="47.821703" lon="12.739077"><ele>820.4</ele></trkpt>
<trkpt lat="47.820483" lon="12.738121"><ele>828.0</ele></trkpt>
<trkpt lat="47.820148" lon="12.737759"><ele>830.1</ele></trkpt>
<trkpt lat="47.819494" lon="12.736213"><ele>845.1</ele></trkpt>
<trkpt lat="47.819080" lon="12.735621"><ele>850.0</ele></trkpt>
<trkpt lat="47.818555" lon="12.733727"><ele>839.1</ele></trkpt>
<trkpt lat="47.817950" lon="12.735672"><ele>861.3</ele></trkpt>
<trkpt lat="47.817730" lon="12.736335"><ele>861.8</ele></trkpt>
<trkpt lat="47.817008" lon="12.736715"><ele>860.0</ele></trkpt>
<trkpt lat="47.816082" lon="12.738163"><ele>871.8</ele></trkpt>
<trkpt lat="47.815726" lon="12.739425"><ele>871.9</ele></trkpt>
<trkpt lat="47.816018" lon="12.740502"><ele>865.7</ele></trkpt>
<trkpt lat="47.815335" lon="12.741032"><ele>877.2</ele></trkpt>
<trkpt lat="47.815163" lon="12.741944"><ele>878.1</ele></trkpt>
<trkpt lat="47.814318" lon="12.740260"><ele>910.9</ele></trkpt>
<trkpt lat="47.814069" lon="12.739578"><ele>914.6</ele></trkpt>
<trkpt lat="47.812662" lon="12.739109"><ele>941.6</ele></trkpt>
<trkpt lat="47.811316" lon="12.738644"><ele>955.7</ele></trkpt>
<trkpt lat="47.809900" lon="12.738242"><ele>949.2</ele></trkpt>
<trkpt lat="47.809471" lon="12.738120"><ele>952.1</ele></trkpt>
<trkpt lat="47.808462" lon="12.736579"><ele>941.9</ele></trkpt>
<trkpt lat="47.807703" lon="12.735589"><ele>936.3</ele></trkpt>
<trkpt lat="47.806331" lon="12.735031"><ele>924.4</ele></trkpt>
<trkpt lat="47.805703" lon="12.734709"><ele>927.9</ele></trkpt>
<trkpt lat="47.805247" lon="12.734260"><ele>924.6</ele></trkpt>
<trkpt lat="47.804849" lon="12.733385"><ele>917.1</ele></trkpt>
<trkpt lat="47.803882" lon="12.733602"><ele>921.8</ele></trkpt>
<trkpt lat="47.802726" lon="12.733004"><ele>915.6</ele></trkpt>
<trkpt lat="47.802026" lon="12.733998"><ele>911.3</ele></trkpt>
<trkpt lat="47.801068" lon="12.734724"><ele>905.6</ele></trkpt>
<trkpt lat="47.800871" lon="12.734683"><ele>902.6</ele></trkpt>
<trkpt lat="47.800303" lon="12.733545"><ele>883.0</ele></trkpt>
<trkpt lat="47.799496" lon="12.733853"><ele>872.1</ele></trkpt>
<trkpt lat="47.798992" lon="12.733715"><ele>867.1</ele></trkpt>
<trkpt lat="47.798498" lon="12.733886"><ele>865.2</ele></trkpt>
<trkpt lat="47.797273" lon="12.734818"><ele>850.2</ele></trkpt>
<trkpt lat="47.797082" lon="12.734692"><ele>847.0</ele></trkpt>
<trkpt lat="47.796736" lon="12.734986"><ele>838.3</ele></trkpt>
<trkpt lat="47.796004" lon="12.736288"><ele>823.2</ele></trkpt>
<trkpt lat="47.795927" lon="12.736997"><ele>824.1</ele></trkpt>
<trkpt lat="47.795524" lon="12.736599"><ele>810.9</ele></trkpt>
<trkpt lat="47.795297" lon="12.735468"><ele>799.8</ele></trkpt>
<trkpt lat="47.795095" lon="12.735724"><ele>795.7</ele></trkpt>
<trkpt lat="47.794917" lon="12.736630"><ele>801.0</ele></trkpt>
<trkpt lat="47.794075" lon="12.735724"><ele>785.7</ele></trkpt>
<trkpt lat="47.793663" lon="12.733817"><ele>761.1</ele></trkpt>
<trkpt lat="47.792307" lon="12.734429"><ele>744.4</ele></trkpt>
<trkpt lat="47.791010" lon="12.735211"><ele>722.0</ele></trkpt>
<trkpt lat="47.790799" lon="12.735250"><ele>717.4</ele></trkpt>
<trkpt lat="47.790037" lon="12.734733"><ele>709.1</ele></trkpt>
<trkpt lat="47.789657" lon="12.733993"><ele>708.5</ele></trkpt>
<trkpt lat="47.789592" lon="12.733419"><ele>707.1</ele></trkpt>
<trkpt lat="47.789465" lon="12.733417"><ele>708.9</ele></trkpt>
<trkpt lat="47.789417" lon="12.734548"><ele>714.0</ele></trkpt>
<trkpt lat="47.789572" lon="12.735924"><ele>727.8</ele></trkpt>
<trkpt lat="47.789058" lon="12.737773"><ele>731.0</ele></trkpt>
<trkpt lat="47.788942" lon="12.738233"><ele>731.6</ele></trkpt>
<trkpt lat="47.789187" lon="12.739602"><ele>739.4</ele></trkpt>
<trkpt lat="47.788450" lon="12.739940"><ele>740.1</ele></trkpt>
<trkpt lat="47.787952" lon="12.740841"><ele>740.6</ele></trkpt>
<trkpt lat="47.788416" lon="12.742365"><ele>749.9</ele></trkpt>
<trkpt lat="47.788261" lon="12.742806"><ele>750.2</ele></trkpt>
<trkpt lat="47.787555" lon="12.743091"><ele>746.7</ele></trkpt>
<trkpt lat="47.786186" lon="12.742529"><ele>731.7</ele></trkpt>
<trkpt lat="47.784940" lon="12.742263"><ele>718.0</ele></trkpt>
<trkpt lat="47.783581" lon="12.742742"><ele>713.1</ele></trkpt>
<trkpt lat="47.782969" lon="12.742907"><ele>713.0</ele></trkpt>
<trkpt lat="47.782201" lon="12.742807"><ele>708.1</ele></trkpt>
<trkpt lat="47.781277" lon="12.743481"><ele>718.3</ele></trkpt>
<trkpt lat="47.780865" lon="12.743381"><ele>723.2</ele></trkpt>
<trkpt lat="47.779790" lon="12.744619"><ele>714.7</ele></trkpt>
<trkpt lat="47.779389" lon="12.744988"><ele>709.5</ele></trkpt>
<trkpt lat="47.778930" lon="12.743841"><ele>715.6</ele></trkpt>
<trkpt lat="47.778711" lon="12.743653"><ele>714.7</ele></trkpt>
<trkpt lat="47.778198" lon="12.743573"><ele>714.8</ele></trkpt>
<trkpt lat="47.777995" lon="12.744012"><ele>717.2</ele></trkpt>
<trkpt lat="47.776939" lon="12.743657"><ele>714.5</ele></trkpt>
<trkpt lat="47.776417" lon="12.745353"><ele>721.8</ele></trkpt>
<trkpt lat="47.776526" lon="12.745854"><ele>723.4</ele></trkpt>
<trkpt lat="47.776154" lon="12.747201"><ele>717.1</ele></trkpt>
<trkpt lat="47.775960" lon="12.749347"><ele>720.4</ele></trkpt>
<trkpt lat="47.775925" lon="12.749500"><ele>719.8</ele></trkpt>
<trkpt lat="47.775126" lon="12.751104"><ele>709.5</ele></trkpt>
<trkpt lat="47.774112" lon="12.750634"><ele>712.2</ele></trkpt>
<trkpt lat="47.772877" lon="12.751589"><ele>717.5</ele></trkpt>
<trkpt lat="47.772535" lon="12.751900"><ele>716.3</ele></trkpt>
<trkpt lat="47.772014" lon="12.751999"><ele>712.6</ele></trkpt>
<trkpt lat="47.770735" lon="12.751297"><ele>697.1</ele></trkpt>
<trkpt lat="47.769722" lon="12.750700"><ele>693.5</ele></trkpt>
<trkpt lat="47.768696" lon="12.750605"><ele>694.6</ele></trkpt>
<trkpt lat="47.767827" lon="12.752215"><ele>692.0</ele></trkpt>
<trkpt lat="47.767268" lon="12.753359"><ele>692.2</ele></trkpt>
<trkpt lat="47.765826" lon="12.753314"><ele>694.1</ele></trkpt>
<trkpt lat="47.765647" lon="12.753293"><ele>694.0</ele></trkpt>
<trkpt lat="47.764714" lon="12.753590"><ele>692.1</ele></trkpt>
<trkpt lat="47.763534" lon="12.753082"><ele>693.9</ele></trkpt>
<trkpt lat="47.762547" lon="12.751643"><ele>696.0</ele></trkpt>
<trkpt lat="47.762364" lon="12.751430"><ele>696.0</ele></trkpt>
<trkpt lat="47.762228" lon="12.752087"><ele>696.0</ele></trkpt>
<trkpt lat="47.761398" lon="12.752162"><ele>697.8</ele></trkpt>
<trkpt lat="47.760748" lon="12.752098"><ele>698.9</ele></trkpt>
<trkpt lat="47.759943" lon="12.751454"><ele>696.7</ele></trkpt>
<trkpt lat="47.759719" lon="12.751967"><ele>699.0</ele></trkpt>
<trkpt lat="47.759352" lon="12.752102"><ele>700.0</ele></trkpt>
<trkpt lat="47.758971" lon="12.752560"><ele>700.4</ele></trkpt>
<trkpt lat="47.758275" lon="12.754296"><ele>700.4</ele></trkpt>
<trkpt lat="47.757838" lon="12.755139"><ele>703.2</ele></trkpt>
<trkpt lat="47.757288" lon="12.755070"><ele>704.0</ele></trkpt>
<trkpt lat="47.756068" lon="12.754181"><ele>698.1</ele></trkpt>
<trkpt lat="47.755990" lon="12.754182"><ele>698.2</ele></trkpt>
<trkpt lat="47.755665" lon="12.754810"><ele>705.8</ele></trkpt>
<trkpt lat="47.754294" lon="12.755042"><ele>721.4</ele></trkpt>
<trkpt lat="47.753815" lon="12.755261"><ele>724.7</ele></trkpt>
<trkpt lat="47.753268" lon="12.754805"><ele>719.0</ele></trkpt>
<trkpt lat="47.752620" lon="12.754619"><ele>717.9</ele></trkpt>
<trkpt lat="47.752418" lon="12.753551"><ele>708.7</ele></trkpt>
<trkpt lat="47.751935" lon="12.752880"><ele>718.3</ele></trkpt>
<trkpt lat="47.751592" lon="12.752028"><ele>701.2</ele></trkpt>
<trkpt lat="47.750165" lon="12.751749"><ele>710.1</ele></trkpt>
<trkpt lat="47.748809" lon="12.751432"><ele>714.2</ele></trkpt>
<trkpt lat="47.747825" lon="12.750056"><ele>725.5</ele></trkpt>
<trkpt lat="47.747738" lon="12.749995"><ele>725.5</ele></trkpt>
<trkpt lat="47.746699" lon="12.750286"><ele>736.0</ele></trkpt>
<trkpt lat="47.745302" lon="12.750189"><ele>728.7</ele></trkpt>
<trkpt lat="47.744986" lon="12.750220"><ele>729.9</ele></trkpt>
<trkpt lat="47.743714" lon="12.750973"><ele>728.2</ele></trkpt>
<trkpt lat="47.742471" lon="12.751852"><ele>716.5</ele></trkpt>
<trkpt lat="47.742471" lon="12.751853"><ele>716.5</ele></trkpt>
<trkpt lat="47.741894" lon="12.752902"><ele>724.4</ele></trkpt>
<trkpt lat="47.741449" lon="12.753354"><ele>720.3</ele></trkpt>
<trkpt lat="47.741039" lon="12.755344"><ele>729.5</ele></trkpt>
<trkpt lat="47.740944" lon="12.755759"><ele>731.3</ele></trkpt>
<trkpt lat="47.740394" lon="12.756941"><ele>734.0</ele></trkpt>
<trkpt lat="47.740532" lon="12.758005"><ele>730.4</ele></trkpt>
<trkpt lat="47.739649" lon="12.758092"><ele>734.8</ele></trkpt>
<trkpt lat="47.738728" lon="12.757071"><ele>728.1</ele></trkpt>
<trkpt lat="47.738175" lon="12.756866"><ele>731.5</ele></trkpt>
<trkpt lat="47.737017" lon="12.757137"><ele>738.4</ele></trkpt>
<trkpt lat="47.735755" lon="12.756875"><ele>735.2</ele></trkpt>
<trkpt lat="47.734955" lon="12.757100"><ele>742.1</ele></trkpt>
<trkpt lat="47.734258" lon="12.756578"><ele>738.0</ele></trkpt>
<trkpt lat="47.733255" lon="12.756199"><ele>731.6</ele></trkpt>
<trkpt lat="47.732231" lon="12.756333"><ele>741.3</ele></trkpt>
<trkpt lat="47.731670" lon="12.756092"><ele>727.2</ele></trkpt>
<trkpt lat="47.730752" lon="12.757736"><ele>732.4</ele></trkpt>
<trkpt lat="47.730424" lon="12.758246"><ele>724.6</ele></trkpt>
<trkpt lat="47.729928" lon="12.758582"><ele>714.4</ele></trkpt>
<trkpt lat="47.729389" lon="12.759777"><ele>714.8</ele></trkpt>
<trkpt lat="47.729084" lon="12.759648"><ele>700.6</ele></trkpt>
<trkpt lat="47.729389" lon="12.759777"><ele>714.8</ele></trkpt>
<trkpt lat="47.729585" lon="12.759535"><ele>719.5</ele></trkpt>
<trkpt lat="47.729895" lon="12.758827"><ele>717.0</ele></trkpt>
<trkpt lat="47.729928" lon="12.758582"><ele>714.4</ele></trkpt>
<trkpt lat="47.729709" lon="12.758656"><ele>704.5</ele></trkpt>
<trkpt lat="47.730173" lon="12.757269"><ele>693.6</ele></trkpt>
<trkpt lat="47.729217" lon="12.757863"><ele>667.7</ele></trkpt>
<trkpt lat="47.728477" lon="12.758903"><ele>660.5</ele></trkpt>
<trkpt lat="47.728858" lon="12.757738"><ele>649.1</ele></trkpt>
<trkpt lat="47.728833" lon="12.757211"><ele>640.0</ele></trkpt>
<trkpt lat="47.728604" lon="12.757821"><ele>644.8</ele></trkpt>
<trkpt lat="47.727769" lon="12.758813"><ele>638.7</ele></trkpt>
<trkpt lat="47.726893" lon="12.760356"><ele>636.6</ele></trkpt>
<trkpt lat="47.725836" lon="12.760571"><ele>629.0</ele></trkpt>
<trkpt lat="47.725811" lon="12.760321"><ele>630.8</ele></trkpt>
<trkpt lat="47.725693" lon="12.760393"><ele>630.9</ele></trkpt>
<trkpt lat="47.724702" lon="12.761782"><ele>632.5</ele></trkpt>
<trkpt lat="47.724346" lon="12.762534"><ele>628.9</ele></trkpt>
<trkpt lat="47.724035" lon="12.762564"><ele>628.8</ele></trkpt>
<trkpt lat="47.723763" lon="12.762303"><ele>630.0</ele></trkpt>
<trkpt lat="47.722591" lon="12.763527"><ele>624.6</ele></trkpt>
<trkpt lat="47.722006" lon="12.764054"><ele>627.4</ele></trkpt>
<trkpt lat="47.721054" lon="12.765655"><ele>619.4</ele></trkpt>
<trkpt lat="47.720194" lon="12.767269"><ele>616.8</ele></trkpt>
<trkpt lat="47.720068" lon="12.767501"><ele>616.0</ele></trkpt>
<trkpt lat="47.719442" lon="12.768292"><ele>613.1</ele></trkpt>
<trkpt lat="47.719165" lon="12.769823"><ele>612.4</ele></trkpt>
<trkpt lat="47.718519" lon="12.771185"><ele>612.0</ele></trkpt>
<trkpt lat="47.717570" lon="12.772392"><ele>606.3</ele></trkpt>
<trkpt lat="47.716351" lon="12.773502"><ele>604.7</ele></trkpt>
<trkpt lat="47.716318" lon="12.773548"><ele>604.8</ele></trkpt>
<trkpt lat="47.715928" lon="12.774354"><ele>606.6</ele></trkpt>
<trkpt lat="47.716110" lon="12.774660"><ele>607.0</ele></trkpt>
<trkpt lat="47.715479" lon="12.775512"><ele>606.5</ele></trkpt>
<trkpt lat="47.714229" lon="12.776531"><ele>610.9</ele></trkpt>
<trkpt lat="47.713399" lon="12.777166"><ele>606.9</ele></trkpt>
<trkpt lat="47.713110" lon="12.778145"><ele>605.3</ele></trkpt>
<trkpt lat="47.712972" lon="12.779489"><ele>606.1</ele></trkpt>
<trkpt lat="47.712353" lon="12.780276"><ele>601.4</ele></trkpt>
<trkpt lat="47.711965" lon="12.781578"><ele>608.9</ele></trkpt>
<trkpt lat="47.711741" lon="12.783558"><ele>621.6</ele></trkpt>
<trkpt lat="47.711736" lon="12.783590"><ele>622.2</ele></trkpt>
<trkpt lat="47.711505" lon="12.784192"><ele>620.4</ele></trkpt>
<trkpt lat="47.711509" lon="12.784500"><ele>623.1</ele></trkpt>
<trkpt lat="47.711730" lon="12.784238"><ele>632.7</ele></trkpt>
<trkpt lat="47.711731" lon="12.785546"><ele>621.4</ele></trkpt>
<trkpt lat="47.712449" lon="12.786298"><ele>648.4</ele></trkpt>
<trkpt lat="47.712376" lon="12.786641"><ele>644.4</ele></trkpt>
<trkpt lat="47.711980" lon="12.786793"><ele>621.2</ele></trkpt>
<trkpt lat="47.711987" lon="12.787572"><ele>636.5</ele></trkpt>
<trkpt lat="47.711582" lon="12.789505"><ele>641.6</ele></trkpt>
<trkpt lat="47.711581" lon="12.789625"><ele>642.0</ele></trkpt>
<trkpt lat="47.711696" lon="12.791085"><ele>633.0</ele></trkpt>
<trkpt lat="47.712760" lon="12.791595"><ele>655.6</ele></trkpt>
<trkpt lat="47.713754" lon="12.791689"><ele>676.1</ele></trkpt>
<trkpt lat="47.714396" lon="12.792070"><ele>691.9</ele></trkpt>
<trkpt lat="47.714306" lon="12.793366"><ele>687.7</ele></trkpt>
<trkpt lat="47.715215" lon="12.794643"><ele>699.2</ele></trkpt>
<trkpt lat="47.715749" lon="12.796012"><ele>692.7</ele></trkpt>
<trkpt lat="47.715820" lon="12.796573"><ele>692.4</ele></trkpt>
<trkpt lat="47.716530" lon="12.797735"><ele>698.9</ele></trkpt>
<trkpt lat="47.716717" lon="12.799003"><ele>709.0</ele></trkpt>
<trkpt lat="47.717294" lon="12.800331"><ele>717.1</ele></trkpt>
<trkpt lat="47.717061" lon="12.800757"><ele>717.7</ele></trkpt>
<trkpt lat="47.717587" lon="12.801973"><ele>724.3</ele></trkpt>
<trkpt lat="47.718148" lon="12.802204"><ele>722.2</ele></trkpt>
<trkpt lat="47.719420" lon="12.803286"><ele>726.7</ele></trkpt>
<trkpt lat="47.719423" lon="12.803289"><ele>726.6</ele></trkpt>
<trkpt lat="47.720229" lon="12.804595"><ele>743.3</ele></trkpt>
<trkpt lat="47.721457" lon="12.805644"><ele>758.9</ele></trkpt>
<trkpt lat="47.722714" lon="12.806796"><ele>759.3</ele></trkpt>
<trkpt lat="47.723221" lon="12.807192"><ele>770.2</ele></trkpt>
<trkpt lat="47.723634" lon="12.807764"><ele>773.4</ele></trkpt>
<trkpt lat="47.724695" lon="12.808000"><ele>759.5</ele></trkpt>
<trkpt lat="47.725457" lon="12.809794"><ele>777.0</ele></trkpt>
<trkpt lat="47.726049" lon="12.810928"><ele>798.1</ele></trkpt>
<trkpt lat="47.726159" lon="12.813123"><ele>827.7</ele></trkpt>
<trkpt lat="47.726157" lon="12.813585"><ele>832.1</ele></trkpt>
<trkpt lat="47.726603" lon="12.813682"><ele>833.3</ele></trkpt>
<trkpt lat="47.726699" lon="12.813909"><ele>839.4</ele></trkpt>
<trkpt lat="47.726160" lon="12.814407"><ele>839.0</ele></trkpt>
<trkpt lat="47.726074" lon="12.815405"><ele>849.3</ele></trkpt>
<trkpt lat="47.726192" lon="12.816348"><ele>864.6</ele></trkpt>
<trkpt lat="47.725926" lon="12.817233"><ele>876.8</ele></trkpt>
<trkpt lat="47.725971" lon="12.818002"><ele>881.6</ele></trkpt>
<trkpt lat="47.725669" lon="12.818239"><ele>882.0</ele></trkpt>
<trkpt lat="47.726006" lon="12.819054"><ele>885.4</ele></trkpt>
<trkpt lat="47.726019" lon="12.820004"><ele>877.6</ele></trkpt>
<trkpt lat="47.726425" lon="12.820755"><ele>865.5</ele></trkpt>
<trkpt lat="47.726269" lon="12.821519"><ele>865.6</ele></trkpt>
<trkpt lat="47.726367" lon="12.821910"><ele>862.8</ele></trkpt>
<trkpt lat="47.726636" lon="12.821990"><ele>850.9</ele></trkpt>
<trkpt lat="47.726993" lon="12.823280"><ele>824.6</ele></trkpt>
<trkpt lat="47.726938" lon="12.823745"><ele>821.4</ele></trkpt>
<trkpt lat="47.726639" lon="12.824310"><ele>823.9</ele></trkpt>
<trkpt lat="47.727073" lon="12.825229"><ele>804.3</ele></trkpt>
<trkpt lat="47.727049" lon="12.826159"><ele>811.4</ele></trkpt>
<trkpt lat="47.727279" lon="12.827060"><ele>807.6</ele></trkpt>
<trkpt lat="47.727094" lon="12.828052"><ele>801.3</ele></trkpt>
<trkpt lat="47.726342" lon="12.828464"><ele>769.5</ele></trkpt>
<trkpt lat="47.726393" lon="12.829572"><ele>769.7</ele></trkpt>
<trkpt lat="47.725986" lon="12.828785"><ele>752.3</ele></trkpt>
<trkpt lat="47.725664" lon="12.828621"><ele>741.9</ele></trkpt>
<trkpt lat="47.724845" lon="12.828666"><ele>715.8</ele></trkpt>
<trkpt lat="47.724544" lon="12.829142"><ele>709.9</ele></trkpt>
<trkpt lat="47.723948" lon="12.829176"><ele>680.3</ele></trkpt>
<trkpt lat="47.723717" lon="12.831227"><ele>647.9</ele></trkpt>
<trkpt lat="47.723545" lon="12.832281"><ele>635.4</ele></trkpt>
<trkpt lat="47.723092" lon="12.834198"><ele>608.4</ele></trkpt>
<trkpt lat="47.722955" lon="12.834673"><ele>603.4</ele></trkpt>
<trkpt lat="47.722390" lon="12.835893"><ele>592.9</ele></trkpt>
<trkpt lat="47.722393" lon="12.833822"><ele>574.9</ele></trkpt>
<trkpt lat="47.722235" lon="12.831768"><ele>557.0</ele></trkpt>
<trkpt lat="47.722209" lon="12.830555"><ele>557.5</ele></trkpt>
<trkpt lat="47.721753" lon="12.829195"><ele>553.7</ele></trkpt>
<trkpt lat="47.721650" lon="12.828079"><ele>551.3</ele></trkpt>
<trkpt lat="47.721101" lon="12.826237"><ele>551.7</ele></trkpt>
<trkpt lat="47.720825" lon="12.825396"><ele>541.8</ele></trkpt>
<trkpt lat="47.720691" lon="12.824478"><ele>541.9</ele></trkpt>
<trkpt lat="47.719861" lon="12.822847"><ele>538.6</ele></trkpt>
<trkpt lat="47.719401" lon="12.821780"><ele>544.8</ele></trkpt>
<trkpt lat="47.719236" lon="12.821899"><ele>540.8</ele></trkpt>
<trkpt lat="47.719118" lon="12.821265"><ele>540.4</ele></trkpt>
<trkpt lat="47.718766" lon="12.820668"><ele>545.5</ele></trkpt>
<trkpt lat="47.717769" lon="12.819950"><ele>537.1</ele></trkpt>
<trkpt lat="47.716787" lon="12.818442"><ele>544.0</ele></trkpt>
<trkpt lat="47.716742" lon="12.818410"><ele>543.4</ele></trkpt>
<trkpt lat="47.716456" lon="12.818445"><ele>538.5</ele></trkpt>
<trkpt lat="47.716055" lon="12.818937"><ele>540.0</ele></trkpt>
<trkpt lat="47.716701" lon="12.820515"><ele>540.9</ele></trkpt>
<trkpt lat="47.717279" lon="12.822557"><ele>543.0</ele></trkpt>
<trkpt lat="47.717786" lon="12.824528"><ele>545.9</ele></trkpt>
<trkpt lat="47.718143" lon="12.825712"><ele>546.0</ele></trkpt>
<trkpt lat="47.717896" lon="12.827738"><ele>546.4</ele></trkpt>
<trkpt lat="47.717734" lon="12.829377"><ele>545.9</ele></trkpt>
<trkpt lat="47.718313" lon="12.831364"><ele>538.2</ele></trkpt>
<trkpt lat="47.718429" lon="12.831845"><ele>539.4</ele></trkpt>
<trkpt lat="47.718296" lon="12.833994"><ele>541.0</ele></trkpt>
<trkpt lat="47.718257" lon="12.836048"><ele>543.4</ele></trkpt>
<trkpt lat="47.718253" lon="12.836588"><ele>533.5</ele></trkpt>
<trkpt lat="47.717739" lon="12.838622"><ele>516.9</ele></trkpt>
<trkpt lat="47.717711" lon="12.838940"><ele>517.0</ele></trkpt>
<trkpt lat="47.717757" lon="12.841070"><ele>532.4</ele></trkpt>
<trkpt lat="47.717786" lon="12.841280"><ele>531.9</ele></trkpt>
<trkpt lat="47.718417" lon="12.843324"><ele>514.2</ele></trkpt>
<trkpt lat="47.718710" lon="12.844736"><ele>499.7</ele></trkpt>
<trkpt lat="47.719617" lon="12.845690"><ele>489.8</ele></trkpt>
<trkpt lat="47.719854" lon="12.846180"><ele>485.0</ele></trkpt>
<trkpt lat="47.720155" lon="12.848331"><ele>481.9</ele></trkpt>
<trkpt lat="47.720430" lon="12.850055"><ele>473.7</ele></trkpt>
<trkpt lat="47.720279" lon="12.852100"><ele>466.0</ele></trkpt>
<trkpt lat="47.720208" lon="12.853536"><ele>466.3</ele></trkpt>
<trkpt lat="47.719687" lon="12.854739"><ele>468.6</ele></trkpt>
<trkpt lat="47.719866" lon="12.856836"><ele>466.2</ele></trkpt>
<trkpt lat="47.719936" lon="12.857981"><ele>465.2</ele></trkpt>
<trkpt lat="47.719653" lon="12.858776"><ele>468.6</ele></trkpt>
<trkpt lat="47.719257" lon="12.859143"><ele>474.8</ele></trkpt>
<trkpt lat="47.719544" lon="12.860510"><ele>470.4</ele></trkpt>
<trkpt lat="47.719578" lon="12.862542"><ele>467.4</ele></trkpt>
<trkpt lat="47.719652" lon="12.864654"><ele>471.2</ele></trkpt>
<trkpt lat="47.719662" lon="12.864923"><ele>474.0</ele></trkpt>
<trkpt lat="47.719865" lon="12.866263"><ele>472.9</ele></trkpt>
<trkpt lat="47.719247" lon="12.867595"><ele>472.5</ele></trkpt>
<trkpt lat="47.718629" lon="12.869590"><ele>472.0</ele></trkpt>
<trkpt lat="47.718162" lon="12.870769"><ele>471.8</ele></trkpt>
<trkpt lat="47.718165" lon="12.871199"><ele>471.6</ele></trkpt>
<trkpt lat="47.718795" lon="12.872987"><ele>472.0</ele></trkpt>
<trkpt lat="47.718701" lon="12.873208"><ele>472.2</ele></trkpt>
<trkpt lat="47.718862" lon="12.873988"><ele>473.5</ele></trkpt>
<trkpt lat="47.719013" lon="12.874041"><ele>473.5</ele></trkpt>
<trkpt lat="47.719071" lon="12.874906"><ele>474.0</ele></trkpt>
<trkpt lat="47.720440" lon="12.875590"><ele>474.1</ele></trkpt>
<trkpt lat="47.720980" lon="12.875902"><ele>474.1</ele></trkpt>
<trkpt lat="47.722309" lon="12.876868"><ele>475.3</ele></trkpt>
<trkpt lat="47.722643" lon="12.877188"><ele>474.5</ele></trkpt>
<trkpt lat="47.722405" lon="12.877908"><ele>475.0</ele></trkpt>
<trkpt lat="47.723462" lon="12.879193"><ele>472.6</ele></trkpt>
<trkpt lat="47.724406" lon="12.880228"><ele>469.2</ele></trkpt>
<trkpt lat="47.724408" lon="12.880823"><ele>471.3</ele></trkpt>
<trkpt lat="47.724935" lon="12.881320"><ele>473.9</ele></trkpt>
<trkpt lat="47.724541" lon="12.882248"><ele>476.1</ele></trkpt>
<trkpt lat="47.724996" lon="12.883195"><ele>481.5</ele></trkpt>
<trkpt lat="47.725662" lon="12.883798"><ele>485.2</ele></trkpt>
<trkpt lat="47.726118" lon="12.883872"><ele>478.7</ele></trkpt>
<trkpt lat="47.726415" lon="12.884346"><ele>480.9</ele></trkpt>
<trkpt lat="47.726618" lon="12.884372"><ele>478.2</ele></trkpt>
<trkpt lat="47.726900" lon="12.883842"><ele>474.7</ele></trkpt>
</trkseg></trk></gpx>