<?xml version="1.0" encoding="UTF-8"?>
<gpx version="1.1" creator="Bad Reichenhall gravel – saját gravel-router (OSM/Overture + SRTM)" xmlns="http://www.topografix.com/GPX/1/1">
<metadata><name>Stoißer Alm–Frillensee</name><desc>GENERÁLT NYOMVONAL – Panorámás, erős félnapos kör a Teisenberg és a Hochstaufen között. Pidingen és Angeren át a Stoißberg falvain kapaszkodsz fel a Stoißer Almig (kilátás a Rupertiwinkelre és a Chiemgaura), majd erdei utakon Adlgaß és a Frillensee felé ereszkedsz, és a Thumsee-n át zárod a kört.</desc><copyright author="OpenStreetMap contributors (via Overture Maps)"><license>https://opendatacommons.org/licenses/odbl/</license></copyright><time>2026-10-05T17:05:58Z</time></metadata>
<wpt lat="47.7596" lon="12.9114"><name>Piding</name><type>town</type></wpt>
<wpt lat="47.8039" lon="12.8559"><name>Anger</name><type>town</type></wpt>
<wpt lat="47.8037" lon="12.7716"><name>Stoißer Alm</name><type>hut</type></wpt>
<wpt lat="47.7745" lon="12.7983"><name>Forsthaus Adlgaß</name><type>hut</type></wpt>
<wpt lat="47.7657" lon="12.8173"><name>Frillensee</name><type>lake</type></wpt>
<wpt lat="47.7368" lon="12.845"><name>Listsee</name><type>lake</type></wpt>
<trk><name>Stoißer Alm–Frillensee</name><type>gravel</type><trkseg>
<trkpt lat="47.726900" lon="12.883842"><ele>474.7</ele></trkpt>
<trkpt lat="47.727494" lon="12.883113"><ele>470.2</ele></trkpt>
<trkpt lat="47.727719" lon="12.883943"><ele>471.1</ele></trkpt>
<trkpt lat="47.728704" lon="12.884653"><ele>467.7</ele></trkpt>
<trkpt lat="47.729731" lon="12.886062"><ele>468.9</ele></trkpt>
<trkpt lat="47.730708" lon="12.887277"><ele>466.8</ele></trkpt>
<trkpt lat="47.731702" lon="12.887899"><ele>465.8</ele></trkpt>
<trkpt lat="47.732859" lon="12.888988"><ele>463.3</ele></trkpt>
<trkpt lat="47.733919" lon="12.889805"><ele>464.0</ele></trkpt>
<trkpt lat="47.735182" lon="12.890496"><ele>464.3</ele></trkpt>
<trkpt lat="47.735557" lon="12.890716"><ele>462.4</ele></trkpt>
<trkpt lat="47.736228" lon="12.891388"><ele>461.0</ele></trkpt>
<trkpt lat="47.736592" lon="12.890916"><ele>460.9</ele></trkpt>
<trkpt lat="47.737193" lon="12.891704"><ele>461.2</ele></trkpt>
<trkpt lat="47.737802" lon="12.890693"><ele>461.0</ele></trkpt>
<trkpt lat="47.738920" lon="12.891835"><ele>460.0</ele></trkpt>
<trkpt lat="47.739303" lon="12.892183"><ele>460.4</ele></trkpt>
<trkpt lat="47.739530" lon="12.892872"><ele>465.0</ele></trkpt>
<trkpt lat="47.740022" lon="12.892659"><ele>464.1</ele></trkpt>
<trkpt lat="47.740252" lon="12.892788"><ele>464.2</ele></trkpt>
<trkpt lat="47.740420" lon="12.893505"><ele>468.4</ele></trkpt>
<trkpt lat="47.740871" lon="12.893655"><ele>462.9</ele></trkpt>
<trkpt lat="47.741641" lon="12.895484"><ele>466.1</ele></trkpt>
<trkpt lat="47.742413" lon="12.897293"><ele>459.3</ele></trkpt>
<trkpt lat="47.743190" lon="12.899091"><ele>454.4</ele></trkpt>
<trkpt lat="47.743932" lon="12.900790"><ele>454.8</ele></trkpt>
<trkpt lat="47.744252" lon="12.901496"><ele>455.7</ele></trkpt>
<trkpt lat="47.744878" lon="12.900827"><ele>454.4</ele></trkpt>
<trkpt lat="47.746249" lon="12.900860"><ele>457.9</ele></trkpt>
<trkpt lat="47.746683" lon="12.900793"><ele>459.1</ele></trkpt>
<trkpt lat="47.747599" lon="12.899938"><ele>457.0</ele></trkpt>
<trkpt lat="47.748711" lon="12.900887"><ele>467.5</ele></trkpt>
<trkpt lat="47.750153" lon="12.901197"><ele>466.6</ele></trkpt>
<trkpt lat="47.750593" lon="12.901341"><ele>472.2</ele></trkpt>
<trkpt lat="47.751582" lon="12.902133"><ele>465.0</ele></trkpt>
<trkpt lat="47.752294" lon="12.901798"><ele>464.8</ele></trkpt>
<trkpt lat="47.753134" lon="12.900502"><ele>474.8</ele></trkpt>
<trkpt lat="47.754414" lon="12.899381"><ele>472.6</ele></trkpt>
<trkpt lat="47.754737" lon="12.899148"><ele>474.1</ele></trkpt>
<trkpt lat="47.755518" lon="12.898948"><ele>462.5</ele></trkpt>
<trkpt lat="47.756921" lon="12.899199"><ele>458.0</ele></trkpt>
<trkpt lat="47.756975" lon="12.899204"><ele>457.9</ele></trkpt>
<trkpt lat="47.757900" lon="12.898689"><ele>460.7</ele></trkpt>
<trkpt lat="47.758294" lon="12.898983"><ele>458.8</ele></trkpt>
<trkpt lat="47.758547" lon="12.900267"><ele>460.0</ele></trkpt>
<trkpt lat="47.758947" lon="12.900563"><ele>456.9</ele></trkpt>
<trkpt lat="47.759906" lon="12.900735"><ele>457.8</ele></trkpt>
<trkpt lat="47.761236" lon="12.900287"><ele>457.4</ele></trkpt>
<trkpt lat="47.761660" lon="12.900156"><ele>457.5</ele></trkpt>
<trkpt lat="47.761680" lon="12.899562"><ele>454.5</ele></trkpt>
<trkpt lat="47.762392" lon="12.899924"><ele>456.6</ele></trkpt>
<trkpt lat="47.762647" lon="12.899772"><ele>456.6</ele></trkpt>
<trkpt lat="47.763728" lon="12.898475"><ele>456.2</ele></trkpt>
<trkpt lat="47.764972" lon="12.897183"><ele>456.8</ele></trkpt>
<trkpt lat="47.766196" lon="12.895884"><ele>456.1</ele></trkpt>
<trkpt lat="47.766968" lon="12.894960"><ele>456.0</ele></trkpt>
<trkpt lat="47.767807" lon="12.896772"><ele>455.1</ele></trkpt>
<trkpt lat="47.768079" lon="12.897286"><ele>458.0</ele></trkpt>
<trkpt lat="47.769127" lon="12.898138"><ele>457.0</ele></trkpt>
<trkpt lat="47.769373" lon="12.897995"><ele>456.5</ele></trkpt>
<trkpt lat="47.769479" lon="12.897053"><ele>458.7</ele></trkpt>
<trkpt lat="47.769653" lon="12.896685"><ele>459.7</ele></trkpt>
<trkpt lat="47.769950" lon="12.896823"><ele>459.4</ele></trkpt>
<trkpt lat="47.770016" lon="12.897401"><ele>458.9</ele></trkpt>
<trkpt lat="47.770614" lon="12.898431"><ele>458.9</ele></trkpt>
<trkpt lat="47.771828" lon="12.899605"><ele>455.2</ele></trkpt>
<trkpt lat="47.772138" lon="12.899946"><ele>455.5</ele></trkpt>
<trkpt lat="47.773444" lon="12.899193"><ele>457.0</ele></trkpt>
<trkpt lat="47.774263" lon="12.897584"><ele>457.4</ele></trkpt>
<trkpt lat="47.775179" lon="12.895866"><ele>459.0</ele></trkpt>
<trkpt lat="47.776060" lon="12.894200"><ele>461.0</ele></trkpt>
<trkpt lat="47.776313" lon="12.893714"><ele>461.6</ele></trkpt>
<trkpt lat="47.777110" lon="12.891970"><ele>464.6</ele></trkpt>
<trkpt lat="47.777430" lon="12.891054"><ele>464.0</ele></trkpt>
<trkpt lat="47.778560" lon="12.889622"><ele>466.2</ele></trkpt>
<trkpt lat="47.779094" lon="12.889059"><ele>467.3</ele></trkpt>
<trkpt lat="47.779903" lon="12.888463"><ele>470.7</ele></trkpt>
<trkpt lat="47.780324" lon="12.886793"><ele>471.0</ele></trkpt>
<trkpt lat="47.781351" lon="12.885740"><ele>472.0</ele></trkpt>
<trkpt lat="47.780911" lon="12.885157"><ele>471.7</ele></trkpt>
<trkpt lat="47.781622" lon="12.884667"><ele>473.2</ele></trkpt>
<trkpt lat="47.782122" lon="12.883716"><ele>475.2</ele></trkpt>
<trkpt lat="47.782634" lon="12.883212"><ele>474.1</ele></trkpt>
<trkpt lat="47.783147" lon="12.881637"><ele>475.7</ele></trkpt>
<trkpt lat="47.784122" lon="12.879976"><ele>477.1</ele></trkpt>
<trkpt lat="47.785128" lon="12.878276"><ele>479.1</ele></trkpt>
<trkpt lat="47.786119" lon="12.876795"><ele>482.0</ele></trkpt>
<trkpt lat="47.786502" lon="12.876198"><ele>483.2</ele></trkpt>
<trkpt lat="47.786541" lon="12.874853"><ele>487.1</ele></trkpt>
<trkpt lat="47.786031" lon="12.873451"><ele>489.9</ele></trkpt>
<trkpt lat="47.787137" lon="12.872303"><ele>488.0</ele></trkpt>
<trkpt lat="47.787146" lon="12.872293"><ele>488.0</ele></trkpt>
<trkpt lat="47.787637" lon="12.872146"><ele>489.4</ele></trkpt>
<trkpt lat="47.788512" lon="12.871152"><ele>490.0</ele></trkpt>
<trkpt lat="47.788682" lon="12.870715"><ele>489.1</ele></trkpt>
<trkpt lat="47.788548" lon="12.869919"><ele>490.5</ele></trkpt>
<trkpt lat="47.789321" lon="12.869683"><ele>493.3</ele></trkpt>
<trkpt lat="47.790425" lon="12.868348"><ele>495.5</ele></trkpt>
<trkpt lat="47.790439" lon="12.868331"><ele>495.6</ele></trkpt>
<trkpt lat="47.791849" lon="12.867714"><ele>496.9</ele></trkpt>
<trkpt lat="47.792611" lon="12.867349"><ele>498.8</ele></trkpt>
<trkpt lat="47.793756" lon="12.865983"><ele>503.5</ele></trkpt>
<trkpt lat="47.794879" lon="12.864735"><ele>507.5</ele></trkpt>
<trkpt lat="47.796068" lon="12.863451"><ele>512.5</ele></trkpt>
<trkpt lat="47.796126" lon="12.863391"><ele>512.8</ele></trkpt>
<trkpt lat="47.797331" lon="12.862746"><ele>516.4</ele></trkpt>
<trkpt lat="47.798182" lon="12.861635"><ele>518.5</ele></trkpt>
<trkpt lat="47.799144" lon="12.860895"><ele>523.9</ele></trkpt>
<trkpt lat="47.800198" lon="12.859599"><ele>530.1</ele></trkpt>
<trkpt lat="47.800890" lon="12.858821"><ele>531.0</ele></trkpt>
<trkpt lat="47.801319" lon="12.857484"><ele>533.4</ele></trkpt>
<trkpt lat="47.801951" lon="12.858424"><ele>542.1</ele></trkpt>
<trkpt lat="47.801910" lon="12.857817"><ele>544.0</ele></trkpt>
<trkpt lat="47.802238" lon="12.856984"><ele>551.7</ele></trkpt>
<trkpt lat="47.802954" lon="12.856685"><ele>553.5</ele></trkpt>
<trkpt lat="47.804102" lon="12.855560"><ele>554.3</ele></trkpt>
<trkpt lat="47.804190" lon="12.855468"><ele>554.9</ele></trkpt>
<trkpt lat="47.804591" lon="12.854719"><ele>555.6</ele></trkpt>
<trkpt lat="47.804806" lon="12.853870"><ele>555.3</ele></trkpt>
<trkpt lat="47.804831" lon="12.853053"><ele>554.8</ele></trkpt>
<trkpt lat="47.805434" lon="12.851967"><ele>556.6</ele></trkpt>
<trkpt lat="47.805659" lon="12.850448"><ele>560.4</ele></trkpt>
<trkpt lat="47.806603" lon="12.849019"><ele>568.3</ele></trkpt>
<trkpt lat="47.807661" lon="12.847682"><ele>574.3</ele></trkpt>
<trkpt lat="47.807691" lon="12.847599"><ele>574.6</ele></trkpt>
<trkpt lat="47.807505" lon="12.845365"><ele>583.7</ele></trkpt>
<trkpt lat="47.807477" lon="12.844832"><ele>585.1</ele></trkpt>
<trkpt lat="47.807616" lon="12.843683"><ele>587.7</ele></trkpt>
<trkpt lat="47.806997" lon="12.841889"><ele>593.0</ele></trkpt>
<trkpt lat="47.806562" lon="12.840613"><ele>595.7</ele></trkpt>
<trkpt lat="47.806128" lon="12.838573"><ele>604.5</ele></trkpt>
<trkpt lat="47.805682" lon="12.836850"><ele>617.2</ele></trkpt>
<trkpt lat="47.805813" lon="12.835315"><ele>635.2</ele></trkpt>
<trkpt lat="47.806056" lon="12.834707"><ele>643.2</ele></trkpt>
<trkpt lat="47.805399" lon="12.834172"><ele>647.9</ele></trkpt>
<trkpt lat="47.805427" lon="12.833071"><ele>652.8</ele></trkpt>
<trkpt lat="47.805286" lon="12.832506"><ele>663.8</ele></trkpt>
<trkpt lat="47.804255" lon="12.831052"><ele>678.3</ele></trkpt>
<trkpt lat="47.803986" lon="12.830581"><ele>678.7</ele></trkpt>
<trkpt lat="47.803840" lon="12.829633"><ele>685.6</ele></trkpt>
<trkpt lat="47.803941" lon="12.828088"><ele>701.2</ele></trkpt>
<trkpt lat="47.803542" lon="12.827132"><ele>714.6</ele></trkpt>
<trkpt lat="47.803495" lon="12.826072"><ele>721.1</ele></trkpt>
<trkpt lat="47.802796" lon="12.824323"><ele>732.6</ele></trkpt>
<trkpt lat="47.802577" lon="12.823429"><ele>739.1</ele></trkpt>
<trkpt lat="47.802444" lon="12.822330"><ele>752.4</ele></trkpt>
<trkpt lat="47.802538" lon="12.822243"><ele>755.5</ele></trkpt>
<trkpt lat="47.802757" lon="12.822213"><ele>760.7</ele></trkpt>
<trkpt lat="47.803133" lon="12.822936"><ele>760.7</ele></trkpt>
<trkpt lat="47.803351" lon="12.823038"><ele>763.3</ele></trkpt>
<trkpt lat="47.803566" lon="12.822286"><ele>775.2</ele></trkpt>
<trkpt lat="47.803972" lon="12.821945"><ele>784.9</ele></trkpt>
<trkpt lat="47.805065" lon="12.822131"><ele>792.1</ele></trkpt>
<trkpt lat="47.805531" lon="12.821838"><ele>804.4</ele></trkpt>
<trkpt lat="47.804750" lon="12.820589"><ele>821.5</ele></trkpt>
<trkpt lat="47.803740" lon="12.820166"><ele>822.1</ele></trkpt>
<trkpt lat="47.803105" lon="12.819403"><ele>824.6</ele></trkpt>
<trkpt lat="47.802740" lon="12.818010"><ele>842.4</ele></trkpt>
<trkpt lat="47.803169" lon="12.817480"><ele>848.8</ele></trkpt>
<trkpt lat="47.803995" lon="12.817714"><ele>847.9</ele></trkpt>
<trkpt lat="47.804055" lon="12.817553"><ele>847.7</ele></trkpt>
<trkpt lat="47.803894" lon="12.817189"><ele>847.3</ele></trkpt>
<trkpt lat="47.802727" lon="12.815835"><ele>848.7</ele></trkpt>
<trkpt lat="47.801954" lon="12.815074"><ele>852.0</ele></trkpt>
<trkpt lat="47.801963" lon="12.814325"><ele>850.2</ele></trkpt>
<trkpt lat="47.802649" lon="12.813334"><ele>846.5</ele></trkpt>
<trkpt lat="47.802142" lon="12.812784"><ele>847.2</ele></trkpt>
<trkpt lat="47.801709" lon="12.810859"><ele>863.8</ele></trkpt>
<trkpt lat="47.801532" lon="12.810284"><ele>858.1</ele></trkpt>
<trkpt lat="47.801678" lon="12.809103"><ele>854.7</ele></trkpt>
<trkpt lat="47.801443" lon="12.808298"><ele>856.1</ele></trkpt>
<trkpt lat="47.801936" lon="12.807940"><ele>862.3</ele></trkpt>
<trkpt lat="47.802178" lon="12.807272"><ele>870.2</ele></trkpt>
<trkpt lat="47.801873" lon="12.806079"><ele>873.7</ele></trkpt>
<trkpt lat="47.801290" lon="12.805448"><ele>875.5</ele></trkpt>
<trkpt lat="47.801267" lon="12.804963"><ele>878.4</ele></trkpt>
<trkpt lat="47.801685" lon="12.804244"><ele>887.6</ele></trkpt>
<trkpt lat="47.802106" lon="12.804105"><ele>892.8</ele></trkpt>
<trkpt lat="47.802589" lon="12.804554"><ele>902.0</ele></trkpt>
<trkpt lat="47.803051" lon="12.805402"><ele>909.5</ele></trkpt>
<trkpt lat="47.803544" lon="12.805227"><ele>925.1</ele></trkpt>
<trkpt lat="47.804225" lon="12.806347"><ele>924.6</ele></trkpt>
<trkpt lat="47.804393" lon="12.806355"><ele>927.6</ele></trkpt>
<trkpt lat="47.804246" lon="12.805686"><ele>934.3</ele></trkpt>
<trkpt lat="47.803625" lon="12.804345"><ele>942.2</ele></trkpt>
<trkpt lat="47.803468" lon="12.803005"><ele>949.3</ele></trkpt>
<trkpt lat="47.803109" lon="12.802401"><ele>942.3</ele></trkpt>
<trkpt lat="47.802779" lon="12.801309"><ele>949.8</ele></trkpt>
<trkpt lat="47.801904" lon="12.799913"><ele>965.4</ele></trkpt>
<trkpt lat="47.801785" lon="12.798854"><ele>975.0</ele></trkpt>
<trkpt lat="47.801170" lon="12.797480"><ele>961.5</ele></trkpt>
<trkpt lat="47.801281" lon="12.796861"><ele>966.7</ele></trkpt>
<trkpt lat="47.801206" lon="12.795452"><ele>967.7</ele></trkpt>
<trkpt lat="47.800654" lon="12.794291"><ele>967.7</ele></trkpt>
<trkpt lat="47.800448" lon="12.793336"><ele>973.5</ele></trkpt>
<trkpt lat="47.800399" lon="12.791176"><ele>996.9</ele></trkpt>
<trkpt lat="47.800349" lon="12.789704"><ele>1001.1</ele></trkpt>
<trkpt lat="47.800974" lon="12.788566"><ele>1014.8</ele></trkpt>
<trkpt lat="47.801331" lon="12.787407"><ele>1025.2</ele></trkpt>
<trkpt lat="47.801386" lon="12.786129"><ele>1041.7</ele></trkpt>
<trkpt lat="47.800783" lon="12.785474"><ele>1046.2</ele></trkpt>
<trkpt lat="47.800758" lon="12.784855"><ele>1048.1</ele></trkpt>
<trkpt lat="47.801719" lon="12.783472"><ele>1075.6</ele></trkpt>
<trkpt lat="47.801911" lon="12.782856"><ele>1083.7</ele></trkpt>
<trkpt lat="47.802772" lon="12.781891"><ele>1109.2</ele></trkpt>
<trkpt lat="47.802883" lon="12.780802"><ele>1113.6</ele></trkpt>
<trkpt lat="47.803223" lon="12.779977"><ele>1127.2</ele></trkpt>
<trkpt lat="47.803843" lon="12.779384"><ele>1135.7</ele></trkpt>
<trkpt lat="47.804323" lon="12.779541"><ele>1151.8</ele></trkpt>
<trkpt lat="47.804538" lon="12.779389"><ele>1156.2</ele></trkpt>
<trkpt lat="47.804902" lon="12.778661"><ele>1159.9</ele></trkpt>
<trkpt lat="47.804918" lon="12.778060"><ele>1158.9</ele></trkpt>
<trkpt lat="47.805198" lon="12.777425"><ele>1169.0</ele></trkpt>
<trkpt lat="47.804687" lon="12.775568"><ele>1183.5</ele></trkpt>
<trkpt lat="47.804644" lon="12.773838"><ele>1200.5</ele></trkpt>
<trkpt lat="47.804501" lon="12.773464"><ele>1206.8</ele></trkpt>
<trkpt lat="47.804139" lon="12.773357"><ele>1219.4</ele></trkpt>
<trkpt lat="47.803795" lon="12.773764"><ele>1220.3</ele></trkpt>
<trkpt lat="47.802551" lon="12.774380"><ele>1223.4</ele></trkpt>
<trkpt lat="47.802466" lon="12.774098"><ele>1227.2</ele></trkpt>
<trkpt lat="47.803384" lon="12.772413"><ele>1250.5</ele></trkpt>
<trkpt lat="47.803732" lon="12.771996"><ele>1260.2</ele></trkpt>
<trkpt lat="47.803702" lon="12.771139"><ele>1266.8</ele></trkpt>
<trkpt lat="47.803847" lon="12.771006"><ele>1270.7</ele></trkpt>
<trkpt lat="47.803942" lon="12.771581"><ele>1266.4</ele></trkpt>
<trkpt lat="47.804157" lon="12.770730"><ele>1278.2</ele></trkpt>
<trkpt lat="47.804520" lon="12.770700"><ele>1282.2</ele></trkpt>
<trkpt lat="47.805219" lon="12.770047"><ele>1301.5</ele></trkpt>
<trkpt lat="47.805948" lon="12.770258"><ele>1302.5</ele></trkpt>
<trkpt lat="47.806575" lon="12.770870"><ele>1294.7</ele></trkpt>
<trkpt lat="47.806949" lon="12.771736"><ele>1283.0</ele></trkpt>
<trkpt lat="47.807212" lon="12.773697"><ele>1257.2</ele></trkpt>
<trkpt lat="47.807696" lon="12.775395"><ele>1263.0</ele></trkpt>
<trkpt lat="47.807364" lon="12.776741"><ele>1258.4</ele></trkpt>
<trkpt lat="47.806924" lon="12.777456"><ele>1244.6</ele></trkpt>
<trkpt lat="47.806102" lon="12.779292"><ele>1222.9</ele></trkpt>
<trkpt lat="47.805865" lon="12.779983"><ele>1222.0</ele></trkpt>
<trkpt lat="47.805061" lon="12.780929"><ele>1198.6</ele></trkpt>
<trkpt lat="47.804765" lon="12.783092"><ele>1170.3</ele></trkpt>
<trkpt lat="47.804694" lon="12.783429"><ele>1166.4</ele></trkpt>
<trkpt lat="47.804256" lon="12.783332"><ele>1154.3</ele></trkpt>
<trkpt lat="47.803723" lon="12.782461"><ele>1142.2</ele></trkpt>
<trkpt lat="47.803784" lon="12.781551"><ele>1143.0</ele></trkpt>
<trkpt lat="47.803587" lon="12.780441"><ele>1135.6</ele></trkpt>
<trkpt lat="47.803751" lon="12.779439"><ele>1134.5</ele></trkpt>
<trkpt lat="47.803223" lon="12.779977"><ele>1127.2</ele></trkpt>
<trkpt lat="47.802883" lon="12.780802"><ele>1113.6</ele></trkpt>
<trkpt lat="47.802772" lon="12.781891"><ele>1109.2</ele></trkpt>
<trkpt lat="47.801911" lon="12.782856"><ele>1083.7</ele></trkpt>
<trkpt lat="47.801719" lon="12.783472"><ele>1075.6</ele></trkpt>
<trkpt lat="47.800758" lon="12.784855"><ele>1048.1</ele></trkpt>
<trkpt lat="47.800783" lon="12.785474"><ele>1046.2</ele></trkpt>
<trkpt lat="47.801228" lon="12.785808"><ele>1044.1</ele></trkpt>
<trkpt lat="47.801397" lon="12.786241"><ele>1040.4</ele></trkpt>
<trkpt lat="47.801320" lon="12.787509"><ele>1023.7</ele></trkpt>
<trkpt lat="47.800907" lon="12.788718"><ele>1013.7</ele></trkpt>
<trkpt lat="47.800349" lon="12.789704"><ele>1001.1</ele></trkpt>
<trkpt lat="47.800165" lon="12.789518"><ele>995.5</ele></trkpt>
<trkpt lat="47.800043" lon="12.788820"><ele>988.9</ele></trkpt>
<trkpt lat="47.799645" lon="12.788411"><ele>978.9</ele></trkpt>
<trkpt lat="47.799335" lon="12.787284"><ele>980.7</ele></trkpt>
<trkpt lat="47.798926" lon="12.787167"><ele>977.5</ele></trkpt>
<trkpt lat="47.798144" lon="12.788848"><ele>964.6</ele></trkpt>
<trkpt lat="47.798127" lon="12.788882"><ele>964.3</ele></trkpt>
<trkpt lat="47.797553" lon="12.789274"><ele>965.5</ele></trkpt>
<trkpt lat="47.797456" lon="12.790315"><ele>961.1</ele></trkpt>
<trkpt lat="47.797640" lon="12.791240"><ele>955.5</ele></trkpt>
<trkpt lat="47.796873" lon="12.792780"><ele>954.8</ele></trkpt>
<trkpt lat="47.795531" lon="12.793337"><ele>960.5</ele></trkpt>
<trkpt lat="47.794985" lon="12.793625"><ele>961.6</ele></trkpt>
<trkpt lat="47.794702" lon="12.794042"><ele>954.1</ele></trkpt>
<trkpt lat="47.794171" lon="12.794349"><ele>959.0</ele></trkpt>
<trkpt lat="47.793257" lon="12.795796"><ele>963.7</ele></trkpt>
<trkpt lat="47.792857" lon="12.796154"><ele>972.3</ele></trkpt>
<trkpt lat="47.792344" lon="12.798033"><ele>965.8</ele></trkpt>
<trkpt lat="47.792193" lon="12.798711"><ele>961.6</ele></trkpt>
<trkpt lat="47.791954" lon="12.799055"><ele>962.8</ele></trkpt>
<trkpt lat="47.792115" lon="12.800126"><ele>948.7</ele></trkpt>
<trkpt lat="47.791804" lon="12.801124"><ele>934.9</ele></trkpt>
<trkpt lat="47.790975" lon="12.800518"><ele>934.1</ele></trkpt>
<trkpt lat="47.790365" lon="12.800569"><ele>929.5</ele></trkpt>
<trkpt lat="47.789107" lon="12.800042"><ele>936.1</ele></trkpt>
<trkpt lat="47.788546" lon="12.800805"><ele>918.8</ele></trkpt>
<trkpt lat="47.788335" lon="12.800788"><ele>917.5</ele></trkpt>
<trkpt lat="47.787257" lon="12.799437"><ele>924.2</ele></trkpt>
<trkpt lat="47.786385" lon="12.798922"><ele>926.8</ele></trkpt>
<trkpt lat="47.785548" lon="12.799124"><ele>917.0</ele></trkpt>
<trkpt lat="47.784415" lon="12.800143"><ele>905.5</ele></trkpt>
<trkpt lat="47.783492" lon="12.800373"><ele>886.3</ele></trkpt>
<trkpt lat="47.783315" lon="12.800026"><ele>885.2</ele></trkpt>
<trkpt lat="47.783474" lon="12.798583"><ele>886.3</ele></trkpt>
<trkpt lat="47.783378" lon="12.798444"><ele>884.4</ele></trkpt>
<trkpt lat="47.782504" lon="12.799206"><ele>873.0</ele></trkpt>
<trkpt lat="47.781951" lon="12.800214"><ele>866.6</ele></trkpt>
<trkpt lat="47.781094" lon="12.800270"><ele>864.2</ele></trkpt>
<trkpt lat="47.780486" lon="12.800836"><ele>852.2</ele></trkpt>
<trkpt lat="47.779715" lon="12.801130"><ele>849.7</ele></trkpt>
<trkpt lat="47.779485" lon="12.801089"><ele>844.2</ele></trkpt>
<trkpt lat="47.778978" lon="12.800428"><ele>835.3</ele></trkpt>
<trkpt lat="47.779144" lon="12.801221"><ele>842.1</ele></trkpt>
<trkpt lat="47.779000" lon="12.801450"><ele>844.7</ele></trkpt>
<trkpt lat="47.778101" lon="12.799805"><ele>834.4</ele></trkpt>
<trkpt lat="47.777921" lon="12.799582"><ele>830.8</ele></trkpt>
<trkpt lat="47.776616" lon="12.798543"><ele>818.1</ele></trkpt>
<trkpt lat="47.775389" lon="12.797676"><ele>812.3</ele></trkpt>
<trkpt lat="47.774678" lon="12.797321"><ele>801.7</ele></trkpt>
<trkpt lat="47.773791" lon="12.796300"><ele>798.0</ele></trkpt>
<trkpt lat="47.773441" lon="12.795320"><ele>796.2</ele></trkpt>
<trkpt lat="47.772599" lon="12.795908"><ele>804.2</ele></trkpt>
<trkpt lat="47.771762" lon="12.797033"><ele>813.6</ele></trkpt>
<trkpt lat="47.770922" lon="12.798904"><ele>825.3</ele></trkpt>
<trkpt lat="47.770333" lon="12.799947"><ele>838.2</ele></trkpt>
<trkpt lat="47.770591" lon="12.801448"><ele>844.7</ele></trkpt>
<trkpt lat="47.771165" lon="12.801360"><ele>848.5</ele></trkpt>
<trkpt lat="47.771591" lon="12.801940"><ele>857.3</ele></trkpt>
<trkpt lat="47.771990" lon="12.803894"><ele>880.1</ele></trkpt>
<trkpt lat="47.771974" lon="12.804626"><ele>888.6</ele></trkpt>
<trkpt lat="47.772485" lon="12.804947"><ele>890.8</ele></trkpt>
<trkpt lat="47.772941" lon="12.804968"><ele>896.2</ele></trkpt>
<trkpt lat="47.773955" lon="12.804018"><ele>897.8</ele></trkpt>
<trkpt lat="47.774469" lon="12.804728"><ele>903.0</ele></trkpt>
<trkpt lat="47.774465" lon="12.805851"><ele>905.8</ele></trkpt>
<trkpt lat="47.774654" lon="12.806869"><ele>908.2</ele></trkpt>
<trkpt lat="47.774535" lon="12.807948"><ele>914.0</ele></trkpt>
<trkpt lat="47.775099" lon="12.808157"><ele>912.2</ele></trkpt>
<trkpt lat="47.774704" lon="12.808870"><ele>918.9</ele></trkpt>
<trkpt lat="47.773358" lon="12.809710"><ele>935.0</ele></trkpt>
<trkpt lat="47.773081" lon="12.810136"><ele>934.9</ele></trkpt>
<trkpt lat="47.772904" lon="12.811022"><ele>936.2</ele></trkpt>
<trkpt lat="47.772512" lon="12.811613"><ele>936.8</ele></trkpt>
<trkpt lat="47.771497" lon="12.811951"><ele>935.9</ele></trkpt>
<trkpt lat="47.770595" lon="12.812739"><ele>937.0</ele></trkpt>
<trkpt lat="47.771526" lon="12.813300"><ele>932.8</ele></trkpt>
<trkpt lat="47.771640" lon="12.813864"><ele>938.7</ele></trkpt>
<trkpt lat="47.772057" lon="12.814755"><ele>941.2</ele></trkpt>
<trkpt lat="47.772447" lon="12.815168"><ele>943.0</ele></trkpt>
<trkpt lat="47.773083" lon="12.816936"><ele>955.6</ele></trkpt>
<trkpt lat="47.773187" lon="12.817119"><ele>956.2</ele></trkpt>
<trkpt lat="47.774522" lon="12.817283"><ele>952.3</ele></trkpt>
<trkpt lat="47.774737" lon="12.817335"><ele>953.5</ele></trkpt>
<trkpt lat="47.775462" lon="12.817123"><ele>953.7</ele></trkpt>
<trkpt lat="47.776327" lon="12.815730"><ele>935.8</ele></trkpt>
<trkpt lat="47.777130" lon="12.815106"><ele>922.1</ele></trkpt>
<trkpt lat="47.777477" lon="12.813372"><ele>917.5</ele></trkpt>
<trkpt lat="47.778215" lon="12.812067"><ele>903.9</ele></trkpt>
<trkpt lat="47.777902" lon="12.813930"><ele>902.5</ele></trkpt>
<trkpt lat="47.777857" lon="12.815404"><ele>895.4</ele></trkpt>
<trkpt lat="47.778033" lon="12.815867"><ele>891.7</ele></trkpt>
<trkpt lat="47.778649" lon="12.815951"><ele>887.7</ele></trkpt>
<trkpt lat="47.778815" lon="12.816367"><ele>892.3</ele></trkpt>
<trkpt lat="47.778833" lon="12.818405"><ele>904.5</ele></trkpt>
<trkpt lat="47.778833" lon="12.820271"><ele>906.4</ele></trkpt>
<trkpt lat="47.779102" lon="12.822267"><ele>909.0</ele></trkpt>
<trkpt lat="47.779229" lon="12.822800"><ele>911.5</ele></trkpt>
<trkpt lat="47.779021" lon="12.824953"><ele>908.1</ele></trkpt>
<trkpt lat="47.778963" lon="12.825956"><ele>912.7</ele></trkpt>
<trkpt lat="47.779042" lon="12.826962"><ele>914.2</ele></trkpt>
<trkpt lat="47.778461" lon="12.828262"><ele>921.2</ele></trkpt>
<trkpt lat="47.778487" lon="12.829956"><ele>934.7</ele></trkpt>
<trkpt lat="47.778798" lon="12.831296"><ele>939.9</ele></trkpt>
<trkpt lat="47.779342" lon="12.831725"><ele>947.2</ele></trkpt>
<trkpt lat="47.779435" lon="12.832690"><ele>946.5</ele></trkpt>
<trkpt lat="47.779632" lon="12.833205"><ele>945.8</ele></trkpt>
<trkpt lat="47.779654" lon="12.834192"><ele>934.8</ele></trkpt>
<trkpt lat="47.779277" lon="12.835136"><ele>920.7</ele></trkpt>
<trkpt lat="47.778912" lon="12.835090"><ele>913.4</ele></trkpt>
<trkpt lat="47.778462" lon="12.837189"><ele>898.8</ele></trkpt>
<trkpt lat="47.778234" lon="12.838004"><ele>892.5</ele></trkpt>
<trkpt lat="47.778580" lon="12.839013"><ele>883.4</ele></trkpt>
<trkpt lat="47.778580" lon="12.840095"><ele>872.1</ele></trkpt>
<trkpt lat="47.778460" lon="12.840636"><ele>868.9</ele></trkpt>
<trkpt lat="47.777803" lon="12.841948"><ele>854.1</ele></trkpt>
<trkpt lat="47.777947" lon="12.843464"><ele>835.2</ele></trkpt>
<trkpt lat="47.778385" lon="12.843974"><ele>829.1</ele></trkpt>
<trkpt lat="47.778420" lon="12.844639"><ele>823.9</ele></trkpt>
<trkpt lat="47.778224" lon="12.845091"><ele>817.1</ele></trkpt>
<trkpt lat="47.777794" lon="12.845137"><ele>805.9</ele></trkpt>
<trkpt lat="47.777513" lon="12.845566"><ele>793.3</ele></trkpt>
<trkpt lat="47.777353" lon="12.846170"><ele>789.0</ele></trkpt>
<trkpt lat="47.777347" lon="12.848306"><ele>763.8</ele></trkpt>
<trkpt lat="47.777346" lon="12.848594"><ele>761.4</ele></trkpt>
<trkpt lat="47.777632" lon="12.849589"><ele>745.7</ele></trkpt>
<trkpt lat="47.777613" lon="12.851586"><ele>720.1</ele></trkpt>
<trkpt lat="47.777637" lon="12.852560"><ele>707.1</ele></trkpt>
<trkpt lat="47.778385" lon="12.854490"><ele>679.9</ele></trkpt>
<trkpt lat="47.778456" lon="12.854652"><ele>678.0</ele></trkpt>
<trkpt lat="47.778556" lon="12.855491"><ele>664.5</ele></trkpt>
<trkpt lat="47.779052" lon="12.856334"><ele>649.8</ele></trkpt>
<trkpt lat="47.779416" lon="12.856636"><ele>644.8</ele></trkpt>
<trkpt lat="47.780129" lon="12.858144"><ele>631.8</ele></trkpt>
<trkpt lat="47.780163" lon="12.859624"><ele>609.9</ele></trkpt>
<trkpt lat="47.780444" lon="12.860617"><ele>602.8</ele></trkpt>
<trkpt lat="47.781592" lon="12.861760"><ele>567.3</ele></trkpt>
<trkpt lat="47.781771" lon="12.861948"><ele>563.7</ele></trkpt>
<trkpt lat="47.782019" lon="12.863296"><ele>553.1</ele></trkpt>
<trkpt lat="47.781652" lon="12.863392"><ele>551.2</ele></trkpt>
<trkpt lat="47.781353" lon="12.863835"><ele>547.0</ele></trkpt>
<trkpt lat="47.781654" lon="12.865079"><ele>540.1</ele></trkpt>
<trkpt lat="47.781608" lon="12.865810"><ele>534.0</ele></trkpt>
<trkpt lat="47.781968" lon="12.867130"><ele>523.6</ele></trkpt>
<trkpt lat="47.781327" lon="12.868670"><ele>514.8</ele></trkpt>
<trkpt lat="47.781548" lon="12.870676"><ele>502.1</ele></trkpt>
<trkpt lat="47.781701" lon="12.871815"><ele>495.9</ele></trkpt>
<trkpt lat="47.780436" lon="12.872853"><ele>489.6</ele></trkpt>
<trkpt lat="47.779143" lon="12.874049"><ele>480.3</ele></trkpt>
<trkpt lat="47.778554" lon="12.874618"><ele>477.9</ele></trkpt>
<trkpt lat="47.778495" lon="12.874781"><ele>477.5</ele></trkpt>
<trkpt lat="47.778947" lon="12.875755"><ele>475.0</ele></trkpt>
<trkpt lat="47.778953" lon="12.876442"><ele>474.8</ele></trkpt>
<trkpt lat="47.777618" lon="12.877254"><ele>471.7</ele></trkpt>
<trkpt lat="47.777153" lon="12.877685"><ele>468.9</ele></trkpt>
<trkpt lat="47.776087" lon="12.879021"><ele>469.0</ele></trkpt>
<trkpt lat="47.775660" lon="12.879615"><ele>469.0</ele></trkpt>
<trkpt lat="47.774677" lon="12.881173"><ele>472.0</ele></trkpt>
<trkpt lat="47.774542" lon="12.881486"><ele>471.9</ele></trkpt>
<trkpt lat="47.773275" lon="12.882662"><ele>471.6</ele></trkpt>
<trkpt lat="47.772908" lon="12.883093"><ele>472.1</ele></trkpt>
<trkpt lat="47.772334" lon="12.884237"><ele>473.2</ele></trkpt>
<trkpt lat="47.771705" lon="12.886189"><ele>478.8</ele></trkpt>
<trkpt lat="47.771495" lon="12.886626"><ele>479.6</ele></trkpt>
<trkpt lat="47.771101" lon="12.887132"><ele>474.6</ele></trkpt>
<trkpt lat="47.769909" lon="12.887982"><ele>470.7</ele></trkpt>
<trkpt lat="47.769569" lon="12.888493"><ele>466.8</ele></trkpt>
<trkpt lat="47.768901" lon="12.890418"><ele>460.5</ele></trkpt>
<trkpt lat="47.768410" lon="12.891705"><ele>457.5</ele></trkpt>
<trkpt lat="47.767588" lon="12.893465"><ele>458.0</ele></trkpt>
<trkpt lat="47.766878" lon="12.895113"><ele>456.0</ele></trkpt>
<trkpt lat="47.765769" lon="12.896338"><ele>456.8</ele></trkpt>
<trkpt lat="47.764530" lon="12.897644"><ele>457.0</ele></trkpt>
<trkpt lat="47.763295" lon="12.898953"><ele>455.9</ele></trkpt>
<trkpt lat="47.763264" lon="12.898988"><ele>455.8</ele></trkpt>
<trkpt lat="47.762581" lon="12.900107"><ele>456.9</ele></trkpt>
<trkpt lat="47.761680" lon="12.899562"><ele>454.5</ele></trkpt>
<trkpt lat="47.761660" lon="12.900156"><ele>457.5</ele></trkpt>
<trkpt lat="47.760314" lon="12.900558"><ele>459.0</ele></trkpt>
<trkpt lat="47.759756" lon="12.900778"><ele>457.3</ele></trkpt>
<trkpt lat="47.758947" lon="12.900563"><ele>456.9</ele></trkpt>
<trkpt lat="47.758658" lon="12.901678"><ele>452.0</ele></trkpt>
<trkpt lat="47.757751" lon="12.901634"><ele>453.0</ele></trkpt>
<trkpt lat="47.756884" lon="12.903414"><ele>453.3</ele></trkpt>
<trkpt lat="47.756803" lon="12.903641"><ele>451.9</ele></trkpt>
<trkpt lat="47.755600" lon="12.902608"><ele>452.6</ele></trkpt>
<trkpt lat="47.754410" lon="12.901591"><ele>453.1</ele></trkpt>
<trkpt lat="47.753967" lon="12.901213"><ele>453.0</ele></trkpt>
<trkpt lat="47.752778" lon="12.902291"><ele>458.7</ele></trkpt>
<trkpt lat="47.752611" lon="12.902418"><ele>458.6</ele></trkpt>
<trkpt lat="47.751847" lon="12.902649"><ele>458.0</ele></trkpt>
<trkpt lat="47.750646" lon="12.901385"><ele>471.7</ele></trkpt>
<trkpt lat="47.750593" lon="12.901341"><ele>472.2</ele></trkpt>
<trkpt lat="47.749239" lon="12.901103"><ele>467.1</ele></trkpt>
<trkpt lat="47.748944" lon="12.901013"><ele>467.3</ele></trkpt>
<trkpt lat="47.747720" lon="12.900053"><ele>458.1</ele></trkpt>
<trkpt lat="47.747599" lon="12.899938"><ele>457.0</ele></trkpt>
<trkpt lat="47.746856" lon="12.900634"><ele>458.7</ele></trkpt>
<trkpt lat="47.746796" lon="12.900174"><ele>457.7</ele></trkpt>
<trkpt lat="47.745991" lon="12.898355"><ele>459.6</ele></trkpt>
<trkpt lat="47.745674" lon="12.897284"><ele>462.4</ele></trkpt>
<trkpt lat="47.745251" lon="12.896696"><ele>463.1</ele></trkpt>
<trkpt lat="47.744765" lon="12.895508"><ele>461.9</ele></trkpt>
<trkpt lat="47.744501" lon="12.895290"><ele>462.8</ele></trkpt>
<trkpt lat="47.744049" lon="12.894024"><ele>465.6</ele></trkpt>
<trkpt lat="47.743213" lon="12.892394"><ele>466.9</ele></trkpt>
<trkpt lat="47.742328" lon="12.890621"><ele>462.5</ele></trkpt>
<trkpt lat="47.742142" lon="12.890272"><ele>463.3</ele></trkpt>
<trkpt lat="47.741496" lon="12.889633"><ele>462.0</ele></trkpt>
<trkpt lat="47.740761" lon="12.887826"><ele>465.6</ele></trkpt>
<trkpt lat="47.740268" lon="12.886363"><ele>466.0</ele></trkpt>
<trkpt lat="47.739455" lon="12.884715"><ele>467.0</ele></trkpt>
<trkpt lat="47.738668" lon="12.882994"><ele>466.6</ele></trkpt>
<trkpt lat="47.737817" lon="12.881371"><ele>463.7</ele></trkpt>
<trkpt lat="47.737043" lon="12.879701"><ele>463.6</ele></trkpt>
<trkpt lat="47.736231" lon="12.878030"><ele>463.1</ele></trkpt>
<trkpt lat="47.735357" lon="12.876200"><ele>464.3</ele></trkpt>
<trkpt lat="47.735222" lon="12.875846"><ele>464.2</ele></trkpt>
<trkpt lat="47.734213" lon="12.874370"><ele>468.3</ele></trkpt>
<trkpt lat="47.733837" lon="12.874066"><ele>470.8</ele></trkpt>
<trkpt lat="47.733074" lon="12.872376"><ele>468.0</ele></trkpt>
<trkpt lat="47.732830" lon="12.871852"><ele>469.5</ele></trkpt>
<trkpt lat="47.732066" lon="12.870861"><ele>469.9</ele></trkpt>
<trkpt lat="47.732680" lon="12.869573"><ele>466.5</ele></trkpt>
<trkpt lat="47.733314" lon="12.869335"><ele>471.9</ele></trkpt>
<trkpt lat="47.733247" lon="12.869208"><ele>471.6</ele></trkpt>
<trkpt lat="47.734134" lon="12.868524"><ele>474.8</ele></trkpt>
<trkpt lat="47.735119" lon="12.867113"><ele>467.4</ele></trkpt>
<trkpt lat="47.735489" lon="12.866593"><ele>463.1</ele></trkpt>
<trkpt lat="47.736516" lon="12.865885"><ele>470.9</ele></trkpt>
<trkpt lat="47.736039" lon="12.865837"><ele>470.7</ele></trkpt>
<trkpt lat="47.734786" lon="12.864673"><ele>470.5</ele></trkpt>
<trkpt lat="47.733547" lon="12.863583"><ele>485.3</ele></trkpt>
<trkpt lat="47.733326" lon="12.863305"><ele>485.9</ele></trkpt>
<trkpt lat="47.733323" lon="12.862367"><ele>484.9</ele></trkpt>
<trkpt lat="47.733830" lon="12.861803"><ele>482.6</ele></trkpt>
<trkpt lat="47.734168" lon="12.861067"><ele>486.0</ele></trkpt>
<trkpt lat="47.734371" lon="12.859841"><ele>495.2</ele></trkpt>
<trkpt lat="47.734911" lon="12.858719"><ele>507.5</ele></trkpt>
<trkpt lat="47.735108" lon="12.857228"><ele>512.3</ele></trkpt>
<trkpt lat="47.734867" lon="12.856236"><ele>518.0</ele></trkpt>
<trkpt lat="47.734828" lon="12.854193"><ele>536.0</ele></trkpt>
<trkpt lat="47.734726" lon="12.852451"><ele>540.8</ele></trkpt>
<trkpt lat="47.735110" lon="12.850895"><ele>549.2</ele></trkpt>
<trkpt lat="47.734858" lon="12.849754"><ele>555.6</ele></trkpt>
<trkpt lat="47.735017" lon="12.849040"><ele>561.2</ele></trkpt>
<trkpt lat="47.734373" lon="12.848583"><ele>553.1</ele></trkpt>
<trkpt lat="47.734160" lon="12.848715"><ele>550.1</ele></trkpt>
<trkpt lat="47.734054" lon="12.849092"><ele>544.5</ele></trkpt>
<trkpt lat="47.734437" lon="12.850958"><ele>532.3</ele></trkpt>
<trkpt lat="47.734335" lon="12.851948"><ele>523.3</ele></trkpt>
<trkpt lat="47.734436" lon="12.854117"><ele>518.5</ele></trkpt>
<trkpt lat="47.734424" lon="12.854516"><ele>520.0</ele></trkpt>
<trkpt lat="47.734689" lon="12.855386"><ele>523.3</ele></trkpt>
<trkpt lat="47.734744" lon="12.856169"><ele>515.3</ele></trkpt>
<trkpt lat="47.735108" lon="12.857228"><ele>512.3</ele></trkpt>
<trkpt lat="47.734911" lon="12.858719"><ele>507.5</ele></trkpt>
<trkpt lat="47.734371" lon="12.859841"><ele>495.2</ele></trkpt>
<trkpt lat="47.734168" lon="12.861067"><ele>486.0</ele></trkpt>
<trkpt lat="47.733945" lon="12.861431"><ele>484.9</ele></trkpt>
<trkpt lat="47.733591" lon="12.861400"><ele>484.0</ele></trkpt>
<trkpt lat="47.732462" lon="12.860232"><ele>471.4</ele></trkpt>
<trkpt lat="47.731897" lon="12.859668"><ele>468.0</ele></trkpt>
<trkpt lat="47.731240" lon="12.859493"><ele>467.5</ele></trkpt>
<trkpt lat="47.730865" lon="12.859881"><ele>467.1</ele></trkpt>
<trkpt lat="47.730371" lon="12.860838"><ele>467.7</ele></trkpt>
<trkpt lat="47.730695" lon="12.861190"><ele>469.3</ele></trkpt>
<trkpt lat="47.729722" lon="12.862576"><ele>470.5</ele></trkpt>
<trkpt lat="47.729773" lon="12.862606"><ele>470.8</ele></trkpt>
<trkpt lat="47.728731" lon="12.862770"><ele>471.4</ele></trkpt>
<trkpt lat="47.729802" lon="12.864020"><ele>470.5</ele></trkpt>
<trkpt lat="47.730205" lon="12.864501"><ele>470.5</ele></trkpt>
<trkpt lat="47.730589" lon="12.865278"><ele>469.1</ele></trkpt>
<trkpt lat="47.731473" lon="12.866374"><ele>471.4</ele></trkpt>
<trkpt lat="47.731893" lon="12.867372"><ele>474.4</ele></trkpt>
<trkpt lat="47.731791" lon="12.868173"><ele>468.7</ele></trkpt>
<trkpt lat="47.731885" lon="12.868602"><ele>466.3</ele></trkpt>
<trkpt lat="47.732234" lon="12.869304"><ele>463.2</ele></trkpt>
<trkpt lat="47.732626" lon="12.869655"><ele>464.9</ele></trkpt>
<trkpt lat="47.731846" lon="12.871179"><ele>472.2</ele></trkpt>
<trkpt lat="47.730695" lon="12.872038"><ele>465.3</ele></trkpt>
<trkpt lat="47.730477" lon="12.872204"><ele>466.0</ele></trkpt>
<trkpt lat="47.731222" lon="12.873932"><ele>466.2</ele></trkpt>
<trkpt lat="47.731237" lon="12.873970"><ele>466.3</ele></trkpt>
<trkpt lat="47.729977" lon="12.875189"><ele>468.9</ele></trkpt>
<trkpt lat="47.728816" lon="12.876345"><ele>471.0</ele></trkpt>
<trkpt lat="47.727890" lon="12.878101"><ele>469.3</ele></trkpt>
<trkpt lat="47.727441" lon="12.878969"><ele>471.7</ele></trkpt>
<trkpt lat="47.728024" lon="12.879595"><ele>471.7</ele></trkpt>
<trkpt lat="47.729074" lon="12.880274"><ele>469.3</ele></trkpt>
<trkpt lat="47.729690" lon="12.881168"><ele>467.4</ele></trkpt>
<trkpt lat="47.728766" lon="12.882934"><ele>468.2</ele></trkpt>
<trkpt lat="47.728118" lon="12.884187"><ele>469.7</ele></trkpt>
<trkpt lat="47.727687" lon="12.883896"><ele>471.3</ele></trkpt>
<trkpt lat="47.727494" lon="12.883113"><ele>470.2</ele></trkpt>
<trkpt lat="47.726900" lon="12.883842"><ele>474.7</ele></trkpt>
</trkseg></trk></gpx>