<?xml version="1.0" encoding="UTF-8"?>
<gpx version="1.1" creator="Bad Reichenhall gravel – saját gravel-router (OSM/Overture + SRTM)" xmlns="http://www.topografix.com/GPX/1/1">
<metadata><name>Rupertiwinkel – Höglwörth és Teisendorf</name><desc>GENERÁLT NYOMVONAL – Dombos, falusi hangulatú kör a Rupertiwinkelben. Angeren át a Höglwörther See kolostoráig (kolostorkocsma!), majd mezőgazdasági utakon Teisendorfba és Neukirchen am Teisenbergbe tekersz. Visszafelé a Teisenberg lábán, majd Anger és Piding felé gurulsz. Sok rövid, éles emelkedő, gyönyörű kilátás a Staufenre.</desc><copyright author="OpenStreetMap contributors (via Overture Maps)"><license>https://opendatacommons.org/licenses/odbl/</license></copyright><time>2026-10-03T21:20:15Z</time></metadata>
<wpt lat="47.7596" lon="12.9114"><name>Piding</name><type>town</type></wpt>
<wpt lat="47.8156" lon="12.8429"><name>Höglwörther See – kolostor</name><type>history</type></wpt>
<wpt lat="47.8493" lon="12.8343"><name>Teisendorf</name><type>town</type></wpt>
<wpt lat="47.8336" lon="12.7422"><name>Neukirchen am Teisenberg</name><type>town</type></wpt>
<wpt lat="47.8039" lon="12.8559"><name>Anger</name><type>town</type></wpt>
<trk><name>Rupertiwinkel – Höglwörth és Teisendorf</name><type>gravel</type><trkseg>
<trkpt lat="47.726900" lon="12.883842"><ele>474.7</ele></trkpt>
<trkpt lat="47.727494" lon="12.883113"><ele>470.2</ele></trkpt>
<trkpt lat="47.727719" lon="12.883943"><ele>471.1</ele></trkpt>
<trkpt lat="47.728704" lon="12.884653"><ele>467.7</ele></trkpt>
<trkpt lat="47.729731" lon="12.886062"><ele>468.9</ele></trkpt>
<trkpt lat="47.730708" lon="12.887277"><ele>466.8</ele></trkpt>
<trkpt lat="47.731702" lon="12.887899"><ele>465.8</ele></trkpt>
<trkpt lat="47.732859" lon="12.888988"><ele>463.3</ele></trkpt>
<trkpt lat="47.733919" lon="12.889805"><ele>464.0</ele></trkpt>
<trkpt lat="47.735182" lon="12.890496"><ele>464.3</ele></trkpt>
<trkpt lat="47.735557" lon="12.890716"><ele>462.4</ele></trkpt>
<trkpt lat="47.736228" lon="12.891388"><ele>461.0</ele></trkpt>
<trkpt lat="47.737171" lon="12.889930"><ele>462.2</ele></trkpt>
<trkpt lat="47.737239" lon="12.889804"><ele>462.0</ele></trkpt>
<trkpt lat="47.737978" lon="12.890699"><ele>461.0</ele></trkpt>
<trkpt lat="47.738960" lon="12.889148"><ele>459.7</ele></trkpt>
<trkpt lat="47.738985" lon="12.889117"><ele>459.7</ele></trkpt>
<trkpt lat="47.739735" lon="12.890770"><ele>458.2</ele></trkpt>
<trkpt lat="47.740027" lon="12.891500"><ele>458.2</ele></trkpt>
<trkpt lat="47.740805" lon="12.892594"><ele>460.2</ele></trkpt>
<trkpt lat="47.741743" lon="12.894348"><ele>460.8</ele></trkpt>
<trkpt lat="47.742266" lon="12.895494"><ele>459.0</ele></trkpt>
<trkpt lat="47.743626" lon="12.896191"><ele>456.8</ele></trkpt>
<trkpt lat="47.744554" lon="12.896710"><ele>460.6</ele></trkpt>
<trkpt lat="47.745584" lon="12.898214"><ele>458.0</ele></trkpt>
<trkpt lat="47.746300" lon="12.900075"><ele>458.0</ele></trkpt>
<trkpt lat="47.746535" lon="12.900820"><ele>459.0</ele></trkpt>
<trkpt lat="47.747599" lon="12.899938"><ele>457.0</ele></trkpt>
<trkpt lat="47.748542" lon="12.900782"><ele>467.0</ele></trkpt>
<trkpt lat="47.748204" lon="12.901429"><ele>454.6</ele></trkpt>
<trkpt lat="47.748616" lon="12.902192"><ele>451.1</ele></trkpt>
<trkpt lat="47.749440" lon="12.902699"><ele>460.2</ele></trkpt>
<trkpt lat="47.750209" lon="12.903734"><ele>456.4</ele></trkpt>
<trkpt lat="47.750445" lon="12.904478"><ele>454.5</ele></trkpt>
<trkpt lat="47.750880" lon="12.904529"><ele>455.9</ele></trkpt>
<trkpt lat="47.751969" lon="12.905887"><ele>454.8</ele></trkpt>
<trkpt lat="47.752041" lon="12.905976"><ele>454.5</ele></trkpt>
<trkpt lat="47.752692" lon="12.906605"><ele>452.3</ele></trkpt>
<trkpt lat="47.752814" lon="12.906503"><ele>452.1</ele></trkpt>
<trkpt lat="47.753927" lon="12.907856"><ele>453.0</ele></trkpt>
<trkpt lat="47.755062" lon="12.909223"><ele>451.6</ele></trkpt>
<trkpt lat="47.755915" lon="12.910249"><ele>452.9</ele></trkpt>
<trkpt lat="47.756901" lon="12.908690"><ele>451.2</ele></trkpt>
<trkpt lat="47.757110" lon="12.908334"><ele>451.0</ele></trkpt>
<trkpt lat="47.758200" lon="12.909740"><ele>451.0</ele></trkpt>
<trkpt lat="47.759194" lon="12.910957"><ele>452.3</ele></trkpt>
<trkpt lat="47.759681" lon="12.911087"><ele>451.1</ele></trkpt>
<trkpt lat="47.759823" lon="12.911380"><ele>450.6</ele></trkpt>
<trkpt lat="47.759712" lon="12.911579"><ele>451.7</ele></trkpt>
<trkpt lat="47.760047" lon="12.910710"><ele>449.7</ele></trkpt>
<trkpt lat="47.760676" lon="12.911566"><ele>451.0</ele></trkpt>
<trkpt lat="47.761981" lon="12.912557"><ele>449.7</ele></trkpt>
<trkpt lat="47.762179" lon="12.912694"><ele>449.0</ele></trkpt>
<trkpt lat="47.763617" lon="12.913281"><ele>450.8</ele></trkpt>
<trkpt lat="47.763885" lon="12.913379"><ele>450.0</ele></trkpt>
<trkpt lat="47.764274" lon="12.913262"><ele>449.4</ele></trkpt>
<trkpt lat="47.764555" lon="12.912863"><ele>451.2</ele></trkpt>
<trkpt lat="47.765186" lon="12.911056"><ele>449.1</ele></trkpt>
<trkpt lat="47.765272" lon="12.910757"><ele>448.0</ele></trkpt>
<trkpt lat="47.765553" lon="12.910896"><ele>449.0</ele></trkpt>
<trkpt lat="47.766958" lon="12.910685"><ele>450.5</ele></trkpt>
<trkpt lat="47.767285" lon="12.910636"><ele>449.5</ele></trkpt>
<trkpt lat="47.767738" lon="12.909601"><ele>452.4</ele></trkpt>
<trkpt lat="47.768242" lon="12.909947"><ele>453.7</ele></trkpt>
<trkpt lat="47.768360" lon="12.909819"><ele>454.1</ele></trkpt>
<trkpt lat="47.768337" lon="12.908251"><ele>455.7</ele></trkpt>
<trkpt lat="47.768032" lon="12.907997"><ele>454.8</ele></trkpt>
<trkpt lat="47.768205" lon="12.907192"><ele>454.6</ele></trkpt>
<trkpt lat="47.767974" lon="12.906466"><ele>455.0</ele></trkpt>
<trkpt lat="47.768055" lon="12.905969"><ele>454.5</ele></trkpt>
<trkpt lat="47.767783" lon="12.905635"><ele>454.3</ele></trkpt>
<trkpt lat="47.767731" lon="12.905277"><ele>454.3</ele></trkpt>
<trkpt lat="47.768251" lon="12.903212"><ele>456.6</ele></trkpt>
<trkpt lat="47.768691" lon="12.901083"><ele>455.6</ele></trkpt>
<trkpt lat="47.769127" lon="12.899051"><ele>456.9</ele></trkpt>
<trkpt lat="47.769373" lon="12.897995"><ele>456.5</ele></trkpt>
<trkpt lat="47.769479" lon="12.897053"><ele>458.7</ele></trkpt>
<trkpt lat="47.770413" lon="12.895525"><ele>458.1</ele></trkpt>
<trkpt lat="47.771441" lon="12.894103"><ele>459.0</ele></trkpt>
<trkpt lat="47.771570" lon="12.893914"><ele>459.6</ele></trkpt>
<trkpt lat="47.772301" lon="12.892242"><ele>460.6</ele></trkpt>
<trkpt lat="47.772737" lon="12.891415"><ele>461.6</ele></trkpt>
<trkpt lat="47.773868" lon="12.890015"><ele>463.0</ele></trkpt>
<trkpt lat="47.774802" lon="12.888953"><ele>462.3</ele></trkpt>
<trkpt lat="47.776194" lon="12.888189"><ele>465.1</ele></trkpt>
<trkpt lat="47.776981" lon="12.887787"><ele>465.0</ele></trkpt>
<trkpt lat="47.777373" lon="12.886972"><ele>465.4</ele></trkpt>
<trkpt lat="47.778649" lon="12.885812"><ele>467.1</ele></trkpt>
<trkpt lat="47.778868" lon="12.885618"><ele>468.6</ele></trkpt>
<trkpt lat="47.779622" lon="12.883799"><ele>469.8</ele></trkpt>
<trkpt lat="47.780405" lon="12.881898"><ele>472.9</ele></trkpt>
<trkpt lat="47.781150" lon="12.880110"><ele>473.7</ele></trkpt>
<trkpt lat="47.781356" lon="12.879643"><ele>474.0</ele></trkpt>
<trkpt lat="47.782334" lon="12.878026"><ele>475.4</ele></trkpt>
<trkpt lat="47.782596" lon="12.877687"><ele>476.7</ele></trkpt>
<trkpt lat="47.782727" lon="12.876984"><ele>477.0</ele></trkpt>
<trkpt lat="47.784077" lon="12.876082"><ele>482.3</ele></trkpt>
<trkpt lat="47.785389" lon="12.875284"><ele>484.4</ele></trkpt>
<trkpt lat="47.785854" lon="12.875078"><ele>485.7</ele></trkpt>
<trkpt lat="47.786020" lon="12.874158"><ele>488.0</ele></trkpt>
<trkpt lat="47.785715" lon="12.873139"><ele>490.7</ele></trkpt>
<trkpt lat="47.786031" lon="12.873451"><ele>489.9</ele></trkpt>
<trkpt lat="47.787137" lon="12.872303"><ele>488.0</ele></trkpt>
<trkpt lat="47.787146" lon="12.872293"><ele>488.0</ele></trkpt>
<trkpt lat="47.787637" lon="12.872146"><ele>489.4</ele></trkpt>
<trkpt lat="47.788631" lon="12.870959"><ele>489.4</ele></trkpt>
<trkpt lat="47.788548" lon="12.869919"><ele>490.5</ele></trkpt>
<trkpt lat="47.789321" lon="12.869683"><ele>493.3</ele></trkpt>
<trkpt lat="47.790425" lon="12.868348"><ele>495.5</ele></trkpt>
<trkpt lat="47.790439" lon="12.868331"><ele>495.6</ele></trkpt>
<trkpt lat="47.791849" lon="12.867714"><ele>496.9</ele></trkpt>
<trkpt lat="47.792611" lon="12.867349"><ele>498.8</ele></trkpt>
<trkpt lat="47.793756" lon="12.865983"><ele>503.5</ele></trkpt>
<trkpt lat="47.794879" lon="12.864735"><ele>507.5</ele></trkpt>
<trkpt lat="47.796068" lon="12.863451"><ele>512.5</ele></trkpt>
<trkpt lat="47.796126" lon="12.863391"><ele>512.8</ele></trkpt>
<trkpt lat="47.797331" lon="12.862746"><ele>516.4</ele></trkpt>
<trkpt lat="47.798182" lon="12.861635"><ele>518.5</ele></trkpt>
<trkpt lat="47.799144" lon="12.860895"><ele>523.9</ele></trkpt>
<trkpt lat="47.800198" lon="12.859599"><ele>530.1</ele></trkpt>
<trkpt lat="47.800890" lon="12.858821"><ele>531.0</ele></trkpt>
<trkpt lat="47.801319" lon="12.857484"><ele>533.4</ele></trkpt>
<trkpt lat="47.800585" lon="12.856908"><ele>532.1</ele></trkpt>
<trkpt lat="47.800614" lon="12.855827"><ele>533.2</ele></trkpt>
<trkpt lat="47.801641" lon="12.854394"><ele>538.2</ele></trkpt>
<trkpt lat="47.802709" lon="12.853066"><ele>543.8</ele></trkpt>
<trkpt lat="47.803062" lon="12.852528"><ele>546.0</ele></trkpt>
<trkpt lat="47.803496" lon="12.850585"><ele>550.4</ele></trkpt>
<trkpt lat="47.803637" lon="12.850319"><ele>551.0</ele></trkpt>
<trkpt lat="47.804484" lon="12.849126"><ele>559.1</ele></trkpt>
<trkpt lat="47.805120" lon="12.849400"><ele>558.6</ele></trkpt>
<trkpt lat="47.805621" lon="12.850224"><ele>559.5</ele></trkpt>
<trkpt lat="47.805916" lon="12.850064"><ele>561.8</ele></trkpt>
<trkpt lat="47.806859" lon="12.848635"><ele>569.2</ele></trkpt>
<trkpt lat="47.807661" lon="12.847682"><ele>574.3</ele></trkpt>
<trkpt lat="47.808006" lon="12.846425"><ele>576.1</ele></trkpt>
<trkpt lat="47.808514" lon="12.845545"><ele>581.4</ele></trkpt>
<trkpt lat="47.809667" lon="12.844076"><ele>582.7</ele></trkpt>
<trkpt lat="47.809762" lon="12.843951"><ele>582.9</ele></trkpt>
<trkpt lat="47.810286" lon="12.843544"><ele>585.0</ele></trkpt>
<trkpt lat="47.811002" lon="12.842488"><ele>584.0</ele></trkpt>
<trkpt lat="47.811371" lon="12.840349"><ele>592.7</ele></trkpt>
<trkpt lat="47.811457" lon="12.839816"><ele>594.1</ele></trkpt>
<trkpt lat="47.812876" lon="12.840349"><ele>588.5</ele></trkpt>
<trkpt lat="47.813294" lon="12.840365"><ele>586.2</ele></trkpt>
<trkpt lat="47.814384" lon="12.840059"><ele>577.1</ele></trkpt>
<trkpt lat="47.814938" lon="12.839589"><ele>569.5</ele></trkpt>
<trkpt lat="47.815698" lon="12.840325"><ele>567.2</ele></trkpt>
<trkpt lat="47.815713" lon="12.840942"><ele>553.9</ele></trkpt>
<trkpt lat="47.815698" lon="12.840325"><ele>567.2</ele></trkpt>
<trkpt lat="47.814938" lon="12.839589"><ele>569.5</ele></trkpt>
<trkpt lat="47.815557" lon="12.839292"><ele>562.9</ele></trkpt>
<trkpt lat="47.816579" lon="12.837795"><ele>555.2</ele></trkpt>
<trkpt lat="47.816755" lon="12.837580"><ele>554.4</ele></trkpt>
<trkpt lat="47.817968" lon="12.836634"><ele>560.6</ele></trkpt>
<trkpt lat="47.818948" lon="12.835648"><ele>559.1</ele></trkpt>
<trkpt lat="47.819577" lon="12.834480"><ele>556.2</ele></trkpt>
<trkpt lat="47.820971" lon="12.834273"><ele>537.2</ele></trkpt>
<trkpt lat="47.821209" lon="12.834246"><ele>536.2</ele></trkpt>
<trkpt lat="47.821922" lon="12.832876"><ele>535.4</ele></trkpt>
<trkpt lat="47.823294" lon="12.832538"><ele>537.5</ele></trkpt>
<trkpt lat="47.823818" lon="12.832390"><ele>532.7</ele></trkpt>
<trkpt lat="47.824248" lon="12.830464"><ele>542.9</ele></trkpt>
<trkpt lat="47.824391" lon="12.829929"><ele>543.1</ele></trkpt>
<trkpt lat="47.825235" lon="12.829807"><ele>533.7</ele></trkpt>
<trkpt lat="47.825686" lon="12.829951"><ele>529.9</ele></trkpt>
<trkpt lat="47.827113" lon="12.830590"><ele>520.0</ele></trkpt>
<trkpt lat="47.827737" lon="12.830878"><ele>518.3</ele></trkpt>
<trkpt lat="47.829099" lon="12.831715"><ele>513.1</ele></trkpt>
<trkpt lat="47.830161" lon="12.832447"><ele>520.6</ele></trkpt>
<trkpt lat="47.830551" lon="12.832507"><ele>519.9</ele></trkpt>
<trkpt lat="47.831363" lon="12.831851"><ele>520.8</ele></trkpt>
<trkpt lat="47.831740" lon="12.831050"><ele>530.0</ele></trkpt>
<trkpt lat="47.832678" lon="12.830493"><ele>512.5</ele></trkpt>
<trkpt lat="47.833546" lon="12.830607"><ele>516.1</ele></trkpt>
<trkpt lat="47.833755" lon="12.830070"><ele>515.9</ele></trkpt>
<trkpt lat="47.834786" lon="12.828978"><ele>517.7</ele></trkpt>
<trkpt lat="47.836093" lon="12.828017"><ele>516.4</ele></trkpt>
<trkpt lat="47.836812" lon="12.827271"><ele>520.7</ele></trkpt>
<trkpt lat="47.837964" lon="12.827001"><ele>521.8</ele></trkpt>
<trkpt lat="47.839304" lon="12.827635"><ele>501.5</ele></trkpt>
<trkpt lat="47.839432" lon="12.827661"><ele>501.3</ele></trkpt>
<trkpt lat="47.839987" lon="12.827164"><ele>510.8</ele></trkpt>
<trkpt lat="47.840860" lon="12.827077"><ele>509.9</ele></trkpt>
<trkpt lat="47.841417" lon="12.826410"><ele>496.9</ele></trkpt>
<trkpt lat="47.842338" lon="12.826479"><ele>494.0</ele></trkpt>
<trkpt lat="47.843605" lon="12.827296"><ele>501.0</ele></trkpt>
<trkpt lat="47.843911" lon="12.827335"><ele>502.7</ele></trkpt>
<trkpt lat="47.845263" lon="12.826925"><ele>500.6</ele></trkpt>
<trkpt lat="47.845464" lon="12.826877"><ele>500.3</ele></trkpt>
<trkpt lat="47.845997" lon="12.826421"><ele>499.3</ele></trkpt>
<trkpt lat="47.846182" lon="12.826552"><ele>497.9</ele></trkpt>
<trkpt lat="47.846604" lon="12.826287"><ele>497.5</ele></trkpt>
<trkpt lat="47.846535" lon="12.826657"><ele>493.5</ele></trkpt>
<trkpt lat="47.846118" lon="12.827226"><ele>490.9</ele></trkpt>
<trkpt lat="47.846230" lon="12.827799"><ele>485.0</ele></trkpt>
<trkpt lat="47.846502" lon="12.828176"><ele>484.2</ele></trkpt>
<trkpt lat="47.846300" lon="12.829446"><ele>485.0</ele></trkpt>
<trkpt lat="47.846692" lon="12.830742"><ele>485.0</ele></trkpt>
<trkpt lat="47.847317" lon="12.830869"><ele>484.1</ele></trkpt>
<trkpt lat="47.847311" lon="12.832246"><ele>485.1</ele></trkpt>
<trkpt lat="47.847932" lon="12.832810"><ele>493.9</ele></trkpt>
<trkpt lat="47.847463" lon="12.834246"><ele>497.9</ele></trkpt>
<trkpt lat="47.848396" lon="12.834807"><ele>501.1</ele></trkpt>
<trkpt lat="47.848309" lon="12.834997"><ele>502.1</ele></trkpt>
<trkpt lat="47.848548" lon="12.835247"><ele>501.4</ele></trkpt>
<trkpt lat="47.849160" lon="12.834255"><ele>503.3</ele></trkpt>
<trkpt lat="47.848816" lon="12.833567"><ele>499.8</ele></trkpt>
<trkpt lat="47.849141" lon="12.831980"><ele>496.9</ele></trkpt>
<trkpt lat="47.849011" lon="12.831546"><ele>493.5</ele></trkpt>
<trkpt lat="47.849521" lon="12.830690"><ele>491.6</ele></trkpt>
<trkpt lat="47.849848" lon="12.829495"><ele>486.7</ele></trkpt>
<trkpt lat="47.850038" lon="12.827462"><ele>486.1</ele></trkpt>
<trkpt lat="47.850178" lon="12.825344"><ele>494.2</ele></trkpt>
<trkpt lat="47.850169" lon="12.825272"><ele>494.6</ele></trkpt>
<trkpt lat="47.850692" lon="12.825311"><ele>495.4</ele></trkpt>
<trkpt lat="47.851113" lon="12.823563"><ele>490.0</ele></trkpt>
<trkpt lat="47.851455" lon="12.823803"><ele>488.5</ele></trkpt>
<trkpt lat="47.851931" lon="12.822220"><ele>488.1</ele></trkpt>
<trkpt lat="47.852941" lon="12.820716"><ele>490.0</ele></trkpt>
<trkpt lat="47.852969" lon="12.820671"><ele>490.0</ele></trkpt>
<trkpt lat="47.853619" lon="12.819319"><ele>487.6</ele></trkpt>
<trkpt lat="47.855016" lon="12.818593"><ele>498.0</ele></trkpt>
<trkpt lat="47.855143" lon="12.818564"><ele>497.9</ele></trkpt>
<trkpt lat="47.855294" lon="12.816488"><ele>501.1</ele></trkpt>
<trkpt lat="47.855297" lon="12.816447"><ele>501.1</ele></trkpt>
<trkpt lat="47.855844" lon="12.815224"><ele>510.2</ele></trkpt>
<trkpt lat="47.855888" lon="12.814694"><ele>512.0</ele></trkpt>
<trkpt lat="47.855481" lon="12.814043"><ele>508.5</ele></trkpt>
<trkpt lat="47.855426" lon="12.811787"><ele>508.8</ele></trkpt>
<trkpt lat="47.855354" lon="12.811268"><ele>505.4</ele></trkpt>
<trkpt lat="47.856190" lon="12.809618"><ele>518.7</ele></trkpt>
<trkpt lat="47.856708" lon="12.808555"><ele>519.6</ele></trkpt>
<trkpt lat="47.857622" lon="12.807164"><ele>523.9</ele></trkpt>
<trkpt lat="47.857691" lon="12.806092"><ele>517.4</ele></trkpt>
<trkpt lat="47.857332" lon="12.806440"><ele>514.3</ele></trkpt>
<trkpt lat="47.856596" lon="12.804974"><ele>495.4</ele></trkpt>
<trkpt lat="47.856760" lon="12.802962"><ele>494.3</ele></trkpt>
<trkpt lat="47.856781" lon="12.802335"><ele>495.3</ele></trkpt>
<trkpt lat="47.856963" lon="12.801471"><ele>496.9</ele></trkpt>
<trkpt lat="47.857126" lon="12.801315"><ele>499.1</ele></trkpt>
<trkpt lat="47.857123" lon="12.799301"><ele>498.1</ele></trkpt>
<trkpt lat="47.857344" lon="12.798345"><ele>500.4</ele></trkpt>
<trkpt lat="47.856939" lon="12.797757"><ele>501.1</ele></trkpt>
<trkpt lat="47.857373" lon="12.797082"><ele>500.3</ele></trkpt>
<trkpt lat="47.857577" lon="12.796039"><ele>500.3</ele></trkpt>
<trkpt lat="47.857838" lon="12.794386"><ele>501.0</ele></trkpt>
<trkpt lat="47.857899" lon="12.792520"><ele>502.6</ele></trkpt>
<trkpt lat="47.856757" lon="12.791572"><ele>504.6</ele></trkpt>
<trkpt lat="47.855789" lon="12.789998"><ele>507.3</ele></trkpt>
<trkpt lat="47.855638" lon="12.789763"><ele>508.4</ele></trkpt>
<trkpt lat="47.854480" lon="12.788458"><ele>511.9</ele></trkpt>
<trkpt lat="47.853466" lon="12.787145"><ele>513.5</ele></trkpt>
<trkpt lat="47.853159" lon="12.786730"><ele>514.0</ele></trkpt>
<trkpt lat="47.853060" lon="12.786633"><ele>514.0</ele></trkpt>
<trkpt lat="47.853018" lon="12.786859"><ele>514.0</ele></trkpt>
<trkpt lat="47.852660" lon="12.786670"><ele>515.0</ele></trkpt>
<trkpt lat="47.851448" lon="12.785688"><ele>516.9</ele></trkpt>
<trkpt lat="47.851169" lon="12.785080"><ele>517.9</ele></trkpt>
<trkpt lat="47.851401" lon="12.785028"><ele>517.9</ele></trkpt>
<trkpt lat="47.851272" lon="12.784346"><ele>518.4</ele></trkpt>
<trkpt lat="47.850861" lon="12.783767"><ele>519.9</ele></trkpt>
<trkpt lat="47.850398" lon="12.782089"><ele>520.0</ele></trkpt>
<trkpt lat="47.849815" lon="12.781259"><ele>521.0</ele></trkpt>
<trkpt lat="47.849376" lon="12.779545"><ele>529.5</ele></trkpt>
<trkpt lat="47.848729" lon="12.778584"><ele>558.3</ele></trkpt>
<trkpt lat="47.848166" lon="12.778602"><ele>567.1</ele></trkpt>
<trkpt lat="47.847676" lon="12.779063"><ele>582.2</ele></trkpt>
<trkpt lat="47.847374" lon="12.779031"><ele>585.6</ele></trkpt>
<trkpt lat="47.846642" lon="12.778210"><ele>600.5</ele></trkpt>
<trkpt lat="47.846304" lon="12.776867"><ele>624.2</ele></trkpt>
<trkpt lat="47.845331" lon="12.776099"><ele>647.2</ele></trkpt>
<trkpt lat="47.844269" lon="12.776118"><ele>644.7</ele></trkpt>
<trkpt lat="47.842945" lon="12.775384"><ele>656.1</ele></trkpt>
<trkpt lat="47.842495" lon="12.775110"><ele>663.8</ele></trkpt>
<trkpt lat="47.841099" lon="12.775355"><ele>662.4</ele></trkpt>
<trkpt lat="47.841051" lon="12.775303"><ele>662.6</ele></trkpt>
<trkpt lat="47.840843" lon="12.774002"><ele>673.3</ele></trkpt>
<trkpt lat="47.839948" lon="12.772613"><ele>670.9</ele></trkpt>
<trkpt lat="47.840212" lon="12.771846"><ele>680.6</ele></trkpt>
<trkpt lat="47.840645" lon="12.771402"><ele>690.6</ele></trkpt>
<trkpt lat="47.841434" lon="12.771315"><ele>696.7</ele></trkpt>
<trkpt lat="47.841324" lon="12.770756"><ele>695.2</ele></trkpt>
<trkpt lat="47.840649" lon="12.768798"><ele>697.3</ele></trkpt>
<trkpt lat="47.840516" lon="12.768464"><ele>694.0</ele></trkpt>
<trkpt lat="47.839606" lon="12.767336"><ele>703.6</ele></trkpt>
<trkpt lat="47.839076" lon="12.765735"><ele>686.9</ele></trkpt>
<trkpt lat="47.838654" lon="12.765243"><ele>687.4</ele></trkpt>
<trkpt lat="47.838204" lon="12.763142"><ele>689.9</ele></trkpt>
<trkpt lat="47.838124" lon="12.762738"><ele>689.0</ele></trkpt>
<trkpt lat="47.838063" lon="12.761271"><ele>690.8</ele></trkpt>
<trkpt lat="47.837695" lon="12.760111"><ele>696.0</ele></trkpt>
<trkpt lat="47.837881" lon="12.758850"><ele>696.5</ele></trkpt>
<trkpt lat="47.837166" lon="12.757446"><ele>698.8</ele></trkpt>
<trkpt lat="47.837162" lon="12.755361"><ele>703.7</ele></trkpt>
<trkpt lat="47.836554" lon="12.753317"><ele>717.8</ele></trkpt>
<trkpt lat="47.836272" lon="12.752297"><ele>706.8</ele></trkpt>
<trkpt lat="47.836090" lon="12.750185"><ele>690.4</ele></trkpt>
<trkpt lat="47.835842" lon="12.748525"><ele>689.6</ele></trkpt>
<trkpt lat="47.835448" lon="12.747163"><ele>683.7</ele></trkpt>
<trkpt lat="47.835404" lon="12.745866"><ele>684.5</ele></trkpt>
<trkpt lat="47.834565" lon="12.744317"><ele>678.9</ele></trkpt>
<trkpt lat="47.833652" lon="12.742778"><ele>678.3</ele></trkpt>
<trkpt lat="47.833334" lon="12.742136"><ele>677.7</ele></trkpt>
<trkpt lat="47.832785" lon="12.743535"><ele>678.0</ele></trkpt>
<trkpt lat="47.832601" lon="12.743785"><ele>678.0</ele></trkpt>
<trkpt lat="47.831312" lon="12.744450"><ele>681.5</ele></trkpt>
<trkpt lat="47.831192" lon="12.744445"><ele>682.4</ele></trkpt>
<trkpt lat="47.831007" lon="12.746490"><ele>682.2</ele></trkpt>
<trkpt lat="47.831004" lon="12.746809"><ele>682.6</ele></trkpt>
<trkpt lat="47.830399" lon="12.747006"><ele>686.5</ele></trkpt>
<trkpt lat="47.829623" lon="12.748650"><ele>683.9</ele></trkpt>
<trkpt lat="47.828721" lon="12.750289"><ele>698.5</ele></trkpt>
<trkpt lat="47.828603" lon="12.750461"><ele>700.0</ele></trkpt>
<trkpt lat="47.828034" lon="12.750905"><ele>701.9</ele></trkpt>
<trkpt lat="47.827651" lon="12.751028"><ele>700.6</ele></trkpt>
<trkpt lat="47.827273" lon="12.750821"><ele>699.2</ele></trkpt>
<trkpt lat="47.826032" lon="12.751354"><ele>701.9</ele></trkpt>
<trkpt lat="47.825523" lon="12.752460"><ele>705.8</ele></trkpt>
<trkpt lat="47.825182" lon="12.754418"><ele>705.2</ele></trkpt>
<trkpt lat="47.825122" lon="12.755222"><ele>705.0</ele></trkpt>
<trkpt lat="47.825239" lon="12.756654"><ele>706.1</ele></trkpt>
<trkpt lat="47.825181" lon="12.758678"><ele>705.0</ele></trkpt>
<trkpt lat="47.825038" lon="12.760649"><ele>709.3</ele></trkpt>
<trkpt lat="47.825151" lon="12.762845"><ele>726.7</ele></trkpt>
<trkpt lat="47.824860" lon="12.764848"><ele>730.1</ele></trkpt>
<trkpt lat="47.824434" lon="12.765992"><ele>729.6</ele></trkpt>
<trkpt lat="47.824826" lon="12.767941"><ele>718.2</ele></trkpt>
<trkpt lat="47.824950" lon="12.768401"><ele>719.5</ele></trkpt>
<trkpt lat="47.825723" lon="12.770194"><ele>711.2</ele></trkpt>
<trkpt lat="47.825831" lon="12.770633"><ele>708.0</ele></trkpt>
<trkpt lat="47.825880" lon="12.772763"><ele>708.5</ele></trkpt>
<trkpt lat="47.825844" lon="12.773627"><ele>707.9</ele></trkpt>
<trkpt lat="47.825664" lon="12.775651"><ele>709.3</ele></trkpt>
<trkpt lat="47.825451" lon="12.777867"><ele>712.2</ele></trkpt>
<trkpt lat="47.825454" lon="12.778268"><ele>710.3</ele></trkpt>
<trkpt lat="47.825647" lon="12.778988"><ele>707.2</ele></trkpt>
<trkpt lat="47.826259" lon="12.779882"><ele>695.2</ele></trkpt>
<trkpt lat="47.826331" lon="12.780466"><ele>690.7</ele></trkpt>
<trkpt lat="47.826230" lon="12.780821"><ele>690.2</ele></trkpt>
<trkpt lat="47.825303" lon="12.781490"><ele>707.3</ele></trkpt>
<trkpt lat="47.824644" lon="12.781531"><ele>718.5</ele></trkpt>
<trkpt lat="47.823877" lon="12.782073"><ele>739.2</ele></trkpt>
<trkpt lat="47.822620" lon="12.782497"><ele>757.3</ele></trkpt>
<trkpt lat="47.821886" lon="12.783955"><ele>768.5</ele></trkpt>
<trkpt lat="47.821460" lon="12.785861"><ele>792.2</ele></trkpt>
<trkpt lat="47.821375" lon="12.786384"><ele>792.6</ele></trkpt>
<trkpt lat="47.820807" lon="12.788045"><ele>806.4</ele></trkpt>
<trkpt lat="47.820548" lon="12.788464"><ele>811.6</ele></trkpt>
<trkpt lat="47.820092" lon="12.788115"><ele>824.2</ele></trkpt>
<trkpt lat="47.820928" lon="12.789930"><ele>823.9</ele></trkpt>
<trkpt lat="47.821681" lon="12.791743"><ele>812.9</ele></trkpt>
<trkpt lat="47.821780" lon="12.792074"><ele>814.9</ele></trkpt>
<trkpt lat="47.821751" lon="12.793334"><ele>807.3</ele></trkpt>
<trkpt lat="47.821390" lon="12.793659"><ele>815.7</ele></trkpt>
<trkpt lat="47.820958" lon="12.794796"><ele>819.0</ele></trkpt>
<trkpt lat="47.822303" lon="12.794923"><ele>813.6</ele></trkpt>
<trkpt lat="47.822371" lon="12.794942"><ele>814.0</ele></trkpt>
<trkpt lat="47.822701" lon="12.795424"><ele>819.5</ele></trkpt>
<trkpt lat="47.822741" lon="12.797079"><ele>818.2</ele></trkpt>
<trkpt lat="47.822389" lon="12.798503"><ele>835.6</ele></trkpt>
<trkpt lat="47.822576" lon="12.799676"><ele>834.7</ele></trkpt>
<trkpt lat="47.822383" lon="12.801723"><ele>846.9</ele></trkpt>
<trkpt lat="47.822199" lon="12.802366"><ele>844.6</ele></trkpt>
<trkpt lat="47.821645" lon="12.803100"><ele>839.7</ele></trkpt>
<trkpt lat="47.821263" lon="12.803208"><ele>855.4</ele></trkpt>
<trkpt lat="47.821070" lon="12.803495"><ele>863.2</ele></trkpt>
<trkpt lat="47.820953" lon="12.805592"><ele>863.6</ele></trkpt>
<trkpt lat="47.821017" lon="12.807120"><ele>858.0</ele></trkpt>
<trkpt lat="47.820576" lon="12.808654"><ele>849.7</ele></trkpt>
<trkpt lat="47.820535" lon="12.810007"><ele>841.7</ele></trkpt>
<trkpt lat="47.820100" lon="12.811126"><ele>848.1</ele></trkpt>
<trkpt lat="47.819851" lon="12.812378"><ele>843.5</ele></trkpt>
<trkpt lat="47.819819" lon="12.813447"><ele>840.0</ele></trkpt>
<trkpt lat="47.819397" lon="12.815432"><ele>827.0</ele></trkpt>
<trkpt lat="47.818865" lon="12.816044"><ele>817.2</ele></trkpt>
<trkpt lat="47.818487" lon="12.816824"><ele>811.5</ele></trkpt>
<trkpt lat="47.818468" lon="12.817755"><ele>804.8</ele></trkpt>
<trkpt lat="47.817724" lon="12.817755"><ele>806.5</ele></trkpt>
<trkpt lat="47.817802" lon="12.819071"><ele>788.0</ele></trkpt>
<trkpt lat="47.817505" lon="12.820597"><ele>769.0</ele></trkpt>
<trkpt lat="47.816697" lon="12.822197"><ele>751.9</ele></trkpt>
<trkpt lat="47.816536" lon="12.822546"><ele>747.0</ele></trkpt>
<trkpt lat="47.815929" lon="12.823330"><ele>745.0</ele></trkpt>
<trkpt lat="47.815346" lon="12.825201"><ele>726.3</ele></trkpt>
<trkpt lat="47.815053" lon="12.826071"><ele>716.4</ele></trkpt>
<trkpt lat="47.814209" lon="12.827726"><ele>696.9</ele></trkpt>
<trkpt lat="47.814110" lon="12.827920"><ele>696.5</ele></trkpt>
<trkpt lat="47.813500" lon="12.829930"><ele>674.7</ele></trkpt>
<trkpt lat="47.812851" lon="12.831867"><ele>650.3</ele></trkpt>
<trkpt lat="47.812428" lon="12.833141"><ele>640.0</ele></trkpt>
<trkpt lat="47.811503" lon="12.834629"><ele>623.6</ele></trkpt>
<trkpt lat="47.811412" lon="12.834829"><ele>621.4</ele></trkpt>
<trkpt lat="47.810306" lon="12.835932"><ele>613.3</ele></trkpt>
<trkpt lat="47.810291" lon="12.835949"><ele>613.5</ele></trkpt>
<trkpt lat="47.809773" lon="12.836786"><ele>611.5</ele></trkpt>
<trkpt lat="47.808970" lon="12.837303"><ele>607.4</ele></trkpt>
<trkpt lat="47.808480" lon="12.838712"><ele>609.8</ele></trkpt>
<trkpt lat="47.807386" lon="12.839317"><ele>602.4</ele></trkpt>
<trkpt lat="47.806474" lon="12.840290"><ele>596.7</ele></trkpt>
<trkpt lat="47.807080" lon="12.842120"><ele>592.7</ele></trkpt>
<trkpt lat="47.807616" lon="12.843683"><ele>587.7</ele></trkpt>
<trkpt lat="47.807477" lon="12.844832"><ele>585.1</ele></trkpt>
<trkpt lat="47.807671" lon="12.846904"><ele>576.6</ele></trkpt>
<trkpt lat="47.807709" lon="12.847487"><ele>574.8</ele></trkpt>
<trkpt lat="47.806732" lon="12.848824"><ele>569.0</ele></trkpt>
<trkpt lat="47.806315" lon="12.848542"><ele>571.2</ele></trkpt>
<trkpt lat="47.806139" lon="12.849196"><ele>567.0</ele></trkpt>
<trkpt lat="47.805861" lon="12.849241"><ele>564.3</ele></trkpt>
<trkpt lat="47.806058" lon="12.849820"><ele>564.2</ele></trkpt>
<trkpt lat="47.805537" lon="12.850745"><ele>561.2</ele></trkpt>
<trkpt lat="47.805434" lon="12.851967"><ele>556.6</ele></trkpt>
<trkpt lat="47.804831" lon="12.853053"><ele>554.8</ele></trkpt>
<trkpt lat="47.804694" lon="12.854456"><ele>554.8</ele></trkpt>
<trkpt lat="47.804190" lon="12.855468"><ele>554.9</ele></trkpt>
<trkpt lat="47.802967" lon="12.856672"><ele>553.3</ele></trkpt>
<trkpt lat="47.802954" lon="12.856685"><ele>553.5</ele></trkpt>
<trkpt lat="47.802238" lon="12.856984"><ele>551.7</ele></trkpt>
<trkpt lat="47.801910" lon="12.857817"><ele>544.0</ele></trkpt>
<trkpt lat="47.801951" lon="12.858424"><ele>542.1</ele></trkpt>
<trkpt lat="47.801283" lon="12.857360"><ele>532.7</ele></trkpt>
<trkpt lat="47.800347" lon="12.856695"><ele>532.1</ele></trkpt>
<trkpt lat="47.799309" lon="12.855419"><ele>533.5</ele></trkpt>
<trkpt lat="47.799228" lon="12.855308"><ele>534.4</ele></trkpt>
<trkpt lat="47.799006" lon="12.855279"><ele>535.6</ele></trkpt>
<trkpt lat="47.798731" lon="12.856258"><ele>530.3</ele></trkpt>
<trkpt lat="47.798243" lon="12.857080"><ele>527.9</ele></trkpt>
<trkpt lat="47.797578" lon="12.857230"><ele>525.7</ele></trkpt>
<trkpt lat="47.797167" lon="12.857565"><ele>523.4</ele></trkpt>
<trkpt lat="47.796178" lon="12.858984"><ele>516.7</ele></trkpt>
<trkpt lat="47.795123" lon="12.860390"><ele>514.3</ele></trkpt>
<trkpt lat="47.794009" lon="12.861379"><ele>508.9</ele></trkpt>
<trkpt lat="47.793160" lon="12.862815"><ele>505.0</ele></trkpt>
<trkpt lat="47.792022" lon="12.863907"><ele>502.3</ele></trkpt>
<trkpt lat="47.791581" lon="12.864333"><ele>500.1</ele></trkpt>
<trkpt lat="47.790306" lon="12.865268"><ele>495.2</ele></trkpt>
<trkpt lat="47.789124" lon="12.866211"><ele>494.6</ele></trkpt>
<trkpt lat="47.788888" lon="12.866349"><ele>494.1</ele></trkpt>
<trkpt lat="47.787891" lon="12.866632"><ele>494.4</ele></trkpt>
<trkpt lat="47.786831" lon="12.867350"><ele>494.5</ele></trkpt>
<trkpt lat="47.786144" lon="12.867228"><ele>495.0</ele></trkpt>
<trkpt lat="47.785522" lon="12.867528"><ele>497.4</ele></trkpt>
<trkpt lat="47.784382" lon="12.868921"><ele>503.3</ele></trkpt>
<trkpt lat="47.783842" lon="12.869298"><ele>505.1</ele></trkpt>
<trkpt lat="47.783852" lon="12.869635"><ele>504.3</ele></trkpt>
<trkpt lat="47.783591" lon="12.870176"><ele>502.4</ele></trkpt>
<trkpt lat="47.783176" lon="12.870578"><ele>501.9</ele></trkpt>
<trkpt lat="47.783159" lon="12.871195"><ele>499.1</ele></trkpt>
<trkpt lat="47.781793" lon="12.871781"><ele>495.8</ele></trkpt>
<trkpt lat="47.781620" lon="12.871862"><ele>495.9</ele></trkpt>
<trkpt lat="47.780436" lon="12.872853"><ele>489.6</ele></trkpt>
<trkpt lat="47.779143" lon="12.874049"><ele>480.3</ele></trkpt>
<trkpt lat="47.778554" lon="12.874618"><ele>477.9</ele></trkpt>
<trkpt lat="47.778495" lon="12.874781"><ele>477.5</ele></trkpt>
<trkpt lat="47.778947" lon="12.875755"><ele>475.0</ele></trkpt>
<trkpt lat="47.778953" lon="12.876442"><ele>474.8</ele></trkpt>
<trkpt lat="47.777618" lon="12.877254"><ele>471.7</ele></trkpt>
<trkpt lat="47.777153" lon="12.877685"><ele>468.9</ele></trkpt>
<trkpt lat="47.776087" lon="12.879021"><ele>469.0</ele></trkpt>
<trkpt lat="47.775161" lon="12.880485"><ele>469.0</ele></trkpt>
<trkpt lat="47.774062" lon="12.881999"><ele>472.5</ele></trkpt>
<trkpt lat="47.774051" lon="12.882009"><ele>472.4</ele></trkpt>
<trkpt lat="47.773072" lon="12.882874"><ele>471.6</ele></trkpt>
<trkpt lat="47.772415" lon="12.881374"><ele>483.5</ele></trkpt>
<trkpt lat="47.772114" lon="12.881273"><ele>488.7</ele></trkpt>
<trkpt lat="47.771538" lon="12.881616"><ele>492.2</ele></trkpt>
<trkpt lat="47.770987" lon="12.882486"><ele>490.4</ele></trkpt>
<trkpt lat="47.769760" lon="12.883306"><ele>502.5</ele></trkpt>
<trkpt lat="47.769277" lon="12.883951"><ele>501.5</ele></trkpt>
<trkpt lat="47.768576" lon="12.885700"><ele>491.4</ele></trkpt>
<trkpt lat="47.768355" lon="12.886334"><ele>483.6</ele></trkpt>
<trkpt lat="47.767606" lon="12.886419"><ele>491.8</ele></trkpt>
<trkpt lat="47.767023" lon="12.886993"><ele>498.9</ele></trkpt>
<trkpt lat="47.766441" lon="12.888022"><ele>509.5</ele></trkpt>
<trkpt lat="47.765812" lon="12.888494"><ele>510.9</ele></trkpt>
<trkpt lat="47.765316" lon="12.888327"><ele>518.4</ele></trkpt>
<trkpt lat="47.764506" lon="12.888963"><ele>535.8</ele></trkpt>
<trkpt lat="47.763979" lon="12.889729"><ele>531.0</ele></trkpt>
<trkpt lat="47.762647" lon="12.890202"><ele>530.4</ele></trkpt>
<trkpt lat="47.762214" lon="12.890438"><ele>523.9</ele></trkpt>
<trkpt lat="47.761287" lon="12.891942"><ele>514.3</ele></trkpt>
<trkpt lat="47.761085" lon="12.892273"><ele>511.1</ele></trkpt>
<trkpt lat="47.760897" lon="12.893478"><ele>509.1</ele></trkpt>
<trkpt lat="47.760926" lon="12.894599"><ele>498.3</ele></trkpt>
<trkpt lat="47.760099" lon="12.896462"><ele>481.2</ele></trkpt>
<trkpt lat="47.759752" lon="12.897286"><ele>468.2</ele></trkpt>
<trkpt lat="47.759673" lon="12.897914"><ele>462.8</ele></trkpt>
<trkpt lat="47.759432" lon="12.897893"><ele>466.7</ele></trkpt>
<trkpt lat="47.758294" lon="12.898983"><ele>458.8</ele></trkpt>
<trkpt lat="47.757900" lon="12.898689"><ele>460.7</ele></trkpt>
<trkpt lat="47.756975" lon="12.899204"><ele>457.9</ele></trkpt>
<trkpt lat="47.755518" lon="12.898948"><ele>462.5</ele></trkpt>
<trkpt lat="47.754737" lon="12.899148"><ele>474.1</ele></trkpt>
<trkpt lat="47.753456" lon="12.900231"><ele>474.5</ele></trkpt>
<trkpt lat="47.753345" lon="12.900274"><ele>475.9</ele></trkpt>
<trkpt lat="47.752354" lon="12.901718"><ele>464.7</ele></trkpt>
<trkpt lat="47.752294" lon="12.901798"><ele>464.8</ele></trkpt>
<trkpt lat="47.751807" lon="12.902084"><ele>464.7</ele></trkpt>
<trkpt lat="47.751328" lon="12.902061"><ele>466.5</ele></trkpt>
<trkpt lat="47.750385" lon="12.901259"><ele>469.6</ele></trkpt>
<trkpt lat="47.748944" lon="12.901013"><ele>467.3</ele></trkpt>
<trkpt lat="47.747720" lon="12.900053"><ele>458.1</ele></trkpt>
<trkpt lat="47.747599" lon="12.899938"><ele>457.0</ele></trkpt>
<trkpt lat="47.746856" lon="12.900634"><ele>458.7</ele></trkpt>
<trkpt lat="47.746796" lon="12.900174"><ele>457.7</ele></trkpt>
<trkpt lat="47.745991" lon="12.898355"><ele>459.6</ele></trkpt>
<trkpt lat="47.745674" lon="12.897284"><ele>462.4</ele></trkpt>
<trkpt lat="47.745251" lon="12.896696"><ele>463.1</ele></trkpt>
<trkpt lat="47.744988" lon="12.895943"><ele>461.4</ele></trkpt>
<trkpt lat="47.744484" lon="12.896487"><ele>460.9</ele></trkpt>
<trkpt lat="47.743617" lon="12.894783"><ele>462.6</ele></trkpt>
<trkpt lat="47.742711" lon="12.892966"><ele>460.6</ele></trkpt>
<trkpt lat="47.741857" lon="12.891247"><ele>459.2</ele></trkpt>
<trkpt lat="47.741051" lon="12.889615"><ele>462.5</ele></trkpt>
<trkpt lat="47.740179" lon="12.887837"><ele>466.3</ele></trkpt>
<trkpt lat="47.739317" lon="12.886092"><ele>468.1</ele></trkpt>
<trkpt lat="47.738463" lon="12.884373"><ele>472.0</ele></trkpt>
<trkpt lat="47.737609" lon="12.882654"><ele>468.0</ele></trkpt>
<trkpt lat="47.737498" lon="12.882432"><ele>467.8</ele></trkpt>
<trkpt lat="47.736378" lon="12.883810"><ele>460.0</ele></trkpt>
<trkpt lat="47.735400" lon="12.885340"><ele>463.9</ele></trkpt>
<trkpt lat="47.735391" lon="12.885354"><ele>463.9</ele></trkpt>
<trkpt lat="47.734749" lon="12.884326"><ele>463.0</ele></trkpt>
<trkpt lat="47.733984" lon="12.885771"><ele>463.9</ele></trkpt>
<trkpt lat="47.733046" lon="12.884691"><ele>465.0</ele></trkpt>
<trkpt lat="47.731847" lon="12.883743"><ele>466.5</ele></trkpt>
<trkpt lat="47.731598" lon="12.883534"><ele>466.0</ele></trkpt>
<trkpt lat="47.730714" lon="12.882452"><ele>466.7</ele></trkpt>
<trkpt lat="47.730079" lon="12.883816"><ele>470.0</ele></trkpt>
<trkpt lat="47.728982" lon="12.882507"><ele>469.3</ele></trkpt>
<trkpt lat="47.728118" lon="12.884187"><ele>469.7</ele></trkpt>
<trkpt lat="47.727462" lon="12.885254"><ele>473.3</ele></trkpt>
<trkpt lat="47.726706" lon="12.884213"><ele>476.3</ele></trkpt>
<trkpt lat="47.726900" lon="12.883842"><ele>474.7</ele></trkpt>
</trkseg></trk></gpx>