<?xml version="1.0" encoding="UTF-8"?>
<gpx version="1.1" creator="Bad Reichenhall gravel – saját gravel-router (OSM/Overture + SRTM)" xmlns="http://www.topografix.com/GPX/1/1">
<metadata><name>Thumsee–Listsee bemelegítő</name><desc>GENERÁLT NYOMVONAL – Rövid, szállodából induló kör a két legközelebbi tóhoz. A Kugelbachweg erdei murvaútján jutsz fel a Thumsee-hez, a Seewirttől a Listsee felé csendes mellékúton és erdei utakon kanyarodsz vissza a Padinger Alm alatt. Ideális érkezésnapi tesztkörnek vagy esős nap utáni rövid gurulásnak.</desc><copyright author="OpenStreetMap contributors (via Overture Maps)"><license>https://opendatacommons.org/licenses/odbl/</license></copyright><time>2026-10-03T20:34:08Z</time></metadata>
<wpt lat="47.7232" lon="12.8726"><name>Alte Saline – sólepárló</name><type>history</type></wpt>
<wpt lat="47.7193" lon="12.8219"><name>Thumsee</name><type>lake</type></wpt>
<wpt lat="47.7358" lon="12.8343"><name>Listsee</name><type>lake</type></wpt>
<wpt lat="47.7387" lon="12.8574"><name>Padinger Alm</name><type>hut</type></wpt>
<trk><name>Thumsee–Listsee bemelegítő</name><type>gravel</type><trkseg>
<trkpt lat="47.726900" lon="12.883842"><ele>474.7</ele></trkpt>
<trkpt lat="47.726618" lon="12.884372"><ele>478.2</ele></trkpt>
<trkpt lat="47.726415" lon="12.884346"><ele>480.9</ele></trkpt>
<trkpt lat="47.726118" lon="12.883872"><ele>478.7</ele></trkpt>
<trkpt lat="47.725662" lon="12.883798"><ele>485.2</ele></trkpt>
<trkpt lat="47.724996" lon="12.883195"><ele>481.5</ele></trkpt>
<trkpt lat="47.724541" lon="12.882248"><ele>476.1</ele></trkpt>
<trkpt lat="47.724935" lon="12.881320"><ele>473.9</ele></trkpt>
<trkpt lat="47.724408" lon="12.880823"><ele>471.3</ele></trkpt>
<trkpt lat="47.724405" lon="12.880228"><ele>469.2</ele></trkpt>
<trkpt lat="47.723321" lon="12.879027"><ele>472.5</ele></trkpt>
<trkpt lat="47.722405" lon="12.877908"><ele>475.0</ele></trkpt>
<trkpt lat="47.722643" lon="12.877188"><ele>474.5</ele></trkpt>
<trkpt lat="47.721432" lon="12.876214"><ele>473.8</ele></trkpt>
<trkpt lat="47.720980" lon="12.875902"><ele>474.1</ele></trkpt>
<trkpt lat="47.721490" lon="12.874260"><ele>470.9</ele></trkpt>
<trkpt lat="47.721777" lon="12.874279"><ele>470.9</ele></trkpt>
<trkpt lat="47.721992" lon="12.873068"><ele>473.2</ele></trkpt>
<trkpt lat="47.722782" lon="12.871867"><ele>471.4</ele></trkpt>
<trkpt lat="47.723673" lon="12.871339"><ele>470.3</ele></trkpt>
<trkpt lat="47.723661" lon="12.871716"><ele>470.1</ele></trkpt>
<trkpt lat="47.723225" lon="12.872444"><ele>472.5</ele></trkpt>
<trkpt lat="47.723432" lon="12.872162"><ele>471.0</ele></trkpt>
<trkpt lat="47.723526" lon="12.872312"><ele>471.1</ele></trkpt>
<trkpt lat="47.723898" lon="12.871727"><ele>470.0</ele></trkpt>
<trkpt lat="47.723667" lon="12.871286"><ele>470.3</ele></trkpt>
<trkpt lat="47.723115" lon="12.871378"><ele>470.8</ele></trkpt>
<trkpt lat="47.722628" lon="12.871103"><ele>470.4</ele></trkpt>
<trkpt lat="47.722792" lon="12.868990"><ele>469.7</ele></trkpt>
<trkpt lat="47.722791" lon="12.868703"><ele>470.7</ele></trkpt>
<trkpt lat="47.722644" lon="12.866660"><ele>468.0</ele></trkpt>
<trkpt lat="47.722545" lon="12.865866"><ele>470.3</ele></trkpt>
<trkpt lat="47.721957" lon="12.866210"><ele>470.0</ele></trkpt>
<trkpt lat="47.721550" lon="12.865358"><ele>469.9</ele></trkpt>
<trkpt lat="47.721696" lon="12.865013"><ele>469.1</ele></trkpt>
<trkpt lat="47.720581" lon="12.864342"><ele>468.5</ele></trkpt>
<trkpt lat="47.721076" lon="12.862972"><ele>468.1</ele></trkpt>
<trkpt lat="47.720409" lon="12.862087"><ele>470.0</ele></trkpt>
<trkpt lat="47.720268" lon="12.861072"><ele>468.0</ele></trkpt>
<trkpt lat="47.719572" lon="12.861019"><ele>467.9</ele></trkpt>
<trkpt lat="47.719203" lon="12.858889"><ele>473.3</ele></trkpt>
<trkpt lat="47.719144" lon="12.858613"><ele>472.1</ele></trkpt>
<trkpt lat="47.719171" lon="12.856919"><ele>469.0</ele></trkpt>
<trkpt lat="47.718902" lon="12.854851"><ele>470.4</ele></trkpt>
<trkpt lat="47.718756" lon="12.853916"><ele>475.8</ele></trkpt>
<trkpt lat="47.719045" lon="12.851912"><ele>481.2</ele></trkpt>
<trkpt lat="47.719061" lon="12.851665"><ele>482.8</ele></trkpt>
<trkpt lat="47.719888" lon="12.850494"><ele>482.7</ele></trkpt>
<trkpt lat="47.719246" lon="12.850160"><ele>507.4</ele></trkpt>
<trkpt lat="47.718341" lon="12.850171"><ele>522.2</ele></trkpt>
<trkpt lat="47.717976" lon="12.851001"><ele>542.1</ele></trkpt>
<trkpt lat="47.717792" lon="12.851948"><ele>549.5</ele></trkpt>
<trkpt lat="47.717309" lon="12.852872"><ele>563.2</ele></trkpt>
<trkpt lat="47.716444" lon="12.852605"><ele>571.0</ele></trkpt>
<trkpt lat="47.715438" lon="12.851013"><ele>591.9</ele></trkpt>
<trkpt lat="47.715350" lon="12.850735"><ele>594.8</ele></trkpt>
<trkpt lat="47.714911" lon="12.848671"><ele>615.7</ele></trkpt>
<trkpt lat="47.714586" lon="12.846655"><ele>635.5</ele></trkpt>
<trkpt lat="47.714329" lon="12.844819"><ele>645.6</ele></trkpt>
<trkpt lat="47.714622" lon="12.846848"><ele>633.6</ele></trkpt>
<trkpt lat="47.714951" lon="12.848931"><ele>615.8</ele></trkpt>
<trkpt lat="47.714952" lon="12.848933"><ele>615.8</ele></trkpt>
<trkpt lat="47.714858" lon="12.850415"><ele>612.6</ele></trkpt>
<trkpt lat="47.715181" lon="12.852184"><ele>600.7</ele></trkpt>
<trkpt lat="47.715875" lon="12.853689"><ele>585.6</ele></trkpt>
<trkpt lat="47.716546" lon="12.854697"><ele>574.3</ele></trkpt>
<trkpt lat="47.716606" lon="12.853654"><ele>567.0</ele></trkpt>
<trkpt lat="47.716969" lon="12.852817"><ele>569.4</ele></trkpt>
<trkpt lat="47.717309" lon="12.852872"><ele>563.2</ele></trkpt>
<trkpt lat="47.717669" lon="12.852245"><ele>554.6</ele></trkpt>
<trkpt lat="47.717647" lon="12.850121"><ele>560.2</ele></trkpt>
<trkpt lat="47.717623" lon="12.849340"><ele>560.2</ele></trkpt>
<trkpt lat="47.718138" lon="12.848570"><ele>548.5</ele></trkpt>
<trkpt lat="47.718108" lon="12.847324"><ele>552.0</ele></trkpt>
<trkpt lat="47.718164" lon="12.846947"><ele>547.0</ele></trkpt>
<trkpt lat="47.718373" lon="12.846764"><ele>546.8</ele></trkpt>
<trkpt lat="47.718375" lon="12.845773"><ele>538.3</ele></trkpt>
<trkpt lat="47.717562" lon="12.844894"><ele>540.9</ele></trkpt>
<trkpt lat="47.716693" lon="12.843058"><ele>542.2</ele></trkpt>
<trkpt lat="47.716607" lon="12.842900"><ele>546.2</ele></trkpt>
<trkpt lat="47.716685" lon="12.842676"><ele>546.9</ele></trkpt>
<trkpt lat="47.716996" lon="12.842775"><ele>540.6</ele></trkpt>
<trkpt lat="47.717181" lon="12.842556"><ele>539.7</ele></trkpt>
<trkpt lat="47.717208" lon="12.840912"><ele>536.6</ele></trkpt>
<trkpt lat="47.717010" lon="12.839445"><ele>541.9</ele></trkpt>
<trkpt lat="47.717171" lon="12.838531"><ele>528.6</ele></trkpt>
<trkpt lat="47.717022" lon="12.838077"><ele>535.8</ele></trkpt>
<trkpt lat="47.717342" lon="12.836965"><ele>537.0</ele></trkpt>
<trkpt lat="47.717998" lon="12.836473"><ele>535.0</ele></trkpt>
<trkpt lat="47.718040" lon="12.835277"><ele>554.5</ele></trkpt>
<trkpt lat="47.718230" lon="12.835270"><ele>555.2</ele></trkpt>
<trkpt lat="47.718355" lon="12.833239"><ele>536.0</ele></trkpt>
<trkpt lat="47.718426" lon="12.831642"><ele>539.2</ele></trkpt>
<trkpt lat="47.719317" lon="12.830874"><ele>534.5</ele></trkpt>
<trkpt lat="47.719767" lon="12.831164"><ele>542.3</ele></trkpt>
<trkpt lat="47.720664" lon="12.832466"><ele>555.0</ele></trkpt>
<trkpt lat="47.721273" lon="12.831990"><ele>544.3</ele></trkpt>
<trkpt lat="47.722228" lon="12.832035"><ele>557.6</ele></trkpt>
<trkpt lat="47.722209" lon="12.830555"><ele>557.5</ele></trkpt>
<trkpt lat="47.721753" lon="12.829195"><ele>553.7</ele></trkpt>
<trkpt lat="47.721650" lon="12.828079"><ele>551.3</ele></trkpt>
<trkpt lat="47.721101" lon="12.826237"><ele>551.7</ele></trkpt>
<trkpt lat="47.720825" lon="12.825396"><ele>541.8</ele></trkpt>
<trkpt lat="47.720736" lon="12.824627"><ele>543.2</ele></trkpt>
<trkpt lat="47.719861" lon="12.822847"><ele>538.6</ele></trkpt>
<trkpt lat="47.719401" lon="12.821780"><ele>544.8</ele></trkpt>
<trkpt lat="47.719004" lon="12.822612"><ele>539.9</ele></trkpt>
<trkpt lat="47.719686" lon="12.824240"><ele>530.1</ele></trkpt>
<trkpt lat="47.720004" lon="12.824203"><ele>531.9</ele></trkpt>
<trkpt lat="47.720286" lon="12.824819"><ele>532.5</ele></trkpt>
<trkpt lat="47.720591" lon="12.824286"><ele>539.1</ele></trkpt>
<trkpt lat="47.720691" lon="12.824478"><ele>541.9</ele></trkpt>
<trkpt lat="47.720825" lon="12.825396"><ele>541.8</ele></trkpt>
<trkpt lat="47.721364" lon="12.827287"><ele>546.5</ele></trkpt>
<trkpt lat="47.721650" lon="12.828079"><ele>551.3</ele></trkpt>
<trkpt lat="47.721753" lon="12.829195"><ele>553.7</ele></trkpt>
<trkpt lat="47.722183" lon="12.830432"><ele>557.0</ele></trkpt>
<trkpt lat="47.722274" lon="12.832630"><ele>564.5</ele></trkpt>
<trkpt lat="47.722341" lon="12.834630"><ele>582.7</ele></trkpt>
<trkpt lat="47.722452" lon="12.836693"><ele>589.9</ele></trkpt>
<trkpt lat="47.722588" lon="12.838466"><ele>578.0</ele></trkpt>
<trkpt lat="47.722985" lon="12.840369"><ele>566.3</ele></trkpt>
<trkpt lat="47.723402" lon="12.841074"><ele>566.5</ele></trkpt>
<trkpt lat="47.724844" lon="12.841416"><ele>590.4</ele></trkpt>
<trkpt lat="47.725583" lon="12.841557"><ele>596.3</ele></trkpt>
<trkpt lat="47.726555" lon="12.841338"><ele>603.6</ele></trkpt>
<trkpt lat="47.727939" lon="12.841378"><ele>597.2</ele></trkpt>
<trkpt lat="47.728392" lon="12.841399"><ele>598.1</ele></trkpt>
<trkpt lat="47.728810" lon="12.841015"><ele>611.3</ele></trkpt>
<trkpt lat="47.729645" lon="12.840804"><ele>625.4</ele></trkpt>
<trkpt lat="47.731030" lon="12.841060"><ele>625.6</ele></trkpt>
<trkpt lat="47.731533" lon="12.841173"><ele>626.1</ele></trkpt>
<trkpt lat="47.731867" lon="12.840774"><ele>633.5</ele></trkpt>
<trkpt lat="47.731769" lon="12.840291"><ele>642.7</ele></trkpt>
<trkpt lat="47.732309" lon="12.838530"><ele>652.2</ele></trkpt>
<trkpt lat="47.732370" lon="12.836356"><ele>655.6</ele></trkpt>
<trkpt lat="47.732381" lon="12.836241"><ele>655.1</ele></trkpt>
<trkpt lat="47.732690" lon="12.834251"><ele>658.1</ele></trkpt>
<trkpt lat="47.732756" lon="12.834119"><ele>658.1</ele></trkpt>
<trkpt lat="47.732925" lon="12.834050"><ele>657.8</ele></trkpt>
<trkpt lat="47.733372" lon="12.835462"><ele>648.7</ele></trkpt>
<trkpt lat="47.733632" lon="12.835662"><ele>650.6</ele></trkpt>
<trkpt lat="47.734068" lon="12.835510"><ele>652.7</ele></trkpt>
<trkpt lat="47.734948" lon="12.834533"><ele>654.2</ele></trkpt>
<trkpt lat="47.735734" lon="12.834665"><ele>636.8</ele></trkpt>
<trkpt lat="47.736294" lon="12.835171"><ele>631.7</ele></trkpt>
<trkpt lat="47.736048" lon="12.836027"><ele>621.3</ele></trkpt>
<trkpt lat="47.735900" lon="12.838028"><ele>604.5</ele></trkpt>
<trkpt lat="47.735769" lon="12.838836"><ele>597.4</ele></trkpt>
<trkpt lat="47.736455" lon="12.840530"><ele>583.5</ele></trkpt>
<trkpt lat="47.736148" lon="12.842288"><ele>570.3</ele></trkpt>
<trkpt lat="47.736604" lon="12.843527"><ele>566.0</ele></trkpt>
<trkpt lat="47.736747" lon="12.845420"><ele>566.8</ele></trkpt>
<trkpt lat="47.736512" lon="12.846719"><ele>571.8</ele></trkpt>
<trkpt lat="47.736236" lon="12.847418"><ele>569.0</ele></trkpt>
<trkpt lat="47.735137" lon="12.848807"><ele>561.9</ele></trkpt>
<trkpt lat="47.735011" lon="12.849061"><ele>561.2</ele></trkpt>
<trkpt lat="47.736433" lon="12.849586"><ele>602.2</ele></trkpt>
<trkpt lat="47.736653" lon="12.849735"><ele>609.8</ele></trkpt>
<trkpt lat="47.736515" lon="12.850926"><ele>618.6</ele></trkpt>
<trkpt lat="47.737426" lon="12.852206"><ele>653.5</ele></trkpt>
<trkpt lat="47.737597" lon="12.852730"><ele>661.2</ele></trkpt>
<trkpt lat="47.738045" lon="12.853004"><ele>668.0</ele></trkpt>
<trkpt lat="47.738502" lon="12.853895"><ele>666.0</ele></trkpt>
<trkpt lat="47.738328" lon="12.855429"><ele>662.8</ele></trkpt>
<trkpt lat="47.738570" lon="12.856166"><ele>658.3</ele></trkpt>
<trkpt lat="47.738695" lon="12.856028"><ele>660.5</ele></trkpt>
<trkpt lat="47.738651" lon="12.857216"><ele>659.1</ele></trkpt>
<trkpt lat="47.738883" lon="12.857211"><ele>660.0</ele></trkpt>
<trkpt lat="47.738886" lon="12.857412"><ele>660.0</ele></trkpt>
<trkpt lat="47.739385" lon="12.855910"><ele>675.9</ele></trkpt>
<trkpt lat="47.739324" lon="12.855697"><ele>673.4</ele></trkpt>
<trkpt lat="47.739052" lon="12.855685"><ele>667.7</ele></trkpt>
<trkpt lat="47.738257" lon="12.856579"><ele>652.1</ele></trkpt>
<trkpt lat="47.738043" lon="12.857074"><ele>648.1</ele></trkpt>
<trkpt lat="47.738015" lon="12.857929"><ele>642.1</ele></trkpt>
<trkpt lat="47.738381" lon="12.859542"><ele>631.6</ele></trkpt>
<trkpt lat="47.739243" lon="12.861130"><ele>617.7</ele></trkpt>
<trkpt lat="47.739505" lon="12.861553"><ele>611.3</ele></trkpt>
<trkpt lat="47.739469" lon="12.862051"><ele>601.9</ele></trkpt>
<trkpt lat="47.739180" lon="12.862562"><ele>601.1</ele></trkpt>
<trkpt lat="47.739029" lon="12.862582"><ele>600.7</ele></trkpt>
<trkpt lat="47.738846" lon="12.862098"><ele>602.1</ele></trkpt>
<trkpt lat="47.738527" lon="12.862463"><ele>593.2</ele></trkpt>
<trkpt lat="47.738635" lon="12.863964"><ele>575.0</ele></trkpt>
<trkpt lat="47.738869" lon="12.864815"><ele>565.5</ele></trkpt>
<trkpt lat="47.740125" lon="12.865717"><ele>556.0</ele></trkpt>
<trkpt lat="47.740436" lon="12.867063"><ele>551.1</ele></trkpt>
<trkpt lat="47.740355" lon="12.867860"><ele>538.0</ele></trkpt>
<trkpt lat="47.740673" lon="12.869408"><ele>545.2</ele></trkpt>
<trkpt lat="47.740554" lon="12.870070"><ele>538.2</ele></trkpt>
<trkpt lat="47.740471" lon="12.870218"><ele>534.5</ele></trkpt>
<trkpt lat="47.740224" lon="12.869868"><ele>522.4</ele></trkpt>
<trkpt lat="47.739526" lon="12.868569"><ele>508.6</ele></trkpt>
<trkpt lat="47.738935" lon="12.868121"><ele>497.6</ele></trkpt>
<trkpt lat="47.737652" lon="12.869051"><ele>477.8</ele></trkpt>
<trkpt lat="47.737119" lon="12.869497"><ele>469.7</ele></trkpt>
<trkpt lat="47.736863" lon="12.867297"><ele>470.6</ele></trkpt>
<trkpt lat="47.736860" lon="12.867279"><ele>470.6</ele></trkpt>
<trkpt lat="47.737076" lon="12.866628"><ele>475.9</ele></trkpt>
<trkpt lat="47.737015" lon="12.866298"><ele>475.1</ele></trkpt>
<trkpt lat="47.736624" lon="12.865857"><ele>472.3</ele></trkpt>
<trkpt lat="47.735489" lon="12.866593"><ele>463.1</ele></trkpt>
<trkpt lat="47.734429" lon="12.868101"><ele>472.9</ele></trkpt>
<trkpt lat="47.734134" lon="12.868524"><ele>474.8</ele></trkpt>
<trkpt lat="47.733248" lon="12.869208"><ele>471.6</ele></trkpt>
<trkpt lat="47.733314" lon="12.869335"><ele>471.9</ele></trkpt>
<trkpt lat="47.732680" lon="12.869573"><ele>466.5</ele></trkpt>
<trkpt lat="47.731846" lon="12.871179"><ele>472.2</ele></trkpt>
<trkpt lat="47.731799" lon="12.871233"><ele>472.1</ele></trkpt>
<trkpt lat="47.731123" lon="12.871571"><ele>466.1</ele></trkpt>
<trkpt lat="47.730477" lon="12.872204"><ele>466.0</ele></trkpt>
<trkpt lat="47.731222" lon="12.873932"><ele>466.2</ele></trkpt>
<trkpt lat="47.731237" lon="12.873970"><ele>466.3</ele></trkpt>
<trkpt lat="47.729977" lon="12.875189"><ele>468.9</ele></trkpt>
<trkpt lat="47.728816" lon="12.876345"><ele>471.0</ele></trkpt>
<trkpt lat="47.727890" lon="12.878101"><ele>469.3</ele></trkpt>
<trkpt lat="47.727059" lon="12.879729"><ele>472.4</ele></trkpt>
<trkpt lat="47.726334" lon="12.881114"><ele>471.4</ele></trkpt>
<trkpt lat="47.727034" lon="12.882090"><ele>469.4</ele></trkpt>
<trkpt lat="47.727494" lon="12.883113"><ele>470.2</ele></trkpt>
<trkpt lat="47.726900" lon="12.883842"><ele>474.7</ele></trkpt>
</trkseg></trk></gpx>