<?xml version="1.0" encoding="UTF-8"?>
<gpx version="1.1" creator="Bad Reichenhall gravel – saját gravel-router (OSM/Overture + SRTM)" xmlns="http://www.topografix.com/GPX/1/1">
<metadata><name>Untersberg mentén Salzburg kapujáig</name><desc>GENERÁLT NYOMVONAL – Lankás, könnyű kör az Untersberg északi lábánál. Großgmainból a határ mentén Fürstenbrunnba, a Glanegg-kastélyhoz és Grödigen át a hellbrunni kastélyparkig gurulsz, visszafelé a Leopoldskroner Moos lápréti útjain és Walson át érsz haza. Jó választás borús napra, amikor a hegyek felhőben vannak.</desc><copyright author="OpenStreetMap contributors (via Overture Maps)"><license>https://opendatacommons.org/licenses/odbl/</license></copyright><time>2026-10-04T22:30:49Z</time></metadata>
<wpt lat="47.7296" lon="12.918"><name>Großgmain</name><type>town</type></wpt>
<wpt lat="47.7433" lon="12.9915"><name>Fürstenbrunn – Untersberg-márvány</name><type>history</type></wpt>
<wpt lat="47.7496" lon="13.0083"><name>Schloss Glanegg</name><type>history</type></wpt>
<wpt lat="47.7633" lon="13.0644"><name>Schloss Hellbrunn</name><type>history</type></wpt>
<wpt lat="47.7858" lon="13.0387"><name>Leopoldskroner Weiher</name><type>lake</type></wpt>
<wpt lat="47.7811" lon="12.9842"><name>Viehhausen</name><type>town</type></wpt>
<trk><name>Untersberg mentén Salzburg kapujáig</name><type>gravel</type><trkseg>
<trkpt lat="47.726900" lon="12.883842"><ele>474.7</ele></trkpt>
<trkpt lat="47.727494" lon="12.883113"><ele>470.2</ele></trkpt>
<trkpt lat="47.727719" lon="12.883943"><ele>471.1</ele></trkpt>
<trkpt lat="47.728704" lon="12.884653"><ele>467.7</ele></trkpt>
<trkpt lat="47.729731" lon="12.886062"><ele>468.9</ele></trkpt>
<trkpt lat="47.730708" lon="12.887277"><ele>466.8</ele></trkpt>
<trkpt lat="47.731702" lon="12.887899"><ele>465.8</ele></trkpt>
<trkpt lat="47.732859" lon="12.888988"><ele>463.3</ele></trkpt>
<trkpt lat="47.733919" lon="12.889805"><ele>464.0</ele></trkpt>
<trkpt lat="47.735182" lon="12.890496"><ele>464.3</ele></trkpt>
<trkpt lat="47.736108" lon="12.891201"><ele>461.0</ele></trkpt>
<trkpt lat="47.736845" lon="12.892688"><ele>464.9</ele></trkpt>
<trkpt lat="47.737294" lon="12.893123"><ele>465.8</ele></trkpt>
<trkpt lat="47.738134" lon="12.894843"><ele>466.4</ele></trkpt>
<trkpt lat="47.738164" lon="12.894899"><ele>466.6</ele></trkpt>
<trkpt lat="47.737894" lon="12.895352"><ele>467.3</ele></trkpt>
<trkpt lat="47.738650" lon="12.897144"><ele>470.9</ele></trkpt>
<trkpt lat="47.738788" lon="12.897543"><ele>470.3</ele></trkpt>
<trkpt lat="47.739379" lon="12.899503"><ele>477.8</ele></trkpt>
<trkpt lat="47.739922" lon="12.901399"><ele>472.8</ele></trkpt>
<trkpt lat="47.740880" lon="12.902811"><ele>473.4</ele></trkpt>
<trkpt lat="47.742113" lon="12.903418"><ele>457.9</ele></trkpt>
<trkpt lat="47.742269" lon="12.904485"><ele>456.8</ele></trkpt>
<trkpt lat="47.743073" lon="12.906108"><ele>458.0</ele></trkpt>
<trkpt lat="47.743086" lon="12.906136"><ele>458.0</ele></trkpt>
<trkpt lat="47.743652" lon="12.908136"><ele>459.6</ele></trkpt>
<trkpt lat="47.743740" lon="12.908499"><ele>459.7</ele></trkpt>
<trkpt lat="47.744516" lon="12.910379"><ele>463.3</ele></trkpt>
<trkpt lat="47.744616" lon="12.910747"><ele>463.0</ele></trkpt>
<trkpt lat="47.744926" lon="12.911017"><ele>460.8</ele></trkpt>
<trkpt lat="47.745145" lon="12.910917"><ele>460.3</ele></trkpt>
<trkpt lat="47.745786" lon="12.911876"><ele>461.9</ele></trkpt>
<trkpt lat="47.746457" lon="12.913586"><ele>464.7</ele></trkpt>
<trkpt lat="47.747458" lon="12.915029"><ele>465.2</ele></trkpt>
<trkpt lat="47.747630" lon="12.915237"><ele>465.9</ele></trkpt>
<trkpt lat="47.748835" lon="12.916243"><ele>463.4</ele></trkpt>
<trkpt lat="47.749601" lon="12.916973"><ele>463.3</ele></trkpt>
<trkpt lat="47.750296" lon="12.918382"><ele>461.2</ele></trkpt>
<trkpt lat="47.750568" lon="12.919192"><ele>463.1</ele></trkpt>
<trkpt lat="47.750886" lon="12.921149"><ele>463.0</ele></trkpt>
<trkpt lat="47.751332" lon="12.923297"><ele>463.1</ele></trkpt>
<trkpt lat="47.751392" lon="12.923816"><ele>464.0</ele></trkpt>
<trkpt lat="47.751236" lon="12.924807"><ele>464.3</ele></trkpt>
<trkpt lat="47.750565" lon="12.925964"><ele>469.0</ele></trkpt>
<trkpt lat="47.750191" lon="12.927537"><ele>475.8</ele></trkpt>
<trkpt lat="47.750099" lon="12.928393"><ele>477.0</ele></trkpt>
<trkpt lat="47.750430" lon="12.929747"><ele>472.5</ele></trkpt>
<trkpt lat="47.750372" lon="12.930403"><ele>473.9</ele></trkpt>
<trkpt lat="47.749440" lon="12.931833"><ele>484.6</ele></trkpt>
<trkpt lat="47.748481" lon="12.933487"><ele>483.2</ele></trkpt>
<trkpt lat="47.748399" lon="12.933614"><ele>483.0</ele></trkpt>
<trkpt lat="47.747524" lon="12.934447"><ele>492.6</ele></trkpt>
<trkpt lat="47.746911" lon="12.935918"><ele>490.3</ele></trkpt>
<trkpt lat="47.747796" lon="12.937439"><ele>494.8</ele></trkpt>
<trkpt lat="47.748415" lon="12.938724"><ele>493.3</ele></trkpt>
<trkpt lat="47.748872" lon="12.940631"><ele>489.8</ele></trkpt>
<trkpt lat="47.749116" lon="12.941807"><ele>485.8</ele></trkpt>
<trkpt lat="47.749628" lon="12.942952"><ele>485.7</ele></trkpt>
<trkpt lat="47.750659" lon="12.944045"><ele>485.3</ele></trkpt>
<trkpt lat="47.751471" lon="12.944369"><ele>483.0</ele></trkpt>
<trkpt lat="47.752865" lon="12.944325"><ele>482.8</ele></trkpt>
<trkpt lat="47.753869" lon="12.944420"><ele>490.2</ele></trkpt>
<trkpt lat="47.755220" lon="12.944675"><ele>480.7</ele></trkpt>
<trkpt lat="47.756563" lon="12.944934"><ele>480.2</ele></trkpt>
<trkpt lat="47.757911" lon="12.945193"><ele>486.2</ele></trkpt>
<trkpt lat="47.759127" lon="12.945347"><ele>480.9</ele></trkpt>
<trkpt lat="47.760061" lon="12.945789"><ele>477.9</ele></trkpt>
<trkpt lat="47.761338" lon="12.946931"><ele>476.1</ele></trkpt>
<trkpt lat="47.762517" lon="12.947905"><ele>477.8</ele></trkpt>
<trkpt lat="47.763567" lon="12.949247"><ele>485.2</ele></trkpt>
<trkpt lat="47.764639" lon="12.950711"><ele>482.1</ele></trkpt>
<trkpt lat="47.765403" lon="12.951633"><ele>491.0</ele></trkpt>
<trkpt lat="47.766548" lon="12.952938"><ele>477.2</ele></trkpt>
<trkpt lat="47.767636" lon="12.954171"><ele>459.6</ele></trkpt>
<trkpt lat="47.768004" lon="12.954510"><ele>450.9</ele></trkpt>
<trkpt lat="47.767418" lon="12.956298"><ele>444.0</ele></trkpt>
<trkpt lat="47.768277" lon="12.957779"><ele>436.2</ele></trkpt>
<trkpt lat="47.768535" lon="12.958843"><ele>436.8</ele></trkpt>
<trkpt lat="47.768005" lon="12.960277"><ele>437.0</ele></trkpt>
<trkpt lat="47.767467" lon="12.962238"><ele>443.1</ele></trkpt>
<trkpt lat="47.767302" lon="12.962950"><ele>441.6</ele></trkpt>
<trkpt lat="47.767455" lon="12.963908"><ele>437.9</ele></trkpt>
<trkpt lat="47.767399" lon="12.964628"><ele>438.3</ele></trkpt>
<trkpt lat="47.766504" lon="12.965809"><ele>436.8</ele></trkpt>
<trkpt lat="47.766359" lon="12.966323"><ele>436.0</ele></trkpt>
<trkpt lat="47.765016" lon="12.967353"><ele>436.0</ele></trkpt>
<trkpt lat="47.764525" lon="12.967713"><ele>435.2</ele></trkpt>
<trkpt lat="47.764884" lon="12.968884"><ele>438.6</ele></trkpt>
<trkpt lat="47.765063" lon="12.970258"><ele>436.8</ele></trkpt>
<trkpt lat="47.764592" lon="12.972257"><ele>436.6</ele></trkpt>
<trkpt lat="47.764066" lon="12.974115"><ele>438.5</ele></trkpt>
<trkpt lat="47.764010" lon="12.974261"><ele>438.6</ele></trkpt>
<trkpt lat="47.762985" lon="12.975737"><ele>439.9</ele></trkpt>
<trkpt lat="47.762099" lon="12.977306"><ele>438.3</ele></trkpt>
<trkpt lat="47.762024" lon="12.977421"><ele>438.7</ele></trkpt>
<trkpt lat="47.761535" lon="12.977771"><ele>440.0</ele></trkpt>
<trkpt lat="47.761285" lon="12.978304"><ele>440.0</ele></trkpt>
<trkpt lat="47.760633" lon="12.980234"><ele>438.2</ele></trkpt>
<trkpt lat="47.760109" lon="12.982199"><ele>440.9</ele></trkpt>
<trkpt lat="47.759805" lon="12.982750"><ele>441.0</ele></trkpt>
<trkpt lat="47.759355" lon="12.984657"><ele>443.5</ele></trkpt>
<trkpt lat="47.759223" lon="12.984957"><ele>442.9</ele></trkpt>
<trkpt lat="47.758946" lon="12.985293"><ele>443.6</ele></trkpt>
<trkpt lat="47.757647" lon="12.985917"><ele>449.2</ele></trkpt>
<trkpt lat="47.757100" lon="12.986289"><ele>450.9</ele></trkpt>
<trkpt lat="47.755957" lon="12.987547"><ele>459.2</ele></trkpt>
<trkpt lat="47.754765" lon="12.988522"><ele>465.0</ele></trkpt>
<trkpt lat="47.753634" lon="12.989641"><ele>467.0</ele></trkpt>
<trkpt lat="47.752456" lon="12.990828"><ele>476.1</ele></trkpt>
<trkpt lat="47.752223" lon="12.991067"><ele>471.0</ele></trkpt>
<trkpt lat="47.751629" lon="12.991861"><ele>460.0</ele></trkpt>
<trkpt lat="47.751105" lon="12.993387"><ele>441.0</ele></trkpt>
<trkpt lat="47.750091" lon="12.994641"><ele>443.2</ele></trkpt>
<trkpt lat="47.749543" lon="12.995451"><ele>441.3</ele></trkpt>
<trkpt lat="47.749142" lon="12.996391"><ele>441.1</ele></trkpt>
<trkpt lat="47.749100" lon="12.997049"><ele>442.4</ele></trkpt>
<trkpt lat="47.748573" lon="12.999040"><ele>441.1</ele></trkpt>
<trkpt lat="47.748541" lon="12.999184"><ele>441.3</ele></trkpt>
<trkpt lat="47.747931" lon="13.000357"><ele>446.3</ele></trkpt>
<trkpt lat="47.747948" lon="13.002037"><ele>450.6</ele></trkpt>
<trkpt lat="47.747553" lon="13.003274"><ele>448.7</ele></trkpt>
<trkpt lat="47.748531" lon="13.004827"><ele>448.2</ele></trkpt>
<trkpt lat="47.748722" lon="13.005256"><ele>448.0</ele></trkpt>
<trkpt lat="47.748699" lon="13.007360"><ele>451.7</ele></trkpt>
<trkpt lat="47.749224" lon="13.009239"><ele>458.3</ele></trkpt>
<trkpt lat="47.749287" lon="13.009580"><ele>454.3</ele></trkpt>
<trkpt lat="47.749572" lon="13.011696"><ele>443.7</ele></trkpt>
<trkpt lat="47.749622" lon="13.012510"><ele>445.8</ele></trkpt>
<trkpt lat="47.749440" lon="13.014570"><ele>443.6</ele></trkpt>
<trkpt lat="47.749379" lon="13.015071"><ele>442.0</ele></trkpt>
<trkpt lat="47.749171" lon="13.015949"><ele>440.8</ele></trkpt>
<trkpt lat="47.748869" lon="13.016815"><ele>442.8</ele></trkpt>
<trkpt lat="47.748067" lon="13.017824"><ele>441.6</ele></trkpt>
<trkpt lat="47.747711" lon="13.019057"><ele>438.8</ele></trkpt>
<trkpt lat="47.747839" lon="13.021053"><ele>443.5</ele></trkpt>
<trkpt lat="47.747950" lon="13.021839"><ele>444.7</ele></trkpt>
<trkpt lat="47.748183" lon="13.022236"><ele>444.2</ele></trkpt>
<trkpt lat="47.748928" lon="13.022694"><ele>437.7</ele></trkpt>
<trkpt lat="47.750054" lon="13.024009"><ele>436.9</ele></trkpt>
<trkpt lat="47.751113" lon="13.025219"><ele>439.0</ele></trkpt>
<trkpt lat="47.751821" lon="13.026387"><ele>438.1</ele></trkpt>
<trkpt lat="47.752500" lon="13.028217"><ele>437.6</ele></trkpt>
<trkpt lat="47.752502" lon="13.028222"><ele>437.6</ele></trkpt>
<trkpt lat="47.752919" lon="13.029844"><ele>434.7</ele></trkpt>
<trkpt lat="47.752676" lon="13.030792"><ele>435.2</ele></trkpt>
<trkpt lat="47.752869" lon="13.031715"><ele>437.1</ele></trkpt>
<trkpt lat="47.752245" lon="13.033564"><ele>437.2</ele></trkpt>
<trkpt lat="47.751853" lon="13.034603"><ele>437.0</ele></trkpt>
<trkpt lat="47.753100" lon="13.035497"><ele>438.2</ele></trkpt>
<trkpt lat="47.754342" lon="13.036554"><ele>437.2</ele></trkpt>
<trkpt lat="47.755610" lon="13.037267"><ele>437.2</ele></trkpt>
<trkpt lat="47.756858" lon="13.037965"><ele>444.5</ele></trkpt>
<trkpt lat="47.757259" lon="13.039956"><ele>447.9</ele></trkpt>
<trkpt lat="47.757751" lon="13.041963"><ele>453.0</ele></trkpt>
<trkpt lat="47.758287" lon="13.044055"><ele>447.3</ele></trkpt>
<trkpt lat="47.758733" lon="13.046006"><ele>451.7</ele></trkpt>
<trkpt lat="47.758832" lon="13.046444"><ele>451.2</ele></trkpt>
<trkpt lat="47.759734" lon="13.048256"><ele>443.7</ele></trkpt>
<trkpt lat="47.759845" lon="13.048633"><ele>442.3</ele></trkpt>
<trkpt lat="47.759609" lon="13.049700"><ele>436.6</ele></trkpt>
<trkpt lat="47.760063" lon="13.051653"><ele>438.5</ele></trkpt>
<trkpt lat="47.760546" lon="13.053676"><ele>439.2</ele></trkpt>
<trkpt lat="47.761022" lon="13.055653"><ele>438.4</ele></trkpt>
<trkpt lat="47.761507" lon="13.057664"><ele>438.4</ele></trkpt>
<trkpt lat="47.761883" lon="13.059362"><ele>438.3</ele></trkpt>
<trkpt lat="47.763223" lon="13.058843"><ele>435.2</ele></trkpt>
<trkpt lat="47.763354" lon="13.058799"><ele>435.8</ele></trkpt>
<trkpt lat="47.763526" lon="13.060218"><ele>428.8</ele></trkpt>
<trkpt lat="47.763110" lon="13.061400"><ele>429.4</ele></trkpt>
<trkpt lat="47.763053" lon="13.062244"><ele>431.1</ele></trkpt>
<trkpt lat="47.763628" lon="13.064143"><ele>430.8</ele></trkpt>
<trkpt lat="47.763659" lon="13.064601"><ele>429.3</ele></trkpt>
<trkpt lat="47.764994" lon="13.064192"><ele>434.0</ele></trkpt>
<trkpt lat="47.765610" lon="13.064003"><ele>431.4</ele></trkpt>
<trkpt lat="47.765117" lon="13.062863"><ele>426.2</ele></trkpt>
<trkpt lat="47.766335" lon="13.061875"><ele>426.2</ele></trkpt>
<trkpt lat="47.766603" lon="13.061683"><ele>426.0</ele></trkpt>
<trkpt lat="47.767994" lon="13.060979"><ele>426.8</ele></trkpt>
<trkpt lat="47.769021" lon="13.060347"><ele>427.8</ele></trkpt>
<trkpt lat="47.769628" lon="13.059490"><ele>425.7</ele></trkpt>
<trkpt lat="47.769676" lon="13.058990"><ele>429.1</ele></trkpt>
<trkpt lat="47.770378" lon="13.058606"><ele>431.1</ele></trkpt>
<trkpt lat="47.770458" lon="13.058056"><ele>432.3</ele></trkpt>
<trkpt lat="47.770329" lon="13.057556"><ele>433.0</ele></trkpt>
<trkpt lat="47.770725" lon="13.055774"><ele>432.8</ele></trkpt>
<trkpt lat="47.771555" lon="13.054981"><ele>434.1</ele></trkpt>
<trkpt lat="47.771518" lon="13.053540"><ele>435.1</ele></trkpt>
<trkpt lat="47.772407" lon="13.051844"><ele>433.3</ele></trkpt>
<trkpt lat="47.772940" lon="13.050786"><ele>432.2</ele></trkpt>
<trkpt lat="47.772503" lon="13.048926"><ele>430.0</ele></trkpt>
<trkpt lat="47.772620" lon="13.046791"><ele>430.1</ele></trkpt>
<trkpt lat="47.772660" lon="13.046149"><ele>429.9</ele></trkpt>
<trkpt lat="47.772803" lon="13.045914"><ele>429.0</ele></trkpt>
<trkpt lat="47.774174" lon="13.046250"><ele>432.5</ele></trkpt>
<trkpt lat="47.774211" lon="13.046157"><ele>432.7</ele></trkpt>
<trkpt lat="47.774184" lon="13.043984"><ele>432.1</ele></trkpt>
<trkpt lat="47.774485" lon="13.043031"><ele>431.9</ele></trkpt>
<trkpt lat="47.774182" lon="13.043043"><ele>432.0</ele></trkpt>
<trkpt lat="47.774185" lon="13.041539"><ele>431.9</ele></trkpt>
<trkpt lat="47.774419" lon="13.040582"><ele>434.9</ele></trkpt>
<trkpt lat="47.774894" lon="13.041029"><ele>435.8</ele></trkpt>
<trkpt lat="47.776199" lon="13.041666"><ele>433.0</ele></trkpt>
<trkpt lat="47.777262" lon="13.042141"><ele>430.1</ele></trkpt>
<trkpt lat="47.778649" lon="13.041988"><ele>432.1</ele></trkpt>
<trkpt lat="47.780070" lon="13.041927"><ele>433.6</ele></trkpt>
<trkpt lat="47.780201" lon="13.041916"><ele>433.1</ele></trkpt>
<trkpt lat="47.780772" lon="13.042091"><ele>430.8</ele></trkpt>
<trkpt lat="47.780868" lon="13.040196"><ele>432.0</ele></trkpt>
<trkpt lat="47.782280" lon="13.040030"><ele>432.2</ele></trkpt>
<trkpt lat="47.782614" lon="13.039845"><ele>432.7</ele></trkpt>
<trkpt lat="47.783789" lon="13.038844"><ele>433.3</ele></trkpt>
<trkpt lat="47.785092" lon="13.037689"><ele>435.7</ele></trkpt>
<trkpt lat="47.786359" lon="13.036553"><ele>435.3</ele></trkpt>
<trkpt lat="47.787368" lon="13.035778"><ele>434.9</ele></trkpt>
<trkpt lat="47.787981" lon="13.035518"><ele>433.5</ele></trkpt>
<trkpt lat="47.788231" lon="13.035685"><ele>431.2</ele></trkpt>
<trkpt lat="47.788611" lon="13.036640"><ele>430.9</ele></trkpt>
<trkpt lat="47.789688" lon="13.037534"><ele>433.0</ele></trkpt>
<trkpt lat="47.790257" lon="13.035765"><ele>431.1</ele></trkpt>
<trkpt lat="47.790417" lon="13.035352"><ele>431.4</ele></trkpt>
<trkpt lat="47.791236" lon="13.033683"><ele>429.3</ele></trkpt>
<trkpt lat="47.792061" lon="13.032004"><ele>432.5</ele></trkpt>
<trkpt lat="47.792277" lon="13.031687"><ele>430.3</ele></trkpt>
<trkpt lat="47.792697" lon="13.029672"><ele>431.0</ele></trkpt>
<trkpt lat="47.792834" lon="13.029038"><ele>431.7</ele></trkpt>
<trkpt lat="47.793561" lon="13.027437"><ele>430.0</ele></trkpt>
<trkpt lat="47.793948" lon="13.026541"><ele>427.8</ele></trkpt>
<trkpt lat="47.794270" lon="13.025235"><ele>429.0</ele></trkpt>
<trkpt lat="47.793781" lon="13.023357"><ele>422.8</ele></trkpt>
<trkpt lat="47.793587" lon="13.022881"><ele>424.9</ele></trkpt>
<trkpt lat="47.793061" lon="13.021996"><ele>430.2</ele></trkpt>
<trkpt lat="47.792571" lon="13.021988"><ele>429.3</ele></trkpt>
<trkpt lat="47.791944" lon="13.020881"><ele>430.0</ele></trkpt>
<trkpt lat="47.792035" lon="13.020133"><ele>429.2</ele></trkpt>
<trkpt lat="47.791923" lon="13.019396"><ele>430.0</ele></trkpt>
<trkpt lat="47.793000" lon="13.018985"><ele>430.5</ele></trkpt>
<trkpt lat="47.792759" lon="13.016833"><ele>431.1</ele></trkpt>
<trkpt lat="47.792615" lon="13.015076"><ele>425.4</ele></trkpt>
<trkpt lat="47.793305" lon="13.014859"><ele>426.5</ele></trkpt>
<trkpt lat="47.792988" lon="13.012689"><ele>427.2</ele></trkpt>
<trkpt lat="47.792693" lon="13.011101"><ele>427.3</ele></trkpt>
<trkpt lat="47.792950" lon="13.009173"><ele>429.6</ele></trkpt>
<trkpt lat="47.793478" lon="13.008524"><ele>428.2</ele></trkpt>
<trkpt lat="47.794865" lon="13.008478"><ele>430.8</ele></trkpt>
<trkpt lat="47.796253" lon="13.008292"><ele>424.5</ele></trkpt>
<trkpt lat="47.797676" lon="13.008130"><ele>424.7</ele></trkpt>
<trkpt lat="47.798250" lon="13.007785"><ele>426.0</ele></trkpt>
<trkpt lat="47.797547" lon="13.005817"><ele>427.2</ele></trkpt>
<trkpt lat="47.796818" lon="13.004016"><ele>425.5</ele></trkpt>
<trkpt lat="47.796060" lon="13.002098"><ele>423.8</ele></trkpt>
<trkpt lat="47.795333" lon="13.000255"><ele>431.0</ele></trkpt>
<trkpt lat="47.794631" lon="12.998437"><ele>429.0</ele></trkpt>
<trkpt lat="47.793871" lon="12.996523"><ele>432.5</ele></trkpt>
<trkpt lat="47.793146" lon="12.994807"><ele>432.2</ele></trkpt>
<trkpt lat="47.792412" lon="12.992879"><ele>433.4</ele></trkpt>
<trkpt lat="47.792033" lon="12.992063"><ele>433.9</ele></trkpt>
<trkpt lat="47.792153" lon="12.991300"><ele>435.2</ele></trkpt>
<trkpt lat="47.791325" lon="12.989477"><ele>440.5</ele></trkpt>
<trkpt lat="47.790653" lon="12.987784"><ele>436.6</ele></trkpt>
<trkpt lat="47.790141" lon="12.986859"><ele>437.0</ele></trkpt>
<trkpt lat="47.789421" lon="12.984939"><ele>438.2</ele></trkpt>
<trkpt lat="47.788611" lon="12.983033"><ele>437.9</ele></trkpt>
<trkpt lat="47.788328" lon="12.982360"><ele>436.5</ele></trkpt>
<trkpt lat="47.788253" lon="12.981445"><ele>438.1</ele></trkpt>
<trkpt lat="47.787854" lon="12.981259"><ele>437.5</ele></trkpt>
<trkpt lat="47.787135" lon="12.979368"><ele>436.9</ele></trkpt>
<trkpt lat="47.786845" lon="12.978770"><ele>438.8</ele></trkpt>
<trkpt lat="47.786771" lon="12.978171"><ele>438.4</ele></trkpt>
<trkpt lat="47.786107" lon="12.976232"><ele>437.4</ele></trkpt>
<trkpt lat="47.785438" lon="12.974320"><ele>438.5</ele></trkpt>
<trkpt lat="47.784958" lon="12.973065"><ele>435.0</ele></trkpt>
<trkpt lat="47.783984" lon="12.971359"><ele>436.7</ele></trkpt>
<trkpt lat="47.783597" lon="12.970554"><ele>439.0</ele></trkpt>
<trkpt lat="47.782825" lon="12.968673"><ele>438.9</ele></trkpt>
<trkpt lat="47.782081" lon="12.966809"><ele>439.0</ele></trkpt>
<trkpt lat="47.781299" lon="12.964906"><ele>437.4</ele></trkpt>
<trkpt lat="47.780696" lon="12.963574"><ele>437.5</ele></trkpt>
<trkpt lat="47.780067" lon="12.961683"><ele>440.2</ele></trkpt>
<trkpt lat="47.779765" lon="12.960614"><ele>438.1</ele></trkpt>
<trkpt lat="47.778948" lon="12.958967"><ele>440.1</ele></trkpt>
<trkpt lat="47.778782" lon="12.958590"><ele>440.2</ele></trkpt>
<trkpt lat="47.778077" lon="12.956795"><ele>441.1</ele></trkpt>
<trkpt lat="47.777380" lon="12.955081"><ele>442.3</ele></trkpt>
<trkpt lat="47.776781" lon="12.953575"><ele>441.7</ele></trkpt>
<trkpt lat="47.775973" lon="12.951990"><ele>464.6</ele></trkpt>
<trkpt lat="47.774772" lon="12.950730"><ele>469.3</ele></trkpt>
<trkpt lat="47.773681" lon="12.949341"><ele>469.5</ele></trkpt>
<trkpt lat="47.772397" lon="12.948144"><ele>485.0</ele></trkpt>
<trkpt lat="47.771977" lon="12.947545"><ele>491.7</ele></trkpt>
<trkpt lat="47.771937" lon="12.945492"><ele>496.7</ele></trkpt>
<trkpt lat="47.771868" lon="12.944974"><ele>494.2</ele></trkpt>
<trkpt lat="47.771294" lon="12.943438"><ele>485.1</ele></trkpt>
<trkpt lat="47.770861" lon="12.941449"><ele>487.4</ele></trkpt>
<trkpt lat="47.770285" lon="12.939760"><ele>489.7</ele></trkpt>
<trkpt lat="47.769498" lon="12.938769"><ele>480.4</ele></trkpt>
<trkpt lat="47.768155" lon="12.938236"><ele>479.6</ele></trkpt>
<trkpt lat="47.767463" lon="12.937809"><ele>488.2</ele></trkpt>
<trkpt lat="47.766826" lon="12.936860"><ele>480.1</ele></trkpt>
<trkpt lat="47.766510" lon="12.935177"><ele>471.9</ele></trkpt>
<trkpt lat="47.766311" lon="12.933147"><ele>465.3</ele></trkpt>
<trkpt lat="47.766087" lon="12.930944"><ele>462.9</ele></trkpt>
<trkpt lat="47.766064" lon="12.930465"><ele>457.4</ele></trkpt>
<trkpt lat="47.765267" lon="12.928550"><ele>449.1</ele></trkpt>
<trkpt lat="47.764769" lon="12.927583"><ele>451.1</ele></trkpt>
<trkpt lat="47.764854" lon="12.927044"><ele>451.3</ele></trkpt>
<trkpt lat="47.764355" lon="12.927330"><ele>452.3</ele></trkpt>
<trkpt lat="47.763430" lon="12.927040"><ele>452.3</ele></trkpt>
<trkpt lat="47.762479" lon="12.926382"><ele>449.0</ele></trkpt>
<trkpt lat="47.761403" lon="12.926287"><ele>453.0</ele></trkpt>
<trkpt lat="47.760930" lon="12.925783"><ele>453.5</ele></trkpt>
<trkpt lat="47.760705" lon="12.925201"><ele>452.0</ele></trkpt>
<trkpt lat="47.759610" lon="12.924863"><ele>451.7</ele></trkpt>
<trkpt lat="47.759362" lon="12.924422"><ele>453.6</ele></trkpt>
<trkpt lat="47.759049" lon="12.923125"><ele>455.8</ele></trkpt>
<trkpt lat="47.758205" lon="12.921493"><ele>455.8</ele></trkpt>
<trkpt lat="47.757518" lon="12.920526"><ele>456.2</ele></trkpt>
<trkpt lat="47.756700" lon="12.919953"><ele>454.3</ele></trkpt>
<trkpt lat="47.755299" lon="12.919816"><ele>454.7</ele></trkpt>
<trkpt lat="47.755249" lon="12.919807"><ele>454.7</ele></trkpt>
<trkpt lat="47.754632" lon="12.919464"><ele>457.4</ele></trkpt>
<trkpt lat="47.753624" lon="12.918064"><ele>455.0</ele></trkpt>
<trkpt lat="47.753449" lon="12.917791"><ele>455.5</ele></trkpt>
<trkpt lat="47.753260" lon="12.917079"><ele>457.1</ele></trkpt>
<trkpt lat="47.751917" lon="12.915997"><ele>458.9</ele></trkpt>
<trkpt lat="47.750747" lon="12.914943"><ele>455.5</ele></trkpt>
<trkpt lat="47.750679" lon="12.914881"><ele>456.0</ele></trkpt>
<trkpt lat="47.749458" lon="12.913750"><ele>460.5</ele></trkpt>
<trkpt lat="47.748338" lon="12.912603"><ele>461.0</ele></trkpt>
<trkpt lat="47.747426" lon="12.911676"><ele>461.6</ele></trkpt>
<trkpt lat="47.746417" lon="12.910096"><ele>461.5</ele></trkpt>
<trkpt lat="47.746025" lon="12.909457"><ele>458.7</ele></trkpt>
<trkpt lat="47.745145" lon="12.910917"><ele>460.3</ele></trkpt>
<trkpt lat="47.744926" lon="12.911017"><ele>460.8</ele></trkpt>
<trkpt lat="47.744616" lon="12.910747"><ele>463.0</ele></trkpt>
<trkpt lat="47.743864" lon="12.908804"><ele>459.8</ele></trkpt>
<trkpt lat="47.743740" lon="12.908499"><ele>459.7</ele></trkpt>
<trkpt lat="47.743233" lon="12.906558"><ele>458.4</ele></trkpt>
<trkpt lat="47.743086" lon="12.906136"><ele>458.0</ele></trkpt>
<trkpt lat="47.742269" lon="12.904485"><ele>456.8</ele></trkpt>
<trkpt lat="47.742130" lon="12.903462"><ele>457.7</ele></trkpt>
<trkpt lat="47.741915" lon="12.903289"><ele>460.0</ele></trkpt>
<trkpt lat="47.742594" lon="12.902363"><ele>458.3</ele></trkpt>
<trkpt lat="47.742545" lon="12.901825"><ele>458.7</ele></trkpt>
<trkpt lat="47.742766" lon="12.901534"><ele>459.5</ele></trkpt>
<trkpt lat="47.742677" lon="12.900657"><ele>459.7</ele></trkpt>
<trkpt lat="47.742448" lon="12.900163"><ele>461.4</ele></trkpt>
<trkpt lat="47.741946" lon="12.899693"><ele>464.8</ele></trkpt>
<trkpt lat="47.741464" lon="12.898034"><ele>465.1</ele></trkpt>
<trkpt lat="47.740647" lon="12.897132"><ele>466.9</ele></trkpt>
<trkpt lat="47.740156" lon="12.896272"><ele>467.4</ele></trkpt>
<trkpt lat="47.739976" lon="12.896317"><ele>468.0</ele></trkpt>
<trkpt lat="47.739335" lon="12.894504"><ele>465.9</ele></trkpt>
<trkpt lat="47.739111" lon="12.894151"><ele>466.0</ele></trkpt>
<trkpt lat="47.737803" lon="12.893350"><ele>465.9</ele></trkpt>
<trkpt lat="47.737509" lon="12.893215"><ele>465.6</ele></trkpt>
<trkpt lat="47.738070" lon="12.891904"><ele>461.9</ele></trkpt>
<trkpt lat="47.737518" lon="12.891198"><ele>460.1</ele></trkpt>
<trkpt lat="47.737802" lon="12.890693"><ele>461.0</ele></trkpt>
<trkpt lat="47.736753" lon="12.889424"><ele>462.6</ele></trkpt>
<trkpt lat="47.735718" lon="12.888138"><ele>463.3</ele></trkpt>
<trkpt lat="47.734560" lon="12.886661"><ele>465.4</ele></trkpt>
<trkpt lat="47.733821" lon="12.885715"><ele>463.3</ele></trkpt>
<trkpt lat="47.732575" lon="12.884421"><ele>464.9</ele></trkpt>
<trkpt lat="47.731352" lon="12.883248"><ele>467.1</ele></trkpt>
<trkpt lat="47.730714" lon="12.882452"><ele>466.7</ele></trkpt>
<trkpt lat="47.730079" lon="12.883816"><ele>470.0</ele></trkpt>
<trkpt lat="47.728982" lon="12.882507"><ele>469.3</ele></trkpt>
<trkpt lat="47.728118" lon="12.884187"><ele>469.7</ele></trkpt>
<trkpt lat="47.727687" lon="12.883896"><ele>471.3</ele></trkpt>
<trkpt lat="47.727494" lon="12.883113"><ele>470.2</ele></trkpt>
<trkpt lat="47.726900" lon="12.883842"><ele>474.7</ele></trkpt>
</trkseg></trk></gpx>