<?xml version="1.0" encoding="UTF-8"?>
<gpx version="1.1" creator="Bad Reichenhall gravel – saját gravel-router (OSM/Overture + SRTM)" xmlns="http://www.topografix.com/GPX/1/1">
<metadata><name>Untersberg-kör</name><desc>GENERÁLT NYOMVONAL – A környék egyik legszebb klasszikusa: az Untersberg teljes megkerülése. Hallthurmon át Bischofswiesenbe és Berchtesgadenbe, onnan az Almbachklamm és Marktschellenberg felé, majd St. Leonhardon, Grödigen és Fürstenbrunnon át Großgmain felé zárod a kört. Két országon át, sziklafalak alatt.</desc><copyright author="OpenStreetMap contributors (via Overture Maps)"><license>https://opendatacommons.org/licenses/odbl/</license></copyright><time>2026-10-03T21:20:31Z</time></metadata>
<wpt lat="47.7197" lon="12.9004"><name>Bayerisch Gmain</name><type>town</type></wpt>
<wpt lat="47.6966" lon="12.9354"><name>Hallthurm</name><type>pass</type></wpt>
<wpt lat="47.652" lon="12.9604"><name>Bischofswiesen</name><type>town</type></wpt>
<wpt lat="47.6263" lon="12.9993"><name>Berchtesgaden</name><type>town</type></wpt>
<wpt lat="47.6661" lon="13.0346"><name>Almbachklamm</name><type>gorge</type></wpt>
<wpt lat="47.697" lon="13.045"><name>Marktschellenberg</name><type>town</type></wpt>
<wpt lat="47.7262" lon="13.0444"><name>St. Leonhard – Untersbergbahn</name><type>view</type></wpt>
<wpt lat="47.7433" lon="12.9915"><name>Fürstenbrunn</name><type>history</type></wpt>
<wpt lat="47.7296" lon="12.918"><name>Großgmain</name><type>town</type></wpt>
<trk><name>Untersberg-kör</name><type>gravel</type><trkseg>
<trkpt lat="47.726900" lon="12.883842"><ele>474.7</ele></trkpt>
<trkpt lat="47.726551" lon="12.884389"><ele>479.4</ele></trkpt>
<trkpt lat="47.726118" lon="12.883872"><ele>478.7</ele></trkpt>
<trkpt lat="47.725849" lon="12.883854"><ele>483.2</ele></trkpt>
<trkpt lat="47.725770" lon="12.884096"><ele>486.8</ele></trkpt>
<trkpt lat="47.726011" lon="12.885221"><ele>494.8</ele></trkpt>
<trkpt lat="47.725966" lon="12.885604"><ele>497.4</ele></trkpt>
<trkpt lat="47.725168" lon="12.886404"><ele>509.7</ele></trkpt>
<trkpt lat="47.723889" lon="12.886863"><ele>525.7</ele></trkpt>
<trkpt lat="47.723279" lon="12.887616"><ele>530.3</ele></trkpt>
<trkpt lat="47.723140" lon="12.888319"><ele>529.3</ele></trkpt>
<trkpt lat="47.723289" lon="12.889793"><ele>525.9</ele></trkpt>
<trkpt lat="47.723285" lon="12.891845"><ele>515.9</ele></trkpt>
<trkpt lat="47.723243" lon="12.893164"><ele>517.6</ele></trkpt>
<trkpt lat="47.723505" lon="12.895314"><ele>518.4</ele></trkpt>
<trkpt lat="47.723769" lon="12.897299"><ele>522.0</ele></trkpt>
<trkpt lat="47.723913" lon="12.897991"><ele>523.1</ele></trkpt>
<trkpt lat="47.723309" lon="12.898620"><ele>529.2</ele></trkpt>
<trkpt lat="47.722310" lon="12.899358"><ele>535.0</ele></trkpt>
<trkpt lat="47.722229" lon="12.899246"><ele>535.0</ele></trkpt>
<trkpt lat="47.721247" lon="12.900431"><ele>538.5</ele></trkpt>
<trkpt lat="47.719980" lon="12.899261"><ele>544.1</ele></trkpt>
<trkpt lat="47.719766" lon="12.899103"><ele>545.7</ele></trkpt>
<trkpt lat="47.719364" lon="12.901083"><ele>543.3</ele></trkpt>
<trkpt lat="47.719198" lon="12.901819"><ele>543.3</ele></trkpt>
<trkpt lat="47.718986" lon="12.903813"><ele>540.3</ele></trkpt>
<trkpt lat="47.718796" lon="12.905148"><ele>534.2</ele></trkpt>
<trkpt lat="47.718143" lon="12.907104"><ele>542.7</ele></trkpt>
<trkpt lat="47.718067" lon="12.907380"><ele>545.1</ele></trkpt>
<trkpt lat="47.717809" lon="12.909395"><ele>548.9</ele></trkpt>
<trkpt lat="47.717627" lon="12.910396"><ele>553.2</ele></trkpt>
<trkpt lat="47.717084" lon="12.912233"><ele>557.5</ele></trkpt>
<trkpt lat="47.716870" lon="12.912714"><ele>559.6</ele></trkpt>
<trkpt lat="47.716337" lon="12.912816"><ele>561.3</ele></trkpt>
<trkpt lat="47.716229" lon="12.913677"><ele>563.0</ele></trkpt>
<trkpt lat="47.714981" lon="12.914021"><ele>579.4</ele></trkpt>
<trkpt lat="47.713880" lon="12.913911"><ele>586.4</ele></trkpt>
<trkpt lat="47.712707" lon="12.915345"><ele>602.7</ele></trkpt>
<trkpt lat="47.712516" lon="12.915061"><ele>604.8</ele></trkpt>
<trkpt lat="47.712546" lon="12.914730"><ele>604.3</ele></trkpt>
<trkpt lat="47.711530" lon="12.913797"><ele>629.4</ele></trkpt>
<trkpt lat="47.711167" lon="12.914764"><ele>631.4</ele></trkpt>
<trkpt lat="47.710353" lon="12.915858"><ele>639.5</ele></trkpt>
<trkpt lat="47.709554" lon="12.917567"><ele>644.2</ele></trkpt>
<trkpt lat="47.708843" lon="12.918911"><ele>652.3</ele></trkpt>
<trkpt lat="47.708186" lon="12.919478"><ele>661.1</ele></trkpt>
<trkpt lat="47.707357" lon="12.919627"><ele>666.9</ele></trkpt>
<trkpt lat="47.707261" lon="12.920346"><ele>667.6</ele></trkpt>
<trkpt lat="47.706686" lon="12.920936"><ele>675.4</ele></trkpt>
<trkpt lat="47.706505" lon="12.921494"><ele>676.2</ele></trkpt>
<trkpt lat="47.706274" lon="12.921676"><ele>681.9</ele></trkpt>
<trkpt lat="47.706172" lon="12.922236"><ele>683.7</ele></trkpt>
<trkpt lat="47.705698" lon="12.922847"><ele>690.2</ele></trkpt>
<trkpt lat="47.705605" lon="12.924048"><ele>697.9</ele></trkpt>
<trkpt lat="47.704954" lon="12.925879"><ele>688.8</ele></trkpt>
<trkpt lat="47.704980" lon="12.926769"><ele>686.3</ele></trkpt>
<trkpt lat="47.704630" lon="12.927966"><ele>687.4</ele></trkpt>
<trkpt lat="47.703295" lon="12.928354"><ele>715.7</ele></trkpt>
<trkpt lat="47.702791" lon="12.928672"><ele>724.2</ele></trkpt>
<trkpt lat="47.701666" lon="12.930004"><ele>751.0</ele></trkpt>
<trkpt lat="47.701638" lon="12.930037"><ele>751.5</ele></trkpt>
<trkpt lat="47.700671" lon="12.931704"><ele>740.3</ele></trkpt>
<trkpt lat="47.700670" lon="12.931706"><ele>740.3</ele></trkpt>
<trkpt lat="47.700290" lon="12.931930"><ele>733.6</ele></trkpt>
<trkpt lat="47.699843" lon="12.932565"><ele>720.5</ele></trkpt>
<trkpt lat="47.699454" lon="12.932192"><ele>722.5</ele></trkpt>
<trkpt lat="47.699075" lon="12.933010"><ele>719.9</ele></trkpt>
<trkpt lat="47.697901" lon="12.933602"><ele>723.7</ele></trkpt>
<trkpt lat="47.697490" lon="12.934247"><ele>714.8</ele></trkpt>
<trkpt lat="47.697122" lon="12.934498"><ele>706.1</ele></trkpt>
<trkpt lat="47.696877" lon="12.935472"><ele>691.4</ele></trkpt>
<trkpt lat="47.696303" lon="12.935376"><ele>696.3</ele></trkpt>
<trkpt lat="47.695895" lon="12.935061"><ele>704.1</ele></trkpt>
<trkpt lat="47.694496" lon="12.935920"><ele>721.7</ele></trkpt>
<trkpt lat="47.694158" lon="12.936112"><ele>729.1</ele></trkpt>
<trkpt lat="47.693307" lon="12.935804"><ele>744.5</ele></trkpt>
<trkpt lat="47.692206" lon="12.936005"><ele>764.4</ele></trkpt>
<trkpt lat="47.690900" lon="12.935473"><ele>772.0</ele></trkpt>
<trkpt lat="47.690066" lon="12.935085"><ele>776.8</ele></trkpt>
<trkpt lat="47.688857" lon="12.934210"><ele>754.9</ele></trkpt>
<trkpt lat="47.688553" lon="12.934035"><ele>743.1</ele></trkpt>
<trkpt lat="47.688184" lon="12.933185"><ele>739.8</ele></trkpt>
<trkpt lat="47.687245" lon="12.932609"><ele>726.7</ele></trkpt>
<trkpt lat="47.687036" lon="12.932809"><ele>722.1</ele></trkpt>
<trkpt lat="47.686932" lon="12.933601"><ele>720.0</ele></trkpt>
<trkpt lat="47.686723" lon="12.933550"><ele>719.0</ele></trkpt>
<trkpt lat="47.686610" lon="12.934353"><ele>710.4</ele></trkpt>
<trkpt lat="47.686820" lon="12.935196"><ele>703.1</ele></trkpt>
<trkpt lat="47.686267" lon="12.935703"><ele>694.5</ele></trkpt>
<trkpt lat="47.686287" lon="12.937741"><ele>682.0</ele></trkpt>
<trkpt lat="47.686285" lon="12.937844"><ele>681.6</ele></trkpt>
<trkpt lat="47.685066" lon="12.937761"><ele>684.3</ele></trkpt>
<trkpt lat="47.683586" lon="12.937273"><ele>682.5</ele></trkpt>
<trkpt lat="47.683364" lon="12.937213"><ele>680.4</ele></trkpt>
<trkpt lat="47.683093" lon="12.936822"><ele>681.0</ele></trkpt>
<trkpt lat="47.681697" lon="12.936251"><ele>686.8</ele></trkpt>
<trkpt lat="47.680492" lon="12.935608"><ele>683.0</ele></trkpt>
<trkpt lat="47.679914" lon="12.935572"><ele>680.5</ele></trkpt>
<trkpt lat="47.678617" lon="12.936115"><ele>672.0</ele></trkpt>
<trkpt lat="47.677626" lon="12.936625"><ele>667.4</ele></trkpt>
<trkpt lat="47.676384" lon="12.937527"><ele>667.0</ele></trkpt>
<trkpt lat="47.676057" lon="12.937694"><ele>669.8</ele></trkpt>
<trkpt lat="47.675478" lon="12.937707"><ele>670.7</ele></trkpt>
<trkpt lat="47.674662" lon="12.938243"><ele>668.0</ele></trkpt>
<trkpt lat="47.674008" lon="12.939042"><ele>668.5</ele></trkpt>
<trkpt lat="47.673236" lon="12.939152"><ele>666.5</ele></trkpt>
<trkpt lat="47.671987" lon="12.940289"><ele>659.6</ele></trkpt>
<trkpt lat="47.671658" lon="12.940558"><ele>659.9</ele></trkpt>
<trkpt lat="47.671668" lon="12.941379"><ele>660.0</ele></trkpt>
<trkpt lat="47.670339" lon="12.942273"><ele>656.4</ele></trkpt>
<trkpt lat="47.670267" lon="12.942320"><ele>655.6</ele></trkpt>
<trkpt lat="47.670373" lon="12.943309"><ele>655.7</ele></trkpt>
<trkpt lat="47.669588" lon="12.945042"><ele>652.0</ele></trkpt>
<trkpt lat="47.668792" lon="12.946805"><ele>648.7</ele></trkpt>
<trkpt lat="47.668734" lon="12.946959"><ele>648.5</ele></trkpt>
<trkpt lat="47.667398" lon="12.947760"><ele>645.4</ele></trkpt>
<trkpt lat="47.666919" lon="12.948066"><ele>642.0</ele></trkpt>
<trkpt lat="47.666288" lon="12.949677"><ele>644.5</ele></trkpt>
<trkpt lat="47.665320" lon="12.951165"><ele>638.2</ele></trkpt>
<trkpt lat="47.664715" lon="12.951868"><ele>639.0</ele></trkpt>
<trkpt lat="47.663515" lon="12.952871"><ele>636.2</ele></trkpt>
<trkpt lat="47.662216" lon="12.953730"><ele>635.4</ele></trkpt>
<trkpt lat="47.661584" lon="12.954177"><ele>635.8</ele></trkpt>
<trkpt lat="47.660237" lon="12.954787"><ele>627.9</ele></trkpt>
<trkpt lat="47.658933" lon="12.955327"><ele>626.3</ele></trkpt>
<trkpt lat="47.657565" lon="12.955945"><ele>628.8</ele></trkpt>
<trkpt lat="47.656807" lon="12.956318"><ele>629.4</ele></trkpt>
<trkpt lat="47.655657" lon="12.957696"><ele>620.8</ele></trkpt>
<trkpt lat="47.654641" lon="12.959011"><ele>620.3</ele></trkpt>
<trkpt lat="47.654231" lon="12.959519"><ele>619.7</ele></trkpt>
<trkpt lat="47.652914" lon="12.960395"><ele>616.4</ele></trkpt>
<trkpt lat="47.652420" lon="12.960695"><ele>617.7</ele></trkpt>
<trkpt lat="47.652089" lon="12.960768"><ele>617.0</ele></trkpt>
<trkpt lat="47.651992" lon="12.960475"><ele>614.6</ele></trkpt>
<trkpt lat="47.651584" lon="12.960630"><ele>615.2</ele></trkpt>
<trkpt lat="47.650257" lon="12.961580"><ele>611.5</ele></trkpt>
<trkpt lat="47.650189" lon="12.961626"><ele>612.1</ele></trkpt>
<trkpt lat="47.649669" lon="12.962237"><ele>614.7</ele></trkpt>
<trkpt lat="47.648895" lon="12.964119"><ele>612.1</ele></trkpt>
<trkpt lat="47.648169" lon="12.965855"><ele>606.2</ele></trkpt>
<trkpt lat="47.647435" lon="12.967537"><ele>606.9</ele></trkpt>
<trkpt lat="47.646943" lon="12.968873"><ele>601.1</ele></trkpt>
<trkpt lat="47.647268" lon="12.969323"><ele>605.0</ele></trkpt>
<trkpt lat="47.647607" lon="12.970913"><ele>618.4</ele></trkpt>
<trkpt lat="47.647670" lon="12.971972"><ele>625.4</ele></trkpt>
<trkpt lat="47.647953" lon="12.973228"><ele>634.5</ele></trkpt>
<trkpt lat="47.647857" lon="12.973979"><ele>642.0</ele></trkpt>
<trkpt lat="47.647059" lon="12.975800"><ele>654.6</ele></trkpt>
<trkpt lat="47.646423" lon="12.976575"><ele>656.9</ele></trkpt>
<trkpt lat="47.646168" lon="12.977376"><ele>657.4</ele></trkpt>
<trkpt lat="47.645318" lon="12.979025"><ele>662.1</ele></trkpt>
<trkpt lat="47.645073" lon="12.979413"><ele>661.8</ele></trkpt>
<trkpt lat="47.643809" lon="12.980301"><ele>666.3</ele></trkpt>
<trkpt lat="47.643074" lon="12.981645"><ele>675.8</ele></trkpt>
<trkpt lat="47.641905" lon="12.981537"><ele>685.2</ele></trkpt>
<trkpt lat="47.641506" lon="12.982144"><ele>680.9</ele></trkpt>
<trkpt lat="47.641072" lon="12.982289"><ele>675.3</ele></trkpt>
<trkpt lat="47.640900" lon="12.983031"><ele>678.9</ele></trkpt>
<trkpt lat="47.641410" lon="12.983953"><ele>681.8</ele></trkpt>
<trkpt lat="47.641360" lon="12.984402"><ele>685.5</ele></trkpt>
<trkpt lat="47.640248" lon="12.985299"><ele>680.5</ele></trkpt>
<trkpt lat="47.639676" lon="12.985276"><ele>678.7</ele></trkpt>
<trkpt lat="47.639450" lon="12.985456"><ele>678.9</ele></trkpt>
<trkpt lat="47.639343" lon="12.987484"><ele>673.3</ele></trkpt>
<trkpt lat="47.638612" lon="12.989238"><ele>680.7</ele></trkpt>
<trkpt lat="47.638574" lon="12.991065"><ele>665.8</ele></trkpt>
<trkpt lat="47.638337" lon="12.992711"><ele>666.9</ele></trkpt>
<trkpt lat="47.637382" lon="12.994208"><ele>668.7</ele></trkpt>
<trkpt lat="47.637256" lon="12.994499"><ele>671.1</ele></trkpt>
<trkpt lat="47.636660" lon="12.996546"><ele>651.4</ele></trkpt>
<trkpt lat="47.636254" lon="12.998124"><ele>639.5</ele></trkpt>
<trkpt lat="47.635452" lon="12.999370"><ele>631.5</ele></trkpt>
<trkpt lat="47.634502" lon="12.999494"><ele>618.1</ele></trkpt>
<trkpt lat="47.633860" lon="12.999808"><ele>607.7</ele></trkpt>
<trkpt lat="47.633400" lon="13.000508"><ele>598.6</ele></trkpt>
<trkpt lat="47.633451" lon="13.002492"><ele>578.8</ele></trkpt>
<trkpt lat="47.633456" lon="13.002559"><ele>578.1</ele></trkpt>
<trkpt lat="47.634056" lon="13.003027"><ele>578.3</ele></trkpt>
<trkpt lat="47.633957" lon="13.003264"><ele>575.6</ele></trkpt>
<trkpt lat="47.633273" lon="13.002772"><ele>573.4</ele></trkpt>
<trkpt lat="47.633160" lon="13.002033"><ele>578.5</ele></trkpt>
<trkpt lat="47.632749" lon="13.002387"><ele>570.3</ele></trkpt>
<trkpt lat="47.632635" lon="13.003304"><ele>569.5</ele></trkpt>
<trkpt lat="47.632286" lon="13.003756"><ele>565.0</ele></trkpt>
<trkpt lat="47.630838" lon="13.003372"><ele>563.3</ele></trkpt>
<trkpt lat="47.629846" lon="13.003287"><ele>554.6</ele></trkpt>
<trkpt lat="47.628814" lon="13.002699"><ele>541.3</ele></trkpt>
<trkpt lat="47.628647" lon="13.002834"><ele>539.2</ele></trkpt>
<trkpt lat="47.628327" lon="13.002262"><ele>536.9</ele></trkpt>
<trkpt lat="47.627367" lon="13.001432"><ele>540.1</ele></trkpt>
<trkpt lat="47.627056" lon="13.000810"><ele>540.0</ele></trkpt>
<trkpt lat="47.626464" lon="13.000316"><ele>540.1</ele></trkpt>
<trkpt lat="47.626085" lon="12.999324"><ele>539.5</ele></trkpt>
<trkpt lat="47.625908" lon="12.999437"><ele>539.3</ele></trkpt>
<trkpt lat="47.626144" lon="12.999928"><ele>539.1</ele></trkpt>
<trkpt lat="47.625797" lon="13.000609"><ele>542.2</ele></trkpt>
<trkpt lat="47.625720" lon="13.001228"><ele>544.7</ele></trkpt>
<trkpt lat="47.627020" lon="13.001973"><ele>546.2</ele></trkpt>
<trkpt lat="47.627590" lon="13.002278"><ele>543.4</ele></trkpt>
<trkpt lat="47.628319" lon="13.004047"><ele>556.5</ele></trkpt>
<trkpt lat="47.628377" lon="13.004149"><ele>557.5</ele></trkpt>
<trkpt lat="47.629516" lon="13.005633"><ele>537.9</ele></trkpt>
<trkpt lat="47.630573" lon="13.007082"><ele>535.3</ele></trkpt>
<trkpt lat="47.630853" lon="13.007445"><ele>534.6</ele></trkpt>
<trkpt lat="47.631879" lon="13.008376"><ele>538.8</ele></trkpt>
<trkpt lat="47.633057" lon="13.008794"><ele>540.9</ele></trkpt>
<trkpt lat="47.634023" lon="13.009754"><ele>536.2</ele></trkpt>
<trkpt lat="47.634790" lon="13.009738"><ele>531.6</ele></trkpt>
<trkpt lat="47.635149" lon="13.010800"><ele>531.3</ele></trkpt>
<trkpt lat="47.635300" lon="13.010691"><ele>529.5</ele></trkpt>
<trkpt lat="47.635692" lon="13.012675"><ele>530.5</ele></trkpt>
<trkpt lat="47.636136" lon="13.014793"><ele>538.1</ele></trkpt>
<trkpt lat="47.636290" lon="13.015344"><ele>547.8</ele></trkpt>
<trkpt lat="47.637277" lon="13.016910"><ele>539.9</ele></trkpt>
<trkpt lat="47.637692" lon="13.017587"><ele>535.8</ele></trkpt>
<trkpt lat="47.638478" lon="13.018186"><ele>536.0</ele></trkpt>
<trkpt lat="47.639747" lon="13.017950"><ele>529.4</ele></trkpt>
<trkpt lat="47.640372" lon="13.017572"><ele>525.4</ele></trkpt>
<trkpt lat="47.641464" lon="13.017708"><ele>526.2</ele></trkpt>
<trkpt lat="47.641583" lon="13.018571"><ele>524.4</ele></trkpt>
<trkpt lat="47.641490" lon="13.020704"><ele>522.3</ele></trkpt>
<trkpt lat="47.641496" lon="13.020858"><ele>522.6</ele></trkpt>
<trkpt lat="47.641726" lon="13.022093"><ele>522.2</ele></trkpt>
<trkpt lat="47.642252" lon="13.023297"><ele>525.7</ele></trkpt>
<trkpt lat="47.643078" lon="13.023702"><ele>528.4</ele></trkpt>
<trkpt lat="47.643852" lon="13.024939"><ele>519.8</ele></trkpt>
<trkpt lat="47.644305" lon="13.026880"><ele>515.6</ele></trkpt>
<trkpt lat="47.644586" lon="13.028909"><ele>517.5</ele></trkpt>
<trkpt lat="47.644973" lon="13.030858"><ele>514.8</ele></trkpt>
<trkpt lat="47.645203" lon="13.031818"><ele>518.5</ele></trkpt>
<trkpt lat="47.645971" lon="13.033582"><ele>536.4</ele></trkpt>
<trkpt lat="47.645991" lon="13.033615"><ele>536.2</ele></trkpt>
<trkpt lat="47.646892" lon="13.034349"><ele>516.7</ele></trkpt>
<trkpt lat="47.648235" lon="13.034660"><ele>516.4</ele></trkpt>
<trkpt lat="47.649497" lon="13.034813"><ele>521.0</ele></trkpt>
<trkpt lat="47.650109" lon="13.035702"><ele>521.2</ele></trkpt>
<trkpt lat="47.651410" lon="13.036848"><ele>523.8</ele></trkpt>
<trkpt lat="47.652345" lon="13.037821"><ele>508.8</ele></trkpt>
<trkpt lat="47.653335" lon="13.039245"><ele>511.3</ele></trkpt>
<trkpt lat="47.653662" lon="13.039805"><ele>514.6</ele></trkpt>
<trkpt lat="47.654999" lon="13.038868"><ele>513.4</ele></trkpt>
<trkpt lat="47.655858" lon="13.038321"><ele>517.8</ele></trkpt>
<trkpt lat="47.655815" lon="13.038072"><ele>523.1</ele></trkpt>
<trkpt lat="47.657005" lon="13.037133"><ele>512.7</ele></trkpt>
<trkpt lat="47.658231" lon="13.035964"><ele>538.3</ele></trkpt>
<trkpt lat="47.658659" lon="13.035600"><ele>535.0</ele></trkpt>
<trkpt lat="47.659655" lon="13.035195"><ele>525.2</ele></trkpt>
<trkpt lat="47.661088" lon="13.035452"><ele>510.1</ele></trkpt>
<trkpt lat="47.661993" lon="13.035437"><ele>509.3</ele></trkpt>
<trkpt lat="47.662329" lon="13.035089"><ele>511.8</ele></trkpt>
<trkpt lat="47.663306" lon="13.034742"><ele>507.2</ele></trkpt>
<trkpt lat="47.663888" lon="13.034106"><ele>507.5</ele></trkpt>
<trkpt lat="47.664234" lon="13.033170"><ele>510.5</ele></trkpt>
<trkpt lat="47.665307" lon="13.031936"><ele>508.4</ele></trkpt>
<trkpt lat="47.665813" lon="13.031533"><ele>504.0</ele></trkpt>
<trkpt lat="47.666010" lon="13.032829"><ele>496.9</ele></trkpt>
<trkpt lat="47.666268" lon="13.033316"><ele>495.5</ele></trkpt>
<trkpt lat="47.666181" lon="13.034343"><ele>499.6</ele></trkpt>
<trkpt lat="47.666268" lon="13.033316"><ele>495.5</ele></trkpt>
<trkpt lat="47.666010" lon="13.032829"><ele>496.9</ele></trkpt>
<trkpt lat="47.665813" lon="13.031533"><ele>504.0</ele></trkpt>
<trkpt lat="47.667030" lon="13.030991"><ele>499.0</ele></trkpt>
<trkpt lat="47.667873" lon="13.030953"><ele>508.2</ele></trkpt>
<trkpt lat="47.668540" lon="13.031200"><ele>508.9</ele></trkpt>
<trkpt lat="47.669783" lon="13.032352"><ele>499.5</ele></trkpt>
<trkpt lat="47.670254" lon="13.032041"><ele>499.5</ele></trkpt>
<trkpt lat="47.670440" lon="13.031688"><ele>501.1</ele></trkpt>
<trkpt lat="47.670638" lon="13.032300"><ele>498.5</ele></trkpt>
<trkpt lat="47.670554" lon="13.033776"><ele>492.8</ele></trkpt>
<trkpt lat="47.670936" lon="13.034640"><ele>489.6</ele></trkpt>
<trkpt lat="47.672282" lon="13.035637"><ele>491.9</ele></trkpt>
<trkpt lat="47.672671" lon="13.035927"><ele>491.0</ele></trkpt>
<trkpt lat="47.673728" lon="13.036114"><ele>492.0</ele></trkpt>
<trkpt lat="47.675083" lon="13.036763"><ele>491.7</ele></trkpt>
<trkpt lat="47.675823" lon="13.037042"><ele>500.1</ele></trkpt>
<trkpt lat="47.677072" lon="13.038228"><ele>505.0</ele></trkpt>
<trkpt lat="47.677430" lon="13.038477"><ele>505.6</ele></trkpt>
<trkpt lat="47.678562" lon="13.039793"><ele>507.1</ele></trkpt>
<trkpt lat="47.678731" lon="13.039997"><ele>504.3</ele></trkpt>
<trkpt lat="47.679967" lon="13.040816"><ele>512.3</ele></trkpt>
<trkpt lat="47.680663" lon="13.041415"><ele>496.9</ele></trkpt>
<trkpt lat="47.681263" lon="13.042324"><ele>494.3</ele></trkpt>
<trkpt lat="47.681811" lon="13.042532"><ele>499.9</ele></trkpt>
<trkpt lat="47.682131" lon="13.043423"><ele>487.7</ele></trkpt>
<trkpt lat="47.682558" lon="13.043720"><ele>485.7</ele></trkpt>
<trkpt lat="47.683984" lon="13.043911"><ele>493.7</ele></trkpt>
<trkpt lat="47.684051" lon="13.043917"><ele>495.1</ele></trkpt>
<trkpt lat="47.685391" lon="13.043745"><ele>512.1</ele></trkpt>
<trkpt lat="47.686462" lon="13.044175"><ele>512.6</ele></trkpt>
<trkpt lat="47.687249" lon="13.043736"><ele>518.0</ele></trkpt>
<trkpt lat="47.688184" lon="13.043930"><ele>523.1</ele></trkpt>
<trkpt lat="47.688724" lon="13.043697"><ele>525.2</ele></trkpt>
<trkpt lat="47.690078" lon="13.043719"><ele>523.2</ele></trkpt>
<trkpt lat="47.690634" lon="13.043739"><ele>526.1</ele></trkpt>
<trkpt lat="47.691316" lon="13.043519"><ele>538.7</ele></trkpt>
<trkpt lat="47.692482" lon="13.043897"><ele>526.8</ele></trkpt>
<trkpt lat="47.693980" lon="13.043511"><ele>531.9</ele></trkpt>
<trkpt lat="47.694217" lon="13.043406"><ele>531.2</ele></trkpt>
<trkpt lat="47.695402" lon="13.042450"><ele>540.3</ele></trkpt>
<trkpt lat="47.695617" lon="13.042386"><ele>538.7</ele></trkpt>
<trkpt lat="47.695681" lon="13.042753"><ele>533.3</ele></trkpt>
<trkpt lat="47.695292" lon="13.043078"><ele>528.7</ele></trkpt>
<trkpt lat="47.695091" lon="13.043601"><ele>523.7</ele></trkpt>
<trkpt lat="47.695626" lon="13.044193"><ele>506.2</ele></trkpt>
<trkpt lat="47.696056" lon="13.044149"><ele>511.1</ele></trkpt>
<trkpt lat="47.696714" lon="13.044504"><ele>501.3</ele></trkpt>
<trkpt lat="47.697203" lon="13.044300"><ele>496.8</ele></trkpt>
<trkpt lat="47.696830" lon="13.044923"><ele>491.5</ele></trkpt>
<trkpt lat="47.697010" lon="13.045638"><ele>482.5</ele></trkpt>
<trkpt lat="47.697966" lon="13.044024"><ele>488.5</ele></trkpt>
<trkpt lat="47.698443" lon="13.043268"><ele>487.1</ele></trkpt>
<trkpt lat="47.699794" lon="13.043191"><ele>476.1</ele></trkpt>
<trkpt lat="47.700079" lon="13.043202"><ele>472.5</ele></trkpt>
<trkpt lat="47.700500" lon="13.042974"><ele>472.5</ele></trkpt>
<trkpt lat="47.701273" lon="13.041736"><ele>475.3</ele></trkpt>
<trkpt lat="47.701552" lon="13.040626"><ele>471.3</ele></trkpt>
<trkpt lat="47.701845" lon="13.040737"><ele>468.4</ele></trkpt>
<trkpt lat="47.702539" lon="13.040175"><ele>473.1</ele></trkpt>
<trkpt lat="47.703554" lon="13.040559"><ele>491.7</ele></trkpt>
<trkpt lat="47.704342" lon="13.040297"><ele>500.9</ele></trkpt>
<trkpt lat="47.704897" lon="13.040456"><ele>498.8</ele></trkpt>
<trkpt lat="47.705091" lon="13.040951"><ele>512.9</ele></trkpt>
<trkpt lat="47.705623" lon="13.041108"><ele>518.7</ele></trkpt>
<trkpt lat="47.705993" lon="13.041532"><ele>529.6</ele></trkpt>
<trkpt lat="47.706626" lon="13.041704"><ele>531.8</ele></trkpt>
<trkpt lat="47.707065" lon="13.042340"><ele>546.9</ele></trkpt>
<trkpt lat="47.707635" lon="13.041585"><ele>541.5</ele></trkpt>
<trkpt lat="47.708022" lon="13.041362"><ele>538.6</ele></trkpt>
<trkpt lat="47.709212" lon="13.042186"><ele>529.5</ele></trkpt>
<trkpt lat="47.710606" lon="13.042692"><ele>526.3</ele></trkpt>
<trkpt lat="47.711862" lon="13.043613"><ele>509.1</ele></trkpt>
<trkpt lat="47.712539" lon="13.043765"><ele>498.1</ele></trkpt>
<trkpt lat="47.712499" lon="13.043261"><ele>490.0</ele></trkpt>
<trkpt lat="47.712935" lon="13.043166"><ele>472.1</ele></trkpt>
<trkpt lat="47.713187" lon="13.043711"><ele>463.9</ele></trkpt>
<trkpt lat="47.713191" lon="13.044397"><ele>473.9</ele></trkpt>
<trkpt lat="47.713528" lon="13.045400"><ele>479.9</ele></trkpt>
<trkpt lat="47.714208" lon="13.045870"><ele>473.9</ele></trkpt>
<trkpt lat="47.714763" lon="13.045914"><ele>467.0</ele></trkpt>
<trkpt lat="47.714560" lon="13.045645"><ele>462.0</ele></trkpt>
<trkpt lat="47.714925" lon="13.044229"><ele>460.5</ele></trkpt>
<trkpt lat="47.715297" lon="13.044374"><ele>463.6</ele></trkpt>
<trkpt lat="47.715383" lon="13.044056"><ele>468.4</ele></trkpt>
<trkpt lat="47.715997" lon="13.044303"><ele>465.0</ele></trkpt>
<trkpt lat="47.716662" lon="13.044269"><ele>468.2</ele></trkpt>
<trkpt lat="47.716922" lon="13.043706"><ele>475.7</ele></trkpt>
<trkpt lat="47.718219" lon="13.042790"><ele>477.5</ele></trkpt>
<trkpt lat="47.719434" lon="13.041646"><ele>477.6</ele></trkpt>
<trkpt lat="47.720211" lon="13.041076"><ele>473.5</ele></trkpt>
<trkpt lat="47.721143" lon="13.041065"><ele>462.6</ele></trkpt>
<trkpt lat="47.721899" lon="13.040677"><ele>463.7</ele></trkpt>
<trkpt lat="47.722889" lon="13.040713"><ele>461.5</ele></trkpt>
<trkpt lat="47.722900" lon="13.041629"><ele>454.3</ele></trkpt>
<trkpt lat="47.724214" lon="13.042169"><ele>449.2</ele></trkpt>
<trkpt lat="47.724721" lon="13.042440"><ele>451.8</ele></trkpt>
<trkpt lat="47.725113" lon="13.042704"><ele>451.5</ele></trkpt>
<trkpt lat="47.725103" lon="13.042989"><ele>451.6</ele></trkpt>
<trkpt lat="47.726336" lon="13.043794"><ele>451.6</ele></trkpt>
<trkpt lat="47.726503" lon="13.043926"><ele>451.3</ele></trkpt>
<trkpt lat="47.726493" lon="13.044612"><ele>450.9</ele></trkpt>
<trkpt lat="47.726065" lon="13.044625"><ele>450.7</ele></trkpt>
<trkpt lat="47.726489" lon="13.044776"><ele>451.4</ele></trkpt>
<trkpt lat="47.726469" lon="13.045402"><ele>454.1</ele></trkpt>
<trkpt lat="47.726633" lon="13.045595"><ele>453.0</ele></trkpt>
<trkpt lat="47.727420" lon="13.044494"><ele>459.3</ele></trkpt>
<trkpt lat="47.728706" lon="13.044523"><ele>457.3</ele></trkpt>
<trkpt lat="47.728725" lon="13.044521"><ele>457.2</ele></trkpt>
<trkpt lat="47.730120" lon="13.043809"><ele>453.6</ele></trkpt>
<trkpt lat="47.731277" lon="13.042763"><ele>451.6</ele></trkpt>
<trkpt lat="47.732527" lon="13.041862"><ele>449.6</ele></trkpt>
<trkpt lat="47.733309" lon="13.041268"><ele>450.6</ele></trkpt>
<trkpt lat="47.734454" lon="13.039875"><ele>445.0</ele></trkpt>
<trkpt lat="47.735044" lon="13.039224"><ele>448.0</ele></trkpt>
<trkpt lat="47.735063" lon="13.037940"><ele>446.8</ele></trkpt>
<trkpt lat="47.736436" lon="13.037645"><ele>450.5</ele></trkpt>
<trkpt lat="47.736745" lon="13.037643"><ele>448.1</ele></trkpt>
<trkpt lat="47.737459" lon="13.037166"><ele>451.2</ele></trkpt>
<trkpt lat="47.738831" lon="13.036985"><ele>446.9</ele></trkpt>
<trkpt lat="47.739367" lon="13.037102"><ele>447.4</ele></trkpt>
<trkpt lat="47.739251" lon="13.036562"><ele>446.4</ele></trkpt>
<trkpt lat="47.739619" lon="13.036243"><ele>446.0</ele></trkpt>
<trkpt lat="47.738946" lon="13.035163"><ele>446.8</ele></trkpt>
<trkpt lat="47.739428" lon="13.034304"><ele>449.5</ele></trkpt>
<trkpt lat="47.739067" lon="13.033051"><ele>447.8</ele></trkpt>
<trkpt lat="47.739256" lon="13.032163"><ele>456.0</ele></trkpt>
<trkpt lat="47.740545" lon="13.031350"><ele>452.4</ele></trkpt>
<trkpt lat="47.741906" lon="13.030511"><ele>450.5</ele></trkpt>
<trkpt lat="47.742478" lon="13.030167"><ele>449.3</ele></trkpt>
<trkpt lat="47.743644" lon="13.030116"><ele>444.8</ele></trkpt>
<trkpt lat="47.744200" lon="13.028233"><ele>447.3</ele></trkpt>
<trkpt lat="47.744852" lon="13.026477"><ele>454.5</ele></trkpt>
<trkpt lat="47.745521" lon="13.024586"><ele>451.4</ele></trkpt>
<trkpt lat="47.746200" lon="13.022660"><ele>448.2</ele></trkpt>
<trkpt lat="47.746665" lon="13.021374"><ele>449.1</ele></trkpt>
<trkpt lat="47.747447" lon="13.019614"><ele>446.0</ele></trkpt>
<trkpt lat="47.747711" lon="13.019057"><ele>438.8</ele></trkpt>
<trkpt lat="47.748067" lon="13.017824"><ele>441.6</ele></trkpt>
<trkpt lat="47.748958" lon="13.016605"><ele>444.5</ele></trkpt>
<trkpt lat="47.749336" lon="13.015324"><ele>441.2</ele></trkpt>
<trkpt lat="47.749599" lon="13.013276"><ele>443.4</ele></trkpt>
<trkpt lat="47.749607" lon="13.013140"><ele>443.4</ele></trkpt>
<trkpt lat="47.749275" lon="13.012797"><ele>448.9</ele></trkpt>
<trkpt lat="47.747946" lon="13.012685"><ele>459.8</ele></trkpt>
<trkpt lat="47.747560" lon="13.012308"><ele>457.4</ele></trkpt>
<trkpt lat="47.747360" lon="13.011816"><ele>453.3</ele></trkpt>
<trkpt lat="47.747255" lon="13.009818"><ele>448.5</ele></trkpt>
<trkpt lat="47.747168" lon="13.007812"><ele>447.0</ele></trkpt>
<trkpt lat="47.747133" lon="13.005710"><ele>446.0</ele></trkpt>
<trkpt lat="47.747136" lon="13.005586"><ele>446.0</ele></trkpt>
<trkpt lat="47.747488" lon="13.003523"><ele>444.9</ele></trkpt>
<trkpt lat="47.747642" lon="13.002834"><ele>452.4</ele></trkpt>
<trkpt lat="47.747341" lon="13.002462"><ele>452.8</ele></trkpt>
<trkpt lat="47.747467" lon="13.002350"><ele>452.7</ele></trkpt>
<trkpt lat="47.747191" lon="13.001297"><ele>458.1</ele></trkpt>
<trkpt lat="47.746282" lon="12.999735"><ele>462.2</ele></trkpt>
<trkpt lat="47.745315" lon="12.998118"><ele>456.0</ele></trkpt>
<trkpt lat="47.745107" lon="12.997650"><ele>457.8</ele></trkpt>
<trkpt lat="47.744085" lon="12.996326"><ele>459.4</ele></trkpt>
<trkpt lat="47.743557" lon="12.995140"><ele>465.1</ele></trkpt>
<trkpt lat="47.743667" lon="12.994073"><ele>462.1</ele></trkpt>
<trkpt lat="47.743164" lon="12.993906"><ele>471.2</ele></trkpt>
<trkpt lat="47.742673" lon="12.993285"><ele>468.1</ele></trkpt>
<trkpt lat="47.742470" lon="12.992626"><ele>462.5</ele></trkpt>
<trkpt lat="47.742061" lon="12.992594"><ele>463.0</ele></trkpt>
<trkpt lat="47.742003" lon="12.992246"><ele>463.3</ele></trkpt>
<trkpt lat="47.743029" lon="12.991661"><ele>459.1</ele></trkpt>
<trkpt lat="47.744464" lon="12.992112"><ele>452.9</ele></trkpt>
<trkpt lat="47.745807" lon="12.992670"><ele>450.1</ele></trkpt>
<trkpt lat="47.746200" lon="12.992831"><ele>449.9</ele></trkpt>
<trkpt lat="47.746895" lon="12.992957"><ele>449.9</ele></trkpt>
<trkpt lat="47.747123" lon="12.992647"><ele>452.3</ele></trkpt>
<trkpt lat="47.747890" lon="12.992745"><ele>445.3</ele></trkpt>
<trkpt lat="47.748439" lon="12.993133"><ele>444.1</ele></trkpt>
<trkpt lat="47.748646" lon="12.994091"><ele>445.6</ele></trkpt>
<trkpt lat="47.749950" lon="12.994585"><ele>443.5</ele></trkpt>
<trkpt lat="47.750236" lon="12.994630"><ele>443.1</ele></trkpt>
<trkpt lat="47.751159" lon="12.993294"><ele>441.1</ele></trkpt>
<trkpt lat="47.751629" lon="12.991861"><ele>460.0</ele></trkpt>
<trkpt lat="47.752223" lon="12.991067"><ele>471.0</ele></trkpt>
<trkpt lat="47.753356" lon="12.989925"><ele>474.7</ele></trkpt>
<trkpt lat="47.754594" lon="12.988660"><ele>465.9</ele></trkpt>
<trkpt lat="47.755880" lon="12.987616"><ele>460.2</ele></trkpt>
<trkpt lat="47.757054" lon="12.986330"><ele>450.8</ele></trkpt>
<trkpt lat="47.757100" lon="12.986289"><ele>450.9</ele></trkpt>
<trkpt lat="47.758516" lon="12.985495"><ele>447.0</ele></trkpt>
<trkpt lat="47.759082" lon="12.985155"><ele>443.2</ele></trkpt>
<trkpt lat="47.759427" lon="12.984441"><ele>444.3</ele></trkpt>
<trkpt lat="47.759805" lon="12.982750"><ele>441.0</ele></trkpt>
<trkpt lat="47.760109" lon="12.982199"><ele>440.9</ele></trkpt>
<trkpt lat="47.760647" lon="12.980188"><ele>438.2</ele></trkpt>
<trkpt lat="47.761260" lon="12.978377"><ele>439.8</ele></trkpt>
<trkpt lat="47.761285" lon="12.978304"><ele>440.0</ele></trkpt>
<trkpt lat="47.761535" lon="12.977771"><ele>440.0</ele></trkpt>
<trkpt lat="47.762024" lon="12.977421"><ele>438.7</ele></trkpt>
<trkpt lat="47.762940" lon="12.975809"><ele>439.3</ele></trkpt>
<trkpt lat="47.763929" lon="12.974435"><ele>438.9</ele></trkpt>
<trkpt lat="47.764108" lon="12.974001"><ele>438.8</ele></trkpt>
<trkpt lat="47.764659" lon="12.972009"><ele>436.9</ele></trkpt>
<trkpt lat="47.765063" lon="12.970258"><ele>436.8</ele></trkpt>
<trkpt lat="47.764884" lon="12.968884"><ele>438.6</ele></trkpt>
<trkpt lat="47.764525" lon="12.967713"><ele>435.2</ele></trkpt>
<trkpt lat="47.765821" lon="12.966758"><ele>435.0</ele></trkpt>
<trkpt lat="47.766359" lon="12.966323"><ele>436.0</ele></trkpt>
<trkpt lat="47.766504" lon="12.965809"><ele>436.8</ele></trkpt>
<trkpt lat="47.767307" lon="12.964873"><ele>438.0</ele></trkpt>
<trkpt lat="47.767466" lon="12.964149"><ele>438.8</ele></trkpt>
<trkpt lat="47.767302" lon="12.962950"><ele>441.6</ele></trkpt>
<trkpt lat="47.767804" lon="12.961000"><ele>443.1</ele></trkpt>
<trkpt lat="47.768005" lon="12.960277"><ele>437.0</ele></trkpt>
<trkpt lat="47.768535" lon="12.958843"><ele>436.8</ele></trkpt>
<trkpt lat="47.768277" lon="12.957779"><ele>436.2</ele></trkpt>
<trkpt lat="47.767418" lon="12.956298"><ele>444.0</ele></trkpt>
<trkpt lat="47.768004" lon="12.954510"><ele>450.9</ele></trkpt>
<trkpt lat="47.766819" lon="12.953256"><ele>473.6</ele></trkpt>
<trkpt lat="47.765695" lon="12.951957"><ele>486.6</ele></trkpt>
<trkpt lat="47.765403" lon="12.951633"><ele>491.0</ele></trkpt>
<trkpt lat="47.764258" lon="12.950244"><ele>480.9</ele></trkpt>
<trkpt lat="47.763188" lon="12.948721"><ele>489.1</ele></trkpt>
<trkpt lat="47.762517" lon="12.947905"><ele>477.8</ele></trkpt>
<trkpt lat="47.761347" lon="12.946939"><ele>476.1</ele></trkpt>
<trkpt lat="47.760061" lon="12.945789"><ele>477.9</ele></trkpt>
<trkpt lat="47.759127" lon="12.945347"><ele>480.9</ele></trkpt>
<trkpt lat="47.757734" lon="12.945176"><ele>486.6</ele></trkpt>
<trkpt lat="47.756265" lon="12.944877"><ele>480.0</ele></trkpt>
<trkpt lat="47.754779" lon="12.944589"><ele>480.5</ele></trkpt>
<trkpt lat="47.753869" lon="12.944420"><ele>490.2</ele></trkpt>
<trkpt lat="47.752505" lon="12.944300"><ele>482.4</ele></trkpt>
<trkpt lat="47.751471" lon="12.944369"><ele>483.0</ele></trkpt>
<trkpt lat="47.750577" lon="12.943973"><ele>486.5</ele></trkpt>
<trkpt lat="47.749514" lon="12.942745"><ele>485.3</ele></trkpt>
<trkpt lat="47.749413" lon="12.942561"><ele>485.8</ele></trkpt>
<trkpt lat="47.749116" lon="12.941807"><ele>485.8</ele></trkpt>
<trkpt lat="47.748706" lon="12.939737"><ele>490.3</ele></trkpt>
<trkpt lat="47.748415" lon="12.938724"><ele>493.3</ele></trkpt>
<trkpt lat="47.747560" lon="12.937036"><ele>494.2</ele></trkpt>
<trkpt lat="47.746955" lon="12.936038"><ele>491.4</ele></trkpt>
<trkpt lat="47.746279" lon="12.934060"><ele>491.0</ele></trkpt>
<trkpt lat="47.745997" lon="12.933445"><ele>491.8</ele></trkpt>
<trkpt lat="47.745108" lon="12.932049"><ele>499.5</ele></trkpt>
<trkpt lat="47.744226" lon="12.931150"><ele>506.8</ele></trkpt>
<trkpt lat="47.743619" lon="12.930804"><ele>509.4</ele></trkpt>
<trkpt lat="47.742276" lon="12.930587"><ele>519.2</ele></trkpt>
<trkpt lat="47.741783" lon="12.930535"><ele>521.5</ele></trkpt>
<trkpt lat="47.740874" lon="12.930055"><ele>530.9</ele></trkpt>
<trkpt lat="47.740162" lon="12.929012"><ele>535.8</ele></trkpt>
<trkpt lat="47.739550" lon="12.927018"><ele>536.7</ele></trkpt>
<trkpt lat="47.739400" lon="12.926687"><ele>537.8</ele></trkpt>
<trkpt lat="47.738462" lon="12.925320"><ele>538.4</ele></trkpt>
<trkpt lat="47.737958" lon="12.924249"><ele>538.7</ele></trkpt>
<trkpt lat="47.736607" lon="12.924005"><ele>542.7</ele></trkpt>
<trkpt lat="47.736062" lon="12.923835"><ele>550.9</ele></trkpt>
<trkpt lat="47.735891" lon="12.923196"><ele>546.3</ele></trkpt>
<trkpt lat="47.735688" lon="12.923016"><ele>545.1</ele></trkpt>
<trkpt lat="47.734284" lon="12.922359"><ele>562.6</ele></trkpt>
<trkpt lat="47.732990" lon="12.921817"><ele>575.1</ele></trkpt>
<trkpt lat="47.732756" lon="12.921788"><ele>571.7</ele></trkpt>
<trkpt lat="47.731994" lon="12.920758"><ele>563.4</ele></trkpt>
<trkpt lat="47.731616" lon="12.919500"><ele>553.1</ele></trkpt>
<trkpt lat="47.730230" lon="12.919169"><ele>545.8</ele></trkpt>
<trkpt lat="47.730013" lon="12.919124"><ele>545.0</ele></trkpt>
<trkpt lat="47.730129" lon="12.918141"><ele>547.3</ele></trkpt>
<trkpt lat="47.729815" lon="12.917865"><ele>546.2</ele></trkpt>
<trkpt lat="47.729908" lon="12.917122"><ele>550.7</ele></trkpt>
<trkpt lat="47.729441" lon="12.916610"><ele>547.4</ele></trkpt>
<trkpt lat="47.728115" lon="12.916082"><ele>533.6</ele></trkpt>
<trkpt lat="47.728115" lon="12.916082"><ele>533.6</ele></trkpt>
<trkpt lat="47.728029" lon="12.915656"><ele>535.1</ele></trkpt>
<trkpt lat="47.726973" lon="12.914500"><ele>530.5</ele></trkpt>
<trkpt lat="47.726831" lon="12.914290"><ele>530.9</ele></trkpt>
<trkpt lat="47.726342" lon="12.913132"><ele>533.8</ele></trkpt>
<trkpt lat="47.726927" lon="12.912532"><ele>532.0</ele></trkpt>
<trkpt lat="47.726592" lon="12.910496"><ele>525.6</ele></trkpt>
<trkpt lat="47.726250" lon="12.909189"><ele>528.0</ele></trkpt>
<trkpt lat="47.726264" lon="12.908442"><ele>526.9</ele></trkpt>
<trkpt lat="47.725999" lon="12.907854"><ele>523.9</ele></trkpt>
<trkpt lat="47.725708" lon="12.907874"><ele>523.8</ele></trkpt>
<trkpt lat="47.725460" lon="12.907184"><ele>522.3</ele></trkpt>
<trkpt lat="47.725175" lon="12.907376"><ele>524.3</ele></trkpt>
<trkpt lat="47.725077" lon="12.906975"><ele>523.8</ele></trkpt>
<trkpt lat="47.724741" lon="12.907242"><ele>525.0</ele></trkpt>
<trkpt lat="47.724342" lon="12.905774"><ele>523.6</ele></trkpt>
<trkpt lat="47.724433" lon="12.904563"><ele>517.1</ele></trkpt>
<trkpt lat="47.724666" lon="12.904631"><ele>517.0</ele></trkpt>
<trkpt lat="47.726119" lon="12.904016"><ele>514.4</ele></trkpt>
<trkpt lat="47.726775" lon="12.903780"><ele>509.4</ele></trkpt>
<trkpt lat="47.726141" lon="12.902601"><ele>511.2</ele></trkpt>
<trkpt lat="47.725862" lon="12.901486"><ele>511.1</ele></trkpt>
<trkpt lat="47.724820" lon="12.899949"><ele>516.4</ele></trkpt>
<trkpt lat="47.724419" lon="12.899550"><ele>521.2</ele></trkpt>
<trkpt lat="47.723911" lon="12.897993"><ele>523.2</ele></trkpt>
<trkpt lat="47.724685" lon="12.897112"><ele>517.4</ele></trkpt>
<trkpt lat="47.725398" lon="12.896626"><ele>519.1</ele></trkpt>
<trkpt lat="47.726114" lon="12.894716"><ele>536.1</ele></trkpt>
<trkpt lat="47.726325" lon="12.894205"><ele>541.4</ele></trkpt>
<trkpt lat="47.725532" lon="12.892881"><ele>541.5</ele></trkpt>
<trkpt lat="47.726391" lon="12.891737"><ele>547.0</ele></trkpt>
<trkpt lat="47.725817" lon="12.890600"><ele>544.3</ele></trkpt>
<trkpt lat="47.725144" lon="12.888643"><ele>527.1</ele></trkpt>
<trkpt lat="47.724650" lon="12.887249"><ele>526.4</ele></trkpt>
<trkpt lat="47.724608" lon="12.886653"><ele>520.2</ele></trkpt>
<trkpt lat="47.725168" lon="12.886404"><ele>509.7</ele></trkpt>
<trkpt lat="47.724548" lon="12.884546"><ele>502.4</ele></trkpt>
<trkpt lat="47.724422" lon="12.883860"><ele>497.9</ele></trkpt>
<trkpt lat="47.725074" lon="12.884127"><ele>491.4</ele></trkpt>
<trkpt lat="47.725215" lon="12.883801"><ele>488.2</ele></trkpt>
<trkpt lat="47.725988" lon="12.883816"><ele>480.3</ele></trkpt>
<trkpt lat="47.726551" lon="12.884389"><ele>479.4</ele></trkpt>
<trkpt lat="47.726900" lon="12.883842"><ele>474.7</ele></trkpt>
</trkseg></trk></gpx>