<?xml version="1.0" encoding="UTF-8"?>
<gpx version="1.1" creator="Bad Reichenhall gravel – saját gravel-router (OSM/Overture + SRTM)" xmlns="http://www.topografix.com/GPX/1/1">
<metadata><name>Untersberg mentén – dombos változat (Plainburg)</name><desc>GENERÁLT NYOMVONAL – Az Untersberg-lábi kör dombosabb változata: Großgmain fölött a Plainburg várromjához kapaszkodsz fel (kilátás a Salzburgi-medencére és az Untersberg falára), majd a Glanegg-kastélyon és Hellbrunnon át a megszokott úton, a Leopoldskroner Moos lápréti útjain és Walson át érsz haza.</desc><copyright author="OpenStreetMap contributors (via Overture Maps)"><license>https://opendatacommons.org/licenses/odbl/</license></copyright><time>2026-10-04T17:58:43Z</time></metadata>
<wpt lat="47.7296" lon="12.918"><name>Großgmain</name><type>town</type></wpt>
<wpt lat="47.7252" lon="12.9228"><name>Plainburg – várrom</name><type>history</type></wpt>
<wpt lat="47.7496" lon="13.0083"><name>Schloss Glanegg</name><type>history</type></wpt>
<wpt lat="47.7633" lon="13.0644"><name>Schloss Hellbrunn</name><type>history</type></wpt>
<wpt lat="47.7858" lon="13.0387"><name>Leopoldskroner Weiher</name><type>lake</type></wpt>
<wpt lat="47.7811" lon="12.9842"><name>Viehhausen</name><type>town</type></wpt>
<trk><name>Untersberg mentén – dombos változat (Plainburg)</name><type>gravel</type><trkseg>
<trkpt lat="47.726900" lon="12.883842"><ele>474.7</ele></trkpt>
<trkpt lat="47.726551" lon="12.884389"><ele>479.4</ele></trkpt>
<trkpt lat="47.726118" lon="12.883872"><ele>478.7</ele></trkpt>
<trkpt lat="47.725849" lon="12.883854"><ele>483.2</ele></trkpt>
<trkpt lat="47.725770" lon="12.884096"><ele>486.8</ele></trkpt>
<trkpt lat="47.726011" lon="12.885221"><ele>494.8</ele></trkpt>
<trkpt lat="47.725966" lon="12.885604"><ele>497.4</ele></trkpt>
<trkpt lat="47.725168" lon="12.886404"><ele>509.7</ele></trkpt>
<trkpt lat="47.723889" lon="12.886863"><ele>525.7</ele></trkpt>
<trkpt lat="47.723461" lon="12.887252"><ele>529.1</ele></trkpt>
<trkpt lat="47.723140" lon="12.888319"><ele>529.3</ele></trkpt>
<trkpt lat="47.723289" lon="12.889793"><ele>525.9</ele></trkpt>
<trkpt lat="47.723285" lon="12.891845"><ele>515.9</ele></trkpt>
<trkpt lat="47.723243" lon="12.893164"><ele>517.6</ele></trkpt>
<trkpt lat="47.723505" lon="12.895314"><ele>518.4</ele></trkpt>
<trkpt lat="47.723769" lon="12.897299"><ele>522.0</ele></trkpt>
<trkpt lat="47.723974" lon="12.898381"><ele>523.6</ele></trkpt>
<trkpt lat="47.724090" lon="12.900439"><ele>522.2</ele></trkpt>
<trkpt lat="47.724092" lon="12.900508"><ele>522.0</ele></trkpt>
<trkpt lat="47.723649" lon="12.900650"><ele>524.0</ele></trkpt>
<trkpt lat="47.723162" lon="12.901153"><ele>526.1</ele></trkpt>
<trkpt lat="47.723838" lon="12.902642"><ele>521.9</ele></trkpt>
<trkpt lat="47.724433" lon="12.904563"><ele>517.1</ele></trkpt>
<trkpt lat="47.724342" lon="12.905596"><ele>522.3</ele></trkpt>
<trkpt lat="47.723828" lon="12.905927"><ele>522.0</ele></trkpt>
<trkpt lat="47.722889" lon="12.907578"><ele>526.9</ele></trkpt>
<trkpt lat="47.722884" lon="12.907592"><ele>526.9</ele></trkpt>
<trkpt lat="47.723239" lon="12.908328"><ele>529.3</ele></trkpt>
<trkpt lat="47.723335" lon="12.908974"><ele>531.0</ele></trkpt>
<trkpt lat="47.723036" lon="12.910674"><ele>535.4</ele></trkpt>
<trkpt lat="47.722876" lon="12.910944"><ele>535.6</ele></trkpt>
<trkpt lat="47.723017" lon="12.911076"><ele>536.0</ele></trkpt>
<trkpt lat="47.723066" lon="12.912608"><ele>538.4</ele></trkpt>
<trkpt lat="47.722573" lon="12.914698"><ele>543.2</ele></trkpt>
<trkpt lat="47.722413" lon="12.915250"><ele>545.2</ele></trkpt>
<trkpt lat="47.723751" lon="12.916128"><ele>544.5</ele></trkpt>
<trkpt lat="47.723681" lon="12.916470"><ele>544.8</ele></trkpt>
<trkpt lat="47.724678" lon="12.917792"><ele>549.8</ele></trkpt>
<trkpt lat="47.724977" lon="12.917403"><ele>545.9</ele></trkpt>
<trkpt lat="47.726423" lon="12.917047"><ele>541.7</ele></trkpt>
<trkpt lat="47.726741" lon="12.916949"><ele>542.5</ele></trkpt>
<trkpt lat="47.727080" lon="12.915038"><ele>531.4</ele></trkpt>
<trkpt lat="47.727101" lon="12.914688"><ele>531.3</ele></trkpt>
<trkpt lat="47.728056" lon="12.916089"><ele>533.1</ele></trkpt>
<trkpt lat="47.728456" lon="12.918221"><ele>532.8</ele></trkpt>
<trkpt lat="47.728735" lon="12.919531"><ele>535.1</ele></trkpt>
<trkpt lat="47.729338" lon="12.921442"><ele>542.3</ele></trkpt>
<trkpt lat="47.729354" lon="12.921488"><ele>542.5</ele></trkpt>
<trkpt lat="47.729771" lon="12.922329"><ele>543.8</ele></trkpt>
<trkpt lat="47.730550" lon="12.923274"><ele>546.0</ele></trkpt>
<trkpt lat="47.731356" lon="12.923827"><ele>552.7</ele></trkpt>
<trkpt lat="47.732352" lon="12.924103"><ele>563.0</ele></trkpt>
<trkpt lat="47.733830" lon="12.923793"><ele>565.4</ele></trkpt>
<trkpt lat="47.735220" lon="12.923324"><ele>552.6</ele></trkpt>
<trkpt lat="47.735464" lon="12.923271"><ele>547.9</ele></trkpt>
<trkpt lat="47.736908" lon="12.923499"><ele>539.6</ele></trkpt>
<trkpt lat="47.737346" lon="12.923647"><ele>538.4</ele></trkpt>
<trkpt lat="47.737891" lon="12.924143"><ele>539.0</ele></trkpt>
<trkpt lat="47.738462" lon="12.925320"><ele>538.4</ele></trkpt>
<trkpt lat="47.739400" lon="12.926687"><ele>537.8</ele></trkpt>
<trkpt lat="47.740038" lon="12.928691"><ele>536.7</ele></trkpt>
<trkpt lat="47.740056" lon="12.928749"><ele>536.5</ele></trkpt>
<trkpt lat="47.740667" lon="12.929847"><ele>532.4</ele></trkpt>
<trkpt lat="47.741783" lon="12.930535"><ele>521.5</ele></trkpt>
<trkpt lat="47.743210" lon="12.930710"><ele>510.7</ele></trkpt>
<trkpt lat="47.743619" lon="12.930804"><ele>509.4</ele></trkpt>
<trkpt lat="47.744226" lon="12.931150"><ele>506.8</ele></trkpt>
<trkpt lat="47.745108" lon="12.932049"><ele>499.5</ele></trkpt>
<trkpt lat="47.745997" lon="12.933445"><ele>491.8</ele></trkpt>
<trkpt lat="47.746705" lon="12.935213"><ele>489.9</ele></trkpt>
<trkpt lat="47.746955" lon="12.936038"><ele>491.4</ele></trkpt>
<trkpt lat="47.747914" lon="12.937640"><ele>495.5</ele></trkpt>
<trkpt lat="47.748259" lon="12.938355"><ele>495.6</ele></trkpt>
<trkpt lat="47.748636" lon="12.939445"><ele>489.7</ele></trkpt>
<trkpt lat="47.749023" lon="12.941433"><ele>486.0</ele></trkpt>
<trkpt lat="47.749212" lon="12.942108"><ele>485.8</ele></trkpt>
<trkpt lat="47.750087" lon="12.943507"><ele>488.7</ele></trkpt>
<trkpt lat="47.750659" lon="12.944045"><ele>485.3</ele></trkpt>
<trkpt lat="47.751471" lon="12.944369"><ele>483.0</ele></trkpt>
<trkpt lat="47.752865" lon="12.944325"><ele>482.8</ele></trkpt>
<trkpt lat="47.753869" lon="12.944420"><ele>490.2</ele></trkpt>
<trkpt lat="47.755220" lon="12.944675"><ele>480.7</ele></trkpt>
<trkpt lat="47.756563" lon="12.944934"><ele>480.2</ele></trkpt>
<trkpt lat="47.757911" lon="12.945193"><ele>486.2</ele></trkpt>
<trkpt lat="47.759127" lon="12.945347"><ele>480.9</ele></trkpt>
<trkpt lat="47.760061" lon="12.945789"><ele>477.9</ele></trkpt>
<trkpt lat="47.761338" lon="12.946931"><ele>476.1</ele></trkpt>
<trkpt lat="47.762517" lon="12.947905"><ele>477.8</ele></trkpt>
<trkpt lat="47.763567" lon="12.949247"><ele>485.2</ele></trkpt>
<trkpt lat="47.764639" lon="12.950711"><ele>482.1</ele></trkpt>
<trkpt lat="47.765403" lon="12.951633"><ele>491.0</ele></trkpt>
<trkpt lat="47.766548" lon="12.952938"><ele>477.2</ele></trkpt>
<trkpt lat="47.767636" lon="12.954171"><ele>459.6</ele></trkpt>
<trkpt lat="47.768004" lon="12.954510"><ele>450.9</ele></trkpt>
<trkpt lat="47.767418" lon="12.956298"><ele>444.0</ele></trkpt>
<trkpt lat="47.768277" lon="12.957779"><ele>436.2</ele></trkpt>
<trkpt lat="47.768535" lon="12.958843"><ele>436.8</ele></trkpt>
<trkpt lat="47.768005" lon="12.960277"><ele>437.0</ele></trkpt>
<trkpt lat="47.767467" lon="12.962238"><ele>443.1</ele></trkpt>
<trkpt lat="47.767302" lon="12.962950"><ele>441.6</ele></trkpt>
<trkpt lat="47.767455" lon="12.963908"><ele>437.9</ele></trkpt>
<trkpt lat="47.767399" lon="12.964628"><ele>438.3</ele></trkpt>
<trkpt lat="47.766504" lon="12.965809"><ele>436.8</ele></trkpt>
<trkpt lat="47.766359" lon="12.966323"><ele>436.0</ele></trkpt>
<trkpt lat="47.765016" lon="12.967353"><ele>436.0</ele></trkpt>
<trkpt lat="47.764525" lon="12.967713"><ele>435.2</ele></trkpt>
<trkpt lat="47.764884" lon="12.968884"><ele>438.6</ele></trkpt>
<trkpt lat="47.765063" lon="12.970258"><ele>436.8</ele></trkpt>
<trkpt lat="47.764592" lon="12.972257"><ele>436.6</ele></trkpt>
<trkpt lat="47.764066" lon="12.974115"><ele>438.5</ele></trkpt>
<trkpt lat="47.764010" lon="12.974261"><ele>438.6</ele></trkpt>
<trkpt lat="47.762985" lon="12.975737"><ele>439.9</ele></trkpt>
<trkpt lat="47.762099" lon="12.977306"><ele>438.3</ele></trkpt>
<trkpt lat="47.762024" lon="12.977421"><ele>438.7</ele></trkpt>
<trkpt lat="47.761535" lon="12.977771"><ele>440.0</ele></trkpt>
<trkpt lat="47.761285" lon="12.978304"><ele>440.0</ele></trkpt>
<trkpt lat="47.760633" lon="12.980234"><ele>438.2</ele></trkpt>
<trkpt lat="47.760109" lon="12.982199"><ele>440.9</ele></trkpt>
<trkpt lat="47.759805" lon="12.982750"><ele>441.0</ele></trkpt>
<trkpt lat="47.759355" lon="12.984657"><ele>443.5</ele></trkpt>
<trkpt lat="47.759223" lon="12.984957"><ele>442.9</ele></trkpt>
<trkpt lat="47.758946" lon="12.985293"><ele>443.6</ele></trkpt>
<trkpt lat="47.757647" lon="12.985917"><ele>449.2</ele></trkpt>
<trkpt lat="47.757100" lon="12.986289"><ele>450.9</ele></trkpt>
<trkpt lat="47.755957" lon="12.987547"><ele>459.2</ele></trkpt>
<trkpt lat="47.754765" lon="12.988522"><ele>465.0</ele></trkpt>
<trkpt lat="47.753634" lon="12.989641"><ele>467.0</ele></trkpt>
<trkpt lat="47.752456" lon="12.990828"><ele>476.1</ele></trkpt>
<trkpt lat="47.752223" lon="12.991067"><ele>471.0</ele></trkpt>
<trkpt lat="47.751629" lon="12.991861"><ele>460.0</ele></trkpt>
<trkpt lat="47.751105" lon="12.993387"><ele>441.0</ele></trkpt>
<trkpt lat="47.750091" lon="12.994641"><ele>443.2</ele></trkpt>
<trkpt lat="47.749543" lon="12.995451"><ele>441.3</ele></trkpt>
<trkpt lat="47.749142" lon="12.996391"><ele>441.1</ele></trkpt>
<trkpt lat="47.749100" lon="12.997049"><ele>442.4</ele></trkpt>
<trkpt lat="47.748573" lon="12.999040"><ele>441.1</ele></trkpt>
<trkpt lat="47.748541" lon="12.999184"><ele>441.3</ele></trkpt>
<trkpt lat="47.747931" lon="13.000357"><ele>446.3</ele></trkpt>
<trkpt lat="47.747948" lon="13.002037"><ele>450.6</ele></trkpt>
<trkpt lat="47.747553" lon="13.003274"><ele>448.7</ele></trkpt>
<trkpt lat="47.748531" lon="13.004827"><ele>448.2</ele></trkpt>
<trkpt lat="47.748722" lon="13.005256"><ele>448.0</ele></trkpt>
<trkpt lat="47.748699" lon="13.007360"><ele>451.7</ele></trkpt>
<trkpt lat="47.749224" lon="13.009239"><ele>458.3</ele></trkpt>
<trkpt lat="47.749287" lon="13.009580"><ele>454.3</ele></trkpt>
<trkpt lat="47.749572" lon="13.011696"><ele>443.7</ele></trkpt>
<trkpt lat="47.749622" lon="13.012510"><ele>445.8</ele></trkpt>
<trkpt lat="47.749440" lon="13.014570"><ele>443.6</ele></trkpt>
<trkpt lat="47.749379" lon="13.015071"><ele>442.0</ele></trkpt>
<trkpt lat="47.749171" lon="13.015949"><ele>440.8</ele></trkpt>
<trkpt lat="47.748869" lon="13.016815"><ele>442.8</ele></trkpt>
<trkpt lat="47.748067" lon="13.017824"><ele>441.6</ele></trkpt>
<trkpt lat="47.747711" lon="13.019057"><ele>438.8</ele></trkpt>
<trkpt lat="47.747839" lon="13.021053"><ele>443.5</ele></trkpt>
<trkpt lat="47.747950" lon="13.021839"><ele>444.7</ele></trkpt>
<trkpt lat="47.748183" lon="13.022236"><ele>444.2</ele></trkpt>
<trkpt lat="47.748928" lon="13.022694"><ele>437.7</ele></trkpt>
<trkpt lat="47.750054" lon="13.024009"><ele>436.9</ele></trkpt>
<trkpt lat="47.751113" lon="13.025219"><ele>439.0</ele></trkpt>
<trkpt lat="47.751821" lon="13.026387"><ele>438.1</ele></trkpt>
<trkpt lat="47.752500" lon="13.028217"><ele>437.6</ele></trkpt>
<trkpt lat="47.752502" lon="13.028222"><ele>437.6</ele></trkpt>
<trkpt lat="47.752919" lon="13.029844"><ele>434.7</ele></trkpt>
<trkpt lat="47.752676" lon="13.030792"><ele>435.2</ele></trkpt>
<trkpt lat="47.752869" lon="13.031715"><ele>437.1</ele></trkpt>
<trkpt lat="47.752245" lon="13.033564"><ele>437.2</ele></trkpt>
<trkpt lat="47.751853" lon="13.034603"><ele>437.0</ele></trkpt>
<trkpt lat="47.753100" lon="13.035497"><ele>438.2</ele></trkpt>
<trkpt lat="47.754342" lon="13.036554"><ele>437.2</ele></trkpt>
<trkpt lat="47.755610" lon="13.037267"><ele>437.2</ele></trkpt>
<trkpt lat="47.756858" lon="13.037965"><ele>444.5</ele></trkpt>
<trkpt lat="47.757259" lon="13.039956"><ele>447.9</ele></trkpt>
<trkpt lat="47.757751" lon="13.041963"><ele>453.0</ele></trkpt>
<trkpt lat="47.758287" lon="13.044055"><ele>447.3</ele></trkpt>
<trkpt lat="47.758733" lon="13.046006"><ele>451.7</ele></trkpt>
<trkpt lat="47.758832" lon="13.046444"><ele>451.2</ele></trkpt>
<trkpt lat="47.759734" lon="13.048256"><ele>443.7</ele></trkpt>
<trkpt lat="47.759845" lon="13.048633"><ele>442.3</ele></trkpt>
<trkpt lat="47.759609" lon="13.049700"><ele>436.6</ele></trkpt>
<trkpt lat="47.760063" lon="13.051653"><ele>438.5</ele></trkpt>
<trkpt lat="47.760546" lon="13.053676"><ele>439.2</ele></trkpt>
<trkpt lat="47.761022" lon="13.055653"><ele>438.4</ele></trkpt>
<trkpt lat="47.761507" lon="13.057664"><ele>438.4</ele></trkpt>
<trkpt lat="47.761883" lon="13.059362"><ele>438.3</ele></trkpt>
<trkpt lat="47.763223" lon="13.058843"><ele>435.2</ele></trkpt>
<trkpt lat="47.763354" lon="13.058799"><ele>435.8</ele></trkpt>
<trkpt lat="47.763526" lon="13.060218"><ele>428.8</ele></trkpt>
<trkpt lat="47.763110" lon="13.061400"><ele>429.4</ele></trkpt>
<trkpt lat="47.763053" lon="13.062244"><ele>431.1</ele></trkpt>
<trkpt lat="47.763628" lon="13.064143"><ele>430.8</ele></trkpt>
<trkpt lat="47.763659" lon="13.064601"><ele>429.3</ele></trkpt>
<trkpt lat="47.764994" lon="13.064192"><ele>434.0</ele></trkpt>
<trkpt lat="47.765610" lon="13.064003"><ele>431.4</ele></trkpt>
<trkpt lat="47.765117" lon="13.062863"><ele>426.2</ele></trkpt>
<trkpt lat="47.766335" lon="13.061875"><ele>426.2</ele></trkpt>
<trkpt lat="47.766603" lon="13.061683"><ele>426.0</ele></trkpt>
<trkpt lat="47.767994" lon="13.060979"><ele>426.8</ele></trkpt>
<trkpt lat="47.769021" lon="13.060347"><ele>427.8</ele></trkpt>
<trkpt lat="47.769628" lon="13.059490"><ele>425.7</ele></trkpt>
<trkpt lat="47.769676" lon="13.058990"><ele>429.1</ele></trkpt>
<trkpt lat="47.770378" lon="13.058606"><ele>431.1</ele></trkpt>
<trkpt lat="47.770458" lon="13.058056"><ele>432.3</ele></trkpt>
<trkpt lat="47.770329" lon="13.057556"><ele>433.0</ele></trkpt>
<trkpt lat="47.770725" lon="13.055774"><ele>432.8</ele></trkpt>
<trkpt lat="47.771555" lon="13.054981"><ele>434.1</ele></trkpt>
<trkpt lat="47.771518" lon="13.053540"><ele>435.1</ele></trkpt>
<trkpt lat="47.772407" lon="13.051844"><ele>433.3</ele></trkpt>
<trkpt lat="47.772940" lon="13.050786"><ele>432.2</ele></trkpt>
<trkpt lat="47.772503" lon="13.048926"><ele>430.0</ele></trkpt>
<trkpt lat="47.772620" lon="13.046791"><ele>430.1</ele></trkpt>
<trkpt lat="47.772660" lon="13.046149"><ele>429.9</ele></trkpt>
<trkpt lat="47.772803" lon="13.045914"><ele>429.0</ele></trkpt>
<trkpt lat="47.774174" lon="13.046250"><ele>432.5</ele></trkpt>
<trkpt lat="47.774211" lon="13.046157"><ele>432.7</ele></trkpt>
<trkpt lat="47.774184" lon="13.043984"><ele>432.1</ele></trkpt>
<trkpt lat="47.774485" lon="13.043031"><ele>431.9</ele></trkpt>
<trkpt lat="47.774182" lon="13.043043"><ele>432.0</ele></trkpt>
<trkpt lat="47.774185" lon="13.041539"><ele>431.9</ele></trkpt>
<trkpt lat="47.774419" lon="13.040582"><ele>434.9</ele></trkpt>
<trkpt lat="47.774894" lon="13.041029"><ele>435.8</ele></trkpt>
<trkpt lat="47.776199" lon="13.041666"><ele>433.0</ele></trkpt>
<trkpt lat="47.777262" lon="13.042141"><ele>430.1</ele></trkpt>
<trkpt lat="47.778649" lon="13.041988"><ele>432.1</ele></trkpt>
<trkpt lat="47.780070" lon="13.041927"><ele>433.6</ele></trkpt>
<trkpt lat="47.780201" lon="13.041916"><ele>433.1</ele></trkpt>
<trkpt lat="47.780772" lon="13.042091"><ele>430.8</ele></trkpt>
<trkpt lat="47.780868" lon="13.040196"><ele>432.0</ele></trkpt>
<trkpt lat="47.782280" lon="13.040030"><ele>432.2</ele></trkpt>
<trkpt lat="47.782614" lon="13.039845"><ele>432.7</ele></trkpt>
<trkpt lat="47.783789" lon="13.038844"><ele>433.3</ele></trkpt>
<trkpt lat="47.785092" lon="13.037689"><ele>435.7</ele></trkpt>
<trkpt lat="47.786359" lon="13.036553"><ele>435.3</ele></trkpt>
<trkpt lat="47.787368" lon="13.035778"><ele>434.9</ele></trkpt>
<trkpt lat="47.787981" lon="13.035518"><ele>433.5</ele></trkpt>
<trkpt lat="47.788231" lon="13.035685"><ele>431.2</ele></trkpt>
<trkpt lat="47.788611" lon="13.036640"><ele>430.9</ele></trkpt>
<trkpt lat="47.789688" lon="13.037534"><ele>433.0</ele></trkpt>
<trkpt lat="47.790257" lon="13.035765"><ele>431.1</ele></trkpt>
<trkpt lat="47.790417" lon="13.035352"><ele>431.4</ele></trkpt>
<trkpt lat="47.791236" lon="13.033683"><ele>429.3</ele></trkpt>
<trkpt lat="47.792061" lon="13.032004"><ele>432.5</ele></trkpt>
<trkpt lat="47.792277" lon="13.031687"><ele>430.3</ele></trkpt>
<trkpt lat="47.792697" lon="13.029672"><ele>431.0</ele></trkpt>
<trkpt lat="47.792834" lon="13.029038"><ele>431.7</ele></trkpt>
<trkpt lat="47.793561" lon="13.027437"><ele>430.0</ele></trkpt>
<trkpt lat="47.793948" lon="13.026541"><ele>427.8</ele></trkpt>
<trkpt lat="47.794270" lon="13.025235"><ele>429.0</ele></trkpt>
<trkpt lat="47.793781" lon="13.023357"><ele>422.8</ele></trkpt>
<trkpt lat="47.793587" lon="13.022881"><ele>424.9</ele></trkpt>
<trkpt lat="47.793061" lon="13.021996"><ele>430.2</ele></trkpt>
<trkpt lat="47.792571" lon="13.021988"><ele>429.3</ele></trkpt>
<trkpt lat="47.791944" lon="13.020881"><ele>430.0</ele></trkpt>
<trkpt lat="47.792035" lon="13.020133"><ele>429.2</ele></trkpt>
<trkpt lat="47.791923" lon="13.019396"><ele>430.0</ele></trkpt>
<trkpt lat="47.793000" lon="13.018985"><ele>430.5</ele></trkpt>
<trkpt lat="47.792759" lon="13.016833"><ele>431.1</ele></trkpt>
<trkpt lat="47.792615" lon="13.015076"><ele>425.4</ele></trkpt>
<trkpt lat="47.793305" lon="13.014859"><ele>426.5</ele></trkpt>
<trkpt lat="47.792988" lon="13.012689"><ele>427.2</ele></trkpt>
<trkpt lat="47.792693" lon="13.011101"><ele>427.3</ele></trkpt>
<trkpt lat="47.792950" lon="13.009173"><ele>429.6</ele></trkpt>
<trkpt lat="47.793478" lon="13.008524"><ele>428.2</ele></trkpt>
<trkpt lat="47.794865" lon="13.008478"><ele>430.8</ele></trkpt>
<trkpt lat="47.796253" lon="13.008292"><ele>424.5</ele></trkpt>
<trkpt lat="47.797676" lon="13.008130"><ele>424.7</ele></trkpt>
<trkpt lat="47.798250" lon="13.007785"><ele>426.0</ele></trkpt>
<trkpt lat="47.797547" lon="13.005817"><ele>427.2</ele></trkpt>
<trkpt lat="47.796818" lon="13.004016"><ele>425.5</ele></trkpt>
<trkpt lat="47.796060" lon="13.002098"><ele>423.8</ele></trkpt>
<trkpt lat="47.795333" lon="13.000255"><ele>431.0</ele></trkpt>
<trkpt lat="47.794631" lon="12.998437"><ele>429.0</ele></trkpt>
<trkpt lat="47.793871" lon="12.996523"><ele>432.5</ele></trkpt>
<trkpt lat="47.793146" lon="12.994807"><ele>432.2</ele></trkpt>
<trkpt lat="47.792412" lon="12.992879"><ele>433.4</ele></trkpt>
<trkpt lat="47.792033" lon="12.992063"><ele>433.9</ele></trkpt>
<trkpt lat="47.792153" lon="12.991300"><ele>435.2</ele></trkpt>
<trkpt lat="47.791325" lon="12.989477"><ele>440.5</ele></trkpt>
<trkpt lat="47.790653" lon="12.987784"><ele>436.6</ele></trkpt>
<trkpt lat="47.790141" lon="12.986859"><ele>437.0</ele></trkpt>
<trkpt lat="47.789421" lon="12.984939"><ele>438.2</ele></trkpt>
<trkpt lat="47.788611" lon="12.983033"><ele>437.9</ele></trkpt>
<trkpt lat="47.788328" lon="12.982360"><ele>436.5</ele></trkpt>
<trkpt lat="47.788253" lon="12.981445"><ele>438.1</ele></trkpt>
<trkpt lat="47.787854" lon="12.981259"><ele>437.5</ele></trkpt>
<trkpt lat="47.787135" lon="12.979368"><ele>436.9</ele></trkpt>
<trkpt lat="47.786845" lon="12.978770"><ele>438.8</ele></trkpt>
<trkpt lat="47.786771" lon="12.978171"><ele>438.4</ele></trkpt>
<trkpt lat="47.786107" lon="12.976232"><ele>437.4</ele></trkpt>
<trkpt lat="47.785438" lon="12.974320"><ele>438.5</ele></trkpt>
<trkpt lat="47.784958" lon="12.973065"><ele>435.0</ele></trkpt>
<trkpt lat="47.783984" lon="12.971359"><ele>436.7</ele></trkpt>
<trkpt lat="47.783597" lon="12.970554"><ele>439.0</ele></trkpt>
<trkpt lat="47.782825" lon="12.968673"><ele>438.9</ele></trkpt>
<trkpt lat="47.782081" lon="12.966809"><ele>439.0</ele></trkpt>
<trkpt lat="47.781299" lon="12.964906"><ele>437.4</ele></trkpt>
<trkpt lat="47.780696" lon="12.963574"><ele>437.5</ele></trkpt>
<trkpt lat="47.780067" lon="12.961683"><ele>440.2</ele></trkpt>
<trkpt lat="47.779765" lon="12.960614"><ele>438.1</ele></trkpt>
<trkpt lat="47.778948" lon="12.958967"><ele>440.1</ele></trkpt>
<trkpt lat="47.778782" lon="12.958590"><ele>440.2</ele></trkpt>
<trkpt lat="47.778077" lon="12.956795"><ele>441.1</ele></trkpt>
<trkpt lat="47.777380" lon="12.955081"><ele>442.3</ele></trkpt>
<trkpt lat="47.776781" lon="12.953575"><ele>441.7</ele></trkpt>
<trkpt lat="47.775973" lon="12.951990"><ele>464.6</ele></trkpt>
<trkpt lat="47.774772" lon="12.950730"><ele>469.3</ele></trkpt>
<trkpt lat="47.773681" lon="12.949341"><ele>469.5</ele></trkpt>
<trkpt lat="47.772397" lon="12.948144"><ele>485.0</ele></trkpt>
<trkpt lat="47.771977" lon="12.947545"><ele>491.7</ele></trkpt>
<trkpt lat="47.771937" lon="12.945492"><ele>496.7</ele></trkpt>
<trkpt lat="47.771868" lon="12.944974"><ele>494.2</ele></trkpt>
<trkpt lat="47.771294" lon="12.943438"><ele>485.1</ele></trkpt>
<trkpt lat="47.770861" lon="12.941449"><ele>487.4</ele></trkpt>
<trkpt lat="47.770285" lon="12.939760"><ele>489.7</ele></trkpt>
<trkpt lat="47.769498" lon="12.938769"><ele>480.4</ele></trkpt>
<trkpt lat="47.768155" lon="12.938236"><ele>479.6</ele></trkpt>
<trkpt lat="47.767463" lon="12.937809"><ele>488.2</ele></trkpt>
<trkpt lat="47.766826" lon="12.936860"><ele>480.1</ele></trkpt>
<trkpt lat="47.766510" lon="12.935177"><ele>471.9</ele></trkpt>
<trkpt lat="47.766311" lon="12.933147"><ele>465.3</ele></trkpt>
<trkpt lat="47.766087" lon="12.930944"><ele>462.9</ele></trkpt>
<trkpt lat="47.766064" lon="12.930465"><ele>457.4</ele></trkpt>
<trkpt lat="47.765267" lon="12.928550"><ele>449.1</ele></trkpt>
<trkpt lat="47.764769" lon="12.927583"><ele>451.1</ele></trkpt>
<trkpt lat="47.764854" lon="12.927044"><ele>451.3</ele></trkpt>
<trkpt lat="47.764355" lon="12.927330"><ele>452.3</ele></trkpt>
<trkpt lat="47.763430" lon="12.927040"><ele>452.3</ele></trkpt>
<trkpt lat="47.762479" lon="12.926382"><ele>449.0</ele></trkpt>
<trkpt lat="47.761403" lon="12.926287"><ele>453.0</ele></trkpt>
<trkpt lat="47.760930" lon="12.925783"><ele>453.5</ele></trkpt>
<trkpt lat="47.760705" lon="12.925201"><ele>452.0</ele></trkpt>
<trkpt lat="47.759610" lon="12.924863"><ele>451.7</ele></trkpt>
<trkpt lat="47.759362" lon="12.924422"><ele>453.6</ele></trkpt>
<trkpt lat="47.759049" lon="12.923125"><ele>455.8</ele></trkpt>
<trkpt lat="47.758205" lon="12.921493"><ele>455.8</ele></trkpt>
<trkpt lat="47.757518" lon="12.920526"><ele>456.2</ele></trkpt>
<trkpt lat="47.756700" lon="12.919953"><ele>454.3</ele></trkpt>
<trkpt lat="47.755299" lon="12.919816"><ele>454.7</ele></trkpt>
<trkpt lat="47.755249" lon="12.919807"><ele>454.7</ele></trkpt>
<trkpt lat="47.754632" lon="12.919464"><ele>457.4</ele></trkpt>
<trkpt lat="47.753624" lon="12.918064"><ele>455.0</ele></trkpt>
<trkpt lat="47.753449" lon="12.917791"><ele>455.5</ele></trkpt>
<trkpt lat="47.753260" lon="12.917079"><ele>457.1</ele></trkpt>
<trkpt lat="47.751917" lon="12.915997"><ele>458.9</ele></trkpt>
<trkpt lat="47.750747" lon="12.914943"><ele>455.5</ele></trkpt>
<trkpt lat="47.750679" lon="12.914881"><ele>456.0</ele></trkpt>
<trkpt lat="47.749458" lon="12.913750"><ele>460.5</ele></trkpt>
<trkpt lat="47.748338" lon="12.912603"><ele>461.0</ele></trkpt>
<trkpt lat="47.747426" lon="12.911676"><ele>461.6</ele></trkpt>
<trkpt lat="47.746417" lon="12.910096"><ele>461.5</ele></trkpt>
<trkpt lat="47.746025" lon="12.909457"><ele>458.7</ele></trkpt>
<trkpt lat="47.745145" lon="12.910917"><ele>460.3</ele></trkpt>
<trkpt lat="47.744926" lon="12.911017"><ele>460.8</ele></trkpt>
<trkpt lat="47.744616" lon="12.910747"><ele>463.0</ele></trkpt>
<trkpt lat="47.743864" lon="12.908804"><ele>459.8</ele></trkpt>
<trkpt lat="47.743740" lon="12.908499"><ele>459.7</ele></trkpt>
<trkpt lat="47.743233" lon="12.906558"><ele>458.4</ele></trkpt>
<trkpt lat="47.743086" lon="12.906136"><ele>458.0</ele></trkpt>
<trkpt lat="47.742269" lon="12.904485"><ele>456.8</ele></trkpt>
<trkpt lat="47.742113" lon="12.903418"><ele>457.9</ele></trkpt>
<trkpt lat="47.740880" lon="12.902811"><ele>473.4</ele></trkpt>
<trkpt lat="47.739923" lon="12.901399"><ele>472.8</ele></trkpt>
<trkpt lat="47.739922" lon="12.901399"><ele>472.8</ele></trkpt>
<trkpt lat="47.739361" lon="12.899435"><ele>477.4</ele></trkpt>
<trkpt lat="47.738788" lon="12.897543"><ele>470.3</ele></trkpt>
<trkpt lat="47.738086" lon="12.895684"><ele>468.6</ele></trkpt>
<trkpt lat="47.737894" lon="12.895352"><ele>467.3</ele></trkpt>
<trkpt lat="47.738164" lon="12.894899"><ele>466.6</ele></trkpt>
<trkpt lat="47.737294" lon="12.893123"><ele>465.8</ele></trkpt>
<trkpt lat="47.736845" lon="12.892688"><ele>464.9</ele></trkpt>
<trkpt lat="47.736108" lon="12.891201"><ele>461.0</ele></trkpt>
<trkpt lat="47.734852" lon="12.890346"><ele>465.0</ele></trkpt>
<trkpt lat="47.733919" lon="12.889805"><ele>464.0</ele></trkpt>
<trkpt lat="47.732702" lon="12.888857"><ele>463.4</ele></trkpt>
<trkpt lat="47.731702" lon="12.887899"><ele>465.8</ele></trkpt>
<trkpt lat="47.730708" lon="12.887277"><ele>466.8</ele></trkpt>
<trkpt lat="47.729595" lon="12.885887"><ele>470.0</ele></trkpt>
<trkpt lat="47.728704" lon="12.884653"><ele>467.7</ele></trkpt>
<trkpt lat="47.727719" lon="12.883943"><ele>471.1</ele></trkpt>
<trkpt lat="47.727494" lon="12.883113"><ele>470.2</ele></trkpt>
<trkpt lat="47.726900" lon="12.883842"><ele>474.7</ele></trkpt>
</trkseg></trk></gpx>