<?xml version="1.0" encoding="UTF-8"?>
<gpx version="1.1" creator="Bad Reichenhall gravel – saját gravel-router (OSM/Overture + SRTM)" xmlns="http://www.topografix.com/GPX/1/1">
<metadata><name>Waginger See és Tachinger See</name><desc>GENERÁLT NYOMVONAL – Hosszú, de lankás egész napos: Teisendorfon át a Rupertiwinkel dombjain a Bajorország legmelegebb fürdőtavaként ismert Waginger See-hez, megkerülöd a Tachinger See-t, majd Laufenen és a Salzach-ártéren át térsz vissza Freilassing felé. Ha elfáradsz, Laufenből vagy Freilassingból vonattal is hazajöhetsz.</desc><copyright author="OpenStreetMap contributors (via Overture Maps)"><license>https://opendatacommons.org/licenses/odbl/</license></copyright><time>2026-10-04T15:59:25Z</time></metadata>
<wpt lat="47.7596" lon="12.9114"><name>Piding</name><type>town</type></wpt>
<wpt lat="47.8039" lon="12.8559"><name>Anger</name><type>town</type></wpt>
<wpt lat="47.8493" lon="12.8343"><name>Teisendorf</name><type>town</type></wpt>
<wpt lat="47.9316" lon="12.7273"><name>Waging am See</name><type>town</type></wpt>
<wpt lat="47.9658" lon="12.7433"><name>Tachinger See</name><type>lake</type></wpt>
<wpt lat="47.9228" lon="12.7884"><name>Waginger See – keleti part</name><type>lake</type></wpt>
<wpt lat="47.9377" lon="12.9311"><name>Laufen</name><type>history</type></wpt>
<wpt lat="47.8366" lon="12.9771"><name>Freilassing</name><type>town</type></wpt>
<trk><name>Waginger See és Tachinger See</name><type>gravel</type><trkseg>
<trkpt lat="47.726900" lon="12.883842"><ele>474.7</ele></trkpt>
<trkpt lat="47.727494" lon="12.883113"><ele>470.2</ele></trkpt>
<trkpt lat="47.727719" lon="12.883943"><ele>471.1</ele></trkpt>
<trkpt lat="47.728704" lon="12.884653"><ele>467.7</ele></trkpt>
<trkpt lat="47.729731" lon="12.886062"><ele>468.9</ele></trkpt>
<trkpt lat="47.730708" lon="12.887277"><ele>466.8</ele></trkpt>
<trkpt lat="47.731702" lon="12.887899"><ele>465.8</ele></trkpt>
<trkpt lat="47.732859" lon="12.888988"><ele>463.3</ele></trkpt>
<trkpt lat="47.733919" lon="12.889805"><ele>464.0</ele></trkpt>
<trkpt lat="47.735182" lon="12.890496"><ele>464.3</ele></trkpt>
<trkpt lat="47.735913" lon="12.890981"><ele>460.5</ele></trkpt>
<trkpt lat="47.736805" lon="12.892597"><ele>464.7</ele></trkpt>
<trkpt lat="47.736845" lon="12.892688"><ele>464.9</ele></trkpt>
<trkpt lat="47.737294" lon="12.893123"><ele>465.8</ele></trkpt>
<trkpt lat="47.738557" lon="12.893727"><ele>465.9</ele></trkpt>
<trkpt lat="47.738981" lon="12.892697"><ele>461.7</ele></trkpt>
<trkpt lat="47.739233" lon="12.892513"><ele>461.3</ele></trkpt>
<trkpt lat="47.739380" lon="12.892474"><ele>461.7</ele></trkpt>
<trkpt lat="47.739559" lon="12.892888"><ele>465.2</ele></trkpt>
<trkpt lat="47.740022" lon="12.892659"><ele>464.1</ele></trkpt>
<trkpt lat="47.740252" lon="12.892788"><ele>464.2</ele></trkpt>
<trkpt lat="47.740420" lon="12.893505"><ele>468.4</ele></trkpt>
<trkpt lat="47.740871" lon="12.893655"><ele>462.9</ele></trkpt>
<trkpt lat="47.741641" lon="12.895484"><ele>466.1</ele></trkpt>
<trkpt lat="47.742413" lon="12.897293"><ele>459.3</ele></trkpt>
<trkpt lat="47.743190" lon="12.899091"><ele>454.4</ele></trkpt>
<trkpt lat="47.743932" lon="12.900790"><ele>454.8</ele></trkpt>
<trkpt lat="47.744252" lon="12.901496"><ele>455.7</ele></trkpt>
<trkpt lat="47.744878" lon="12.900827"><ele>454.4</ele></trkpt>
<trkpt lat="47.746249" lon="12.900860"><ele>457.9</ele></trkpt>
<trkpt lat="47.746683" lon="12.900793"><ele>459.1</ele></trkpt>
<trkpt lat="47.747599" lon="12.899938"><ele>457.0</ele></trkpt>
<trkpt lat="47.748711" lon="12.900887"><ele>467.5</ele></trkpt>
<trkpt lat="47.750153" lon="12.901197"><ele>466.6</ele></trkpt>
<trkpt lat="47.750593" lon="12.901341"><ele>472.2</ele></trkpt>
<trkpt lat="47.751582" lon="12.902133"><ele>465.0</ele></trkpt>
<trkpt lat="47.752294" lon="12.901798"><ele>464.8</ele></trkpt>
<trkpt lat="47.753134" lon="12.900502"><ele>474.8</ele></trkpt>
<trkpt lat="47.754414" lon="12.899381"><ele>472.6</ele></trkpt>
<trkpt lat="47.754737" lon="12.899148"><ele>474.1</ele></trkpt>
<trkpt lat="47.755518" lon="12.898948"><ele>462.5</ele></trkpt>
<trkpt lat="47.756921" lon="12.899199"><ele>458.0</ele></trkpt>
<trkpt lat="47.756975" lon="12.899204"><ele>457.9</ele></trkpt>
<trkpt lat="47.757900" lon="12.898689"><ele>460.7</ele></trkpt>
<trkpt lat="47.758294" lon="12.898983"><ele>458.8</ele></trkpt>
<trkpt lat="47.758547" lon="12.900267"><ele>460.0</ele></trkpt>
<trkpt lat="47.758947" lon="12.900563"><ele>456.9</ele></trkpt>
<trkpt lat="47.759906" lon="12.900735"><ele>457.8</ele></trkpt>
<trkpt lat="47.761236" lon="12.900287"><ele>457.4</ele></trkpt>
<trkpt lat="47.761660" lon="12.900156"><ele>457.5</ele></trkpt>
<trkpt lat="47.761680" lon="12.899562"><ele>454.5</ele></trkpt>
<trkpt lat="47.762392" lon="12.899924"><ele>456.6</ele></trkpt>
<trkpt lat="47.762647" lon="12.899772"><ele>456.6</ele></trkpt>
<trkpt lat="47.763728" lon="12.898475"><ele>456.2</ele></trkpt>
<trkpt lat="47.764972" lon="12.897183"><ele>456.8</ele></trkpt>
<trkpt lat="47.766196" lon="12.895884"><ele>456.1</ele></trkpt>
<trkpt lat="47.766968" lon="12.894960"><ele>456.0</ele></trkpt>
<trkpt lat="47.767807" lon="12.896772"><ele>455.1</ele></trkpt>
<trkpt lat="47.768079" lon="12.897286"><ele>458.0</ele></trkpt>
<trkpt lat="47.769127" lon="12.898138"><ele>457.0</ele></trkpt>
<trkpt lat="47.769373" lon="12.897995"><ele>456.5</ele></trkpt>
<trkpt lat="47.769479" lon="12.897053"><ele>458.7</ele></trkpt>
<trkpt lat="47.769653" lon="12.896685"><ele>459.7</ele></trkpt>
<trkpt lat="47.769950" lon="12.896823"><ele>459.4</ele></trkpt>
<trkpt lat="47.770016" lon="12.897401"><ele>458.9</ele></trkpt>
<trkpt lat="47.770614" lon="12.898431"><ele>458.9</ele></trkpt>
<trkpt lat="47.771828" lon="12.899605"><ele>455.2</ele></trkpt>
<trkpt lat="47.772138" lon="12.899946"><ele>455.5</ele></trkpt>
<trkpt lat="47.773193" lon="12.899432"><ele>456.5</ele></trkpt>
<trkpt lat="47.773503" lon="12.899102"><ele>456.9</ele></trkpt>
<trkpt lat="47.774374" lon="12.897374"><ele>458.9</ele></trkpt>
<trkpt lat="47.775291" lon="12.895657"><ele>459.7</ele></trkpt>
<trkpt lat="47.776170" lon="12.893989"><ele>461.0</ele></trkpt>
<trkpt lat="47.776313" lon="12.893714"><ele>461.6</ele></trkpt>
<trkpt lat="47.777110" lon="12.891970"><ele>464.6</ele></trkpt>
<trkpt lat="47.777430" lon="12.891054"><ele>464.0</ele></trkpt>
<trkpt lat="47.778560" lon="12.889622"><ele>466.2</ele></trkpt>
<trkpt lat="47.779094" lon="12.889059"><ele>467.3</ele></trkpt>
<trkpt lat="47.779903" lon="12.888463"><ele>470.7</ele></trkpt>
<trkpt lat="47.780324" lon="12.886793"><ele>471.0</ele></trkpt>
<trkpt lat="47.781351" lon="12.885740"><ele>472.0</ele></trkpt>
<trkpt lat="47.780911" lon="12.885157"><ele>471.7</ele></trkpt>
<trkpt lat="47.781622" lon="12.884667"><ele>473.2</ele></trkpt>
<trkpt lat="47.782122" lon="12.883716"><ele>475.2</ele></trkpt>
<trkpt lat="47.782634" lon="12.883212"><ele>474.1</ele></trkpt>
<trkpt lat="47.783147" lon="12.881637"><ele>475.7</ele></trkpt>
<trkpt lat="47.784122" lon="12.879976"><ele>477.1</ele></trkpt>
<trkpt lat="47.785128" lon="12.878276"><ele>479.1</ele></trkpt>
<trkpt lat="47.786119" lon="12.876795"><ele>482.0</ele></trkpt>
<trkpt lat="47.786502" lon="12.876198"><ele>483.2</ele></trkpt>
<trkpt lat="47.786541" lon="12.874853"><ele>487.1</ele></trkpt>
<trkpt lat="47.786031" lon="12.873451"><ele>489.9</ele></trkpt>
<trkpt lat="47.787137" lon="12.872303"><ele>488.0</ele></trkpt>
<trkpt lat="47.787146" lon="12.872293"><ele>488.0</ele></trkpt>
<trkpt lat="47.787637" lon="12.872146"><ele>489.4</ele></trkpt>
<trkpt lat="47.788512" lon="12.871152"><ele>490.0</ele></trkpt>
<trkpt lat="47.788682" lon="12.870715"><ele>489.1</ele></trkpt>
<trkpt lat="47.788548" lon="12.869919"><ele>490.5</ele></trkpt>
<trkpt lat="47.789321" lon="12.869683"><ele>493.3</ele></trkpt>
<trkpt lat="47.790425" lon="12.868348"><ele>495.5</ele></trkpt>
<trkpt lat="47.790439" lon="12.868331"><ele>495.6</ele></trkpt>
<trkpt lat="47.791849" lon="12.867714"><ele>496.9</ele></trkpt>
<trkpt lat="47.792611" lon="12.867349"><ele>498.8</ele></trkpt>
<trkpt lat="47.793756" lon="12.865983"><ele>503.5</ele></trkpt>
<trkpt lat="47.794879" lon="12.864735"><ele>507.5</ele></trkpt>
<trkpt lat="47.796068" lon="12.863451"><ele>512.5</ele></trkpt>
<trkpt lat="47.796126" lon="12.863391"><ele>512.8</ele></trkpt>
<trkpt lat="47.797331" lon="12.862746"><ele>516.4</ele></trkpt>
<trkpt lat="47.798182" lon="12.861635"><ele>518.5</ele></trkpt>
<trkpt lat="47.798846" lon="12.861189"><ele>522.5</ele></trkpt>
<trkpt lat="47.799804" lon="12.860157"><ele>526.1</ele></trkpt>
<trkpt lat="47.800834" lon="12.858865"><ele>531.0</ele></trkpt>
<trkpt lat="47.800890" lon="12.858821"><ele>531.0</ele></trkpt>
<trkpt lat="47.801319" lon="12.857484"><ele>533.4</ele></trkpt>
<trkpt lat="47.801951" lon="12.858424"><ele>542.1</ele></trkpt>
<trkpt lat="47.801910" lon="12.857817"><ele>544.0</ele></trkpt>
<trkpt lat="47.802238" lon="12.856984"><ele>551.7</ele></trkpt>
<trkpt lat="47.802954" lon="12.856685"><ele>553.5</ele></trkpt>
<trkpt lat="47.804102" lon="12.855560"><ele>554.3</ele></trkpt>
<trkpt lat="47.804190" lon="12.855468"><ele>554.9</ele></trkpt>
<trkpt lat="47.804694" lon="12.854456"><ele>554.8</ele></trkpt>
<trkpt lat="47.804831" lon="12.853053"><ele>554.8</ele></trkpt>
<trkpt lat="47.805434" lon="12.851967"><ele>556.6</ele></trkpt>
<trkpt lat="47.805537" lon="12.850745"><ele>561.2</ele></trkpt>
<trkpt lat="47.806448" lon="12.849265"><ele>567.4</ele></trkpt>
<trkpt lat="47.806865" lon="12.848626"><ele>569.2</ele></trkpt>
<trkpt lat="47.807691" lon="12.847599"><ele>574.6</ele></trkpt>
<trkpt lat="47.809100" lon="12.847528"><ele>576.5</ele></trkpt>
<trkpt lat="47.809810" lon="12.847509"><ele>576.3</ele></trkpt>
<trkpt lat="47.810845" lon="12.846455"><ele>582.7</ele></trkpt>
<trkpt lat="47.811103" lon="12.844518"><ele>583.7</ele></trkpt>
<trkpt lat="47.811279" lon="12.843769"><ele>585.2</ele></trkpt>
<trkpt lat="47.811004" lon="12.842085"><ele>584.2</ele></trkpt>
<trkpt lat="47.811411" lon="12.840059"><ele>593.5</ele></trkpt>
<trkpt lat="47.811457" lon="12.839816"><ele>594.1</ele></trkpt>
<trkpt lat="47.812876" lon="12.840349"><ele>588.5</ele></trkpt>
<trkpt lat="47.813294" lon="12.840365"><ele>586.2</ele></trkpt>
<trkpt lat="47.814384" lon="12.840059"><ele>577.1</ele></trkpt>
<trkpt lat="47.815076" lon="12.839450"><ele>567.8</ele></trkpt>
<trkpt lat="47.815557" lon="12.839292"><ele>562.9</ele></trkpt>
<trkpt lat="47.816579" lon="12.837795"><ele>555.2</ele></trkpt>
<trkpt lat="47.816755" lon="12.837580"><ele>554.4</ele></trkpt>
<trkpt lat="47.817968" lon="12.836634"><ele>560.6</ele></trkpt>
<trkpt lat="47.818948" lon="12.835648"><ele>559.1</ele></trkpt>
<trkpt lat="47.819577" lon="12.834480"><ele>556.2</ele></trkpt>
<trkpt lat="47.820971" lon="12.834273"><ele>537.2</ele></trkpt>
<trkpt lat="47.821209" lon="12.834246"><ele>536.2</ele></trkpt>
<trkpt lat="47.821922" lon="12.832876"><ele>535.4</ele></trkpt>
<trkpt lat="47.823294" lon="12.832538"><ele>537.5</ele></trkpt>
<trkpt lat="47.823818" lon="12.832390"><ele>532.7</ele></trkpt>
<trkpt lat="47.824248" lon="12.830464"><ele>542.9</ele></trkpt>
<trkpt lat="47.824391" lon="12.829929"><ele>543.1</ele></trkpt>
<trkpt lat="47.825235" lon="12.829807"><ele>533.7</ele></trkpt>
<trkpt lat="47.825686" lon="12.829951"><ele>529.9</ele></trkpt>
<trkpt lat="47.827113" lon="12.830590"><ele>520.0</ele></trkpt>
<trkpt lat="47.827737" lon="12.830878"><ele>518.3</ele></trkpt>
<trkpt lat="47.829099" lon="12.831715"><ele>513.1</ele></trkpt>
<trkpt lat="47.830161" lon="12.832447"><ele>520.6</ele></trkpt>
<trkpt lat="47.830551" lon="12.832507"><ele>519.9</ele></trkpt>
<trkpt lat="47.831363" lon="12.831851"><ele>520.8</ele></trkpt>
<trkpt lat="47.831740" lon="12.831050"><ele>530.0</ele></trkpt>
<trkpt lat="47.832678" lon="12.830493"><ele>512.5</ele></trkpt>
<trkpt lat="47.833546" lon="12.830607"><ele>516.1</ele></trkpt>
<trkpt lat="47.833755" lon="12.830070"><ele>515.9</ele></trkpt>
<trkpt lat="47.834786" lon="12.828978"><ele>517.7</ele></trkpt>
<trkpt lat="47.836093" lon="12.828017"><ele>516.4</ele></trkpt>
<trkpt lat="47.836812" lon="12.827271"><ele>520.7</ele></trkpt>
<trkpt lat="47.837964" lon="12.827001"><ele>521.8</ele></trkpt>
<trkpt lat="47.839304" lon="12.827635"><ele>501.5</ele></trkpt>
<trkpt lat="47.839432" lon="12.827661"><ele>501.3</ele></trkpt>
<trkpt lat="47.839987" lon="12.827164"><ele>510.8</ele></trkpt>
<trkpt lat="47.840860" lon="12.827077"><ele>509.9</ele></trkpt>
<trkpt lat="47.841417" lon="12.826410"><ele>496.9</ele></trkpt>
<trkpt lat="47.842338" lon="12.826479"><ele>494.0</ele></trkpt>
<trkpt lat="47.843605" lon="12.827296"><ele>501.0</ele></trkpt>
<trkpt lat="47.843911" lon="12.827335"><ele>502.7</ele></trkpt>
<trkpt lat="47.845263" lon="12.826925"><ele>500.6</ele></trkpt>
<trkpt lat="47.845629" lon="12.826797"><ele>499.9</ele></trkpt>
<trkpt lat="47.846309" lon="12.825816"><ele>500.4</ele></trkpt>
<trkpt lat="47.847111" lon="12.825550"><ele>499.5</ele></trkpt>
<trkpt lat="47.847994" lon="12.824713"><ele>500.3</ele></trkpt>
<trkpt lat="47.849067" lon="12.824113"><ele>503.1</ele></trkpt>
<trkpt lat="47.849087" lon="12.822175"><ele>501.9</ele></trkpt>
<trkpt lat="47.849089" lon="12.822116"><ele>501.8</ele></trkpt>
<trkpt lat="47.849336" lon="12.820935"><ele>499.1</ele></trkpt>
<trkpt lat="47.849790" lon="12.820938"><ele>499.6</ele></trkpt>
<trkpt lat="47.849819" lon="12.820491"><ele>498.1</ele></trkpt>
<trkpt lat="47.850471" lon="12.820330"><ele>497.6</ele></trkpt>
<trkpt lat="47.850435" lon="12.819276"><ele>494.7</ele></trkpt>
<trkpt lat="47.850798" lon="12.819184"><ele>495.0</ele></trkpt>
<trkpt lat="47.851167" lon="12.818704"><ele>494.6</ele></trkpt>
<trkpt lat="47.851397" lon="12.817670"><ele>491.6</ele></trkpt>
<trkpt lat="47.851590" lon="12.817619"><ele>491.5</ele></trkpt>
<trkpt lat="47.851550" lon="12.817001"><ele>492.0</ele></trkpt>
<trkpt lat="47.852258" lon="12.816243"><ele>494.1</ele></trkpt>
<trkpt lat="47.852765" lon="12.815974"><ele>493.6</ele></trkpt>
<trkpt lat="47.852870" lon="12.815154"><ele>491.7</ele></trkpt>
<trkpt lat="47.853152" lon="12.814668"><ele>491.1</ele></trkpt>
<trkpt lat="47.853035" lon="12.813030"><ele>491.9</ele></trkpt>
<trkpt lat="47.854186" lon="12.812456"><ele>490.0</ele></trkpt>
<trkpt lat="47.855076" lon="12.811553"><ele>499.9</ele></trkpt>
<trkpt lat="47.856001" lon="12.809866"><ele>514.9</ele></trkpt>
<trkpt lat="47.856799" lon="12.808270"><ele>518.8</ele></trkpt>
<trkpt lat="47.857593" lon="12.807116"><ele>523.2</ele></trkpt>
<trkpt lat="47.857878" lon="12.805129"><ele>515.7</ele></trkpt>
<trkpt lat="47.857988" lon="12.804499"><ele>515.2</ele></trkpt>
<trkpt lat="47.858780" lon="12.802947"><ele>525.2</ele></trkpt>
<trkpt lat="47.859891" lon="12.801887"><ele>527.4</ele></trkpt>
<trkpt lat="47.860742" lon="12.800227"><ele>525.9</ele></trkpt>
<trkpt lat="47.861140" lon="12.798245"><ele>527.5</ele></trkpt>
<trkpt lat="47.861246" lon="12.797679"><ele>529.5</ele></trkpt>
<trkpt lat="47.862029" lon="12.797679"><ele>531.1</ele></trkpt>
<trkpt lat="47.862569" lon="12.797051"><ele>539.8</ele></trkpt>
<trkpt lat="47.862743" lon="12.796372"><ele>541.1</ele></trkpt>
<trkpt lat="47.863895" lon="12.795290"><ele>541.0</ele></trkpt>
<trkpt lat="47.864730" lon="12.794810"><ele>542.6</ele></trkpt>
<trkpt lat="47.865952" lon="12.794447"><ele>542.4</ele></trkpt>
<trkpt lat="47.866592" lon="12.795374"><ele>539.3</ele></trkpt>
<trkpt lat="47.867411" lon="12.793525"><ele>542.7</ele></trkpt>
<trkpt lat="47.868278" lon="12.791763"><ele>546.1</ele></trkpt>
<trkpt lat="47.868462" lon="12.791364"><ele>545.2</ele></trkpt>
<trkpt lat="47.869115" lon="12.789601"><ele>546.5</ele></trkpt>
<trkpt lat="47.869679" lon="12.787786"><ele>548.8</ele></trkpt>
<trkpt lat="47.870369" lon="12.785921"><ele>546.5</ele></trkpt>
<trkpt lat="47.870514" lon="12.785589"><ele>546.0</ele></trkpt>
<trkpt lat="47.871387" lon="12.784320"><ele>547.0</ele></trkpt>
<trkpt lat="47.872643" lon="12.783086"><ele>549.9</ele></trkpt>
<trkpt lat="47.872850" lon="12.782851"><ele>550.7</ele></trkpt>
<trkpt lat="47.874214" lon="12.781903"><ele>554.1</ele></trkpt>
<trkpt lat="47.875246" lon="12.781270"><ele>554.4</ele></trkpt>
<trkpt lat="47.876538" lon="12.780633"><ele>559.6</ele></trkpt>
<trkpt lat="47.877942" lon="12.780034"><ele>567.7</ele></trkpt>
<trkpt lat="47.878985" lon="12.779665"><ele>568.1</ele></trkpt>
<trkpt lat="47.880326" lon="12.779287"><ele>557.7</ele></trkpt>
<trkpt lat="47.881700" lon="12.778952"><ele>560.5</ele></trkpt>
<trkpt lat="47.883039" lon="12.778650"><ele>557.2</ele></trkpt>
<trkpt lat="47.884460" lon="12.778320"><ele>554.9</ele></trkpt>
<trkpt lat="47.885521" lon="12.778042"><ele>555.0</ele></trkpt>
<trkpt lat="47.886870" lon="12.777588"><ele>553.0</ele></trkpt>
<trkpt lat="47.888225" lon="12.777075"><ele>548.9</ele></trkpt>
<trkpt lat="47.889185" lon="12.776777"><ele>549.6</ele></trkpt>
<trkpt lat="47.890591" lon="12.776585"><ele>546.9</ele></trkpt>
<trkpt lat="47.892086" lon="12.776493"><ele>543.4</ele></trkpt>
<trkpt lat="47.893496" lon="12.776302"><ele>546.0</ele></trkpt>
<trkpt lat="47.894180" lon="12.776124"><ele>543.9</ele></trkpt>
<trkpt lat="47.895630" lon="12.775542"><ele>544.7</ele></trkpt>
<trkpt lat="47.896963" lon="12.774853"><ele>546.0</ele></trkpt>
<trkpt lat="47.898242" lon="12.774214"><ele>546.9</ele></trkpt>
<trkpt lat="47.899663" lon="12.773659"><ele>548.7</ele></trkpt>
<trkpt lat="47.900005" lon="12.773555"><ele>549.4</ele></trkpt>
<trkpt lat="47.901491" lon="12.773309"><ele>545.2</ele></trkpt>
<trkpt lat="47.902722" lon="12.773322"><ele>543.2</ele></trkpt>
<trkpt lat="47.904234" lon="12.773540"><ele>541.8</ele></trkpt>
<trkpt lat="47.905649" lon="12.773858"><ele>532.7</ele></trkpt>
<trkpt lat="47.907126" lon="12.773976"><ele>527.7</ele></trkpt>
<trkpt lat="47.907207" lon="12.773968"><ele>526.9</ele></trkpt>
<trkpt lat="47.908488" lon="12.773590"><ele>532.2</ele></trkpt>
<trkpt lat="47.909825" lon="12.772838"><ele>513.7</ele></trkpt>
<trkpt lat="47.910652" lon="12.772467"><ele>505.5</ele></trkpt>
<trkpt lat="47.912146" lon="12.772213"><ele>495.5</ele></trkpt>
<trkpt lat="47.912862" lon="12.772149"><ele>491.6</ele></trkpt>
<trkpt lat="47.914144" lon="12.771689"><ele>485.2</ele></trkpt>
<trkpt lat="47.915435" lon="12.770721"><ele>481.6</ele></trkpt>
<trkpt lat="47.915682" lon="12.770488"><ele>482.7</ele></trkpt>
<trkpt lat="47.916869" lon="12.769129"><ele>482.7</ele></trkpt>
<trkpt lat="47.916932" lon="12.769047"><ele>482.5</ele></trkpt>
<trkpt lat="47.917999" lon="12.767466"><ele>485.0</ele></trkpt>
<trkpt lat="47.918070" lon="12.767347"><ele>485.1</ele></trkpt>
<trkpt lat="47.918994" lon="12.765622"><ele>486.6</ele></trkpt>
<trkpt lat="47.919278" lon="12.765044"><ele>483.7</ele></trkpt>
<trkpt lat="47.919992" lon="12.763332"><ele>486.8</ele></trkpt>
<trkpt lat="47.920673" lon="12.761408"><ele>479.8</ele></trkpt>
<trkpt lat="47.920769" lon="12.761102"><ele>481.0</ele></trkpt>
<trkpt lat="47.921261" lon="12.759186"><ele>479.3</ele></trkpt>
<trkpt lat="47.921662" lon="12.757223"><ele>477.0</ele></trkpt>
<trkpt lat="47.921923" lon="12.756010"><ele>477.5</ele></trkpt>
<trkpt lat="47.922514" lon="12.754103"><ele>478.2</ele></trkpt>
<trkpt lat="47.922612" lon="12.753855"><ele>478.2</ele></trkpt>
<trkpt lat="47.923169" lon="12.752739"><ele>474.4</ele></trkpt>
<trkpt lat="47.923861" lon="12.751820"><ele>479.5</ele></trkpt>
<trkpt lat="47.925087" lon="12.750753"><ele>476.0</ele></trkpt>
<trkpt lat="47.925486" lon="12.750547"><ele>472.8</ele></trkpt>
<trkpt lat="47.925133" lon="12.750020"><ele>475.0</ele></trkpt>
<trkpt lat="47.924631" lon="12.749928"><ele>477.7</ele></trkpt>
<trkpt lat="47.924529" lon="12.749348"><ele>476.6</ele></trkpt>
<trkpt lat="47.925008" lon="12.748427"><ele>475.0</ele></trkpt>
<trkpt lat="47.926150" lon="12.747319"><ele>475.0</ele></trkpt>
<trkpt lat="47.927308" lon="12.746115"><ele>470.3</ele></trkpt>
<trkpt lat="47.928508" lon="12.744984"><ele>467.8</ele></trkpt>
<trkpt lat="47.929503" lon="12.743663"><ele>467.6</ele></trkpt>
<trkpt lat="47.930076" lon="12.742377"><ele>467.5</ele></trkpt>
<trkpt lat="47.931165" lon="12.742120"><ele>466.4</ele></trkpt>
<trkpt lat="47.931523" lon="12.740146"><ele>467.0</ele></trkpt>
<trkpt lat="47.931671" lon="12.739551"><ele>468.6</ele></trkpt>
<trkpt lat="47.932028" lon="12.739772"><ele>467.2</ele></trkpt>
<trkpt lat="47.932278" lon="12.739582"><ele>467.7</ele></trkpt>
<trkpt lat="47.933073" lon="12.741143"><ele>466.9</ele></trkpt>
<trkpt lat="47.933353" lon="12.739066"><ele>466.9</ele></trkpt>
<trkpt lat="47.933684" lon="12.737541"><ele>464.9</ele></trkpt>
<trkpt lat="47.933669" lon="12.736489"><ele>465.5</ele></trkpt>
<trkpt lat="47.934343" lon="12.735888"><ele>466.7</ele></trkpt>
<trkpt lat="47.935592" lon="12.735160"><ele>461.8</ele></trkpt>
<trkpt lat="47.935807" lon="12.735068"><ele>461.8</ele></trkpt>
<trkpt lat="47.935873" lon="12.734250"><ele>464.3</ele></trkpt>
<trkpt lat="47.936355" lon="12.734695"><ele>464.9</ele></trkpt>
<trkpt lat="47.936747" lon="12.734724"><ele>462.9</ele></trkpt>
<trkpt lat="47.937728" lon="12.733296"><ele>473.8</ele></trkpt>
<trkpt lat="47.937853" lon="12.733149"><ele>473.2</ele></trkpt>
<trkpt lat="47.938597" lon="12.732650"><ele>473.0</ele></trkpt>
<trkpt lat="47.940043" lon="12.732676"><ele>476.9</ele></trkpt>
<trkpt lat="47.941467" lon="12.732822"><ele>472.9</ele></trkpt>
<trkpt lat="47.941699" lon="12.732805"><ele>472.1</ele></trkpt>
<trkpt lat="47.943094" lon="12.732204"><ele>474.1</ele></trkpt>
<trkpt lat="47.943535" lon="12.732062"><ele>474.8</ele></trkpt>
<trkpt lat="47.944906" lon="12.732206"><ele>461.1</ele></trkpt>
<trkpt lat="47.944942" lon="12.732209"><ele>460.7</ele></trkpt>
<trkpt lat="47.945730" lon="12.732614"><ele>459.7</ele></trkpt>
<trkpt lat="47.946983" lon="12.733807"><ele>459.0</ele></trkpt>
<trkpt lat="47.947020" lon="12.733854"><ele>459.1</ele></trkpt>
<trkpt lat="47.947598" lon="12.735253"><ele>454.3</ele></trkpt>
<trkpt lat="47.948474" lon="12.735190"><ele>460.9</ele></trkpt>
<trkpt lat="47.949895" lon="12.734787"><ele>453.2</ele></trkpt>
<trkpt lat="47.950783" lon="12.734464"><ele>450.0</ele></trkpt>
<trkpt lat="47.952228" lon="12.733811"><ele>449.3</ele></trkpt>
<trkpt lat="47.953549" lon="12.733014"><ele>450.1</ele></trkpt>
<trkpt lat="47.953595" lon="12.732986"><ele>450.2</ele></trkpt>
<trkpt lat="47.953801" lon="12.733493"><ele>450.2</ele></trkpt>
<trkpt lat="47.954155" lon="12.735121"><ele>445.0</ele></trkpt>
<trkpt lat="47.954405" lon="12.737285"><ele>444.1</ele></trkpt>
<trkpt lat="47.954506" lon="12.738683"><ele>443.8</ele></trkpt>
<trkpt lat="47.954408" lon="12.740725"><ele>443.3</ele></trkpt>
<trkpt lat="47.954201" lon="12.742956"><ele>442.4</ele></trkpt>
<trkpt lat="47.954007" lon="12.745116"><ele>441.4</ele></trkpt>
<trkpt lat="47.953810" lon="12.747197"><ele>439.8</ele></trkpt>
<trkpt lat="47.953583" lon="12.749189"><ele>443.7</ele></trkpt>
<trkpt lat="47.953586" lon="12.749242"><ele>443.1</ele></trkpt>
<trkpt lat="47.953741" lon="12.751125"><ele>445.0</ele></trkpt>
<trkpt lat="47.954018" lon="12.752509"><ele>451.2</ele></trkpt>
<trkpt lat="47.954898" lon="12.753181"><ele>461.1</ele></trkpt>
<trkpt lat="47.955005" lon="12.753505"><ele>463.6</ele></trkpt>
<trkpt lat="47.955355" lon="12.753468"><ele>462.8</ele></trkpt>
<trkpt lat="47.954055" lon="12.752579"><ele>452.0</ele></trkpt>
<trkpt lat="47.953741" lon="12.751125"><ele>445.0</ele></trkpt>
<trkpt lat="47.953573" lon="12.749037"><ele>443.4</ele></trkpt>
<trkpt lat="47.953579" lon="12.748908"><ele>443.0</ele></trkpt>
<trkpt lat="47.953848" lon="12.746822"><ele>441.0</ele></trkpt>
<trkpt lat="47.954048" lon="12.744668"><ele>442.2</ele></trkpt>
<trkpt lat="47.954231" lon="12.742618"><ele>443.7</ele></trkpt>
<trkpt lat="47.954420" lon="12.740573"><ele>443.9</ele></trkpt>
<trkpt lat="47.954506" lon="12.738683"><ele>443.8</ele></trkpt>
<trkpt lat="47.954319" lon="12.736516"><ele>444.2</ele></trkpt>
<trkpt lat="47.954087" lon="12.734679"><ele>445.7</ele></trkpt>
<trkpt lat="47.953595" lon="12.732986"><ele>450.2</ele></trkpt>
<trkpt lat="47.952305" lon="12.733773"><ele>449.3</ele></trkpt>
<trkpt lat="47.952287" lon="12.733783"><ele>449.3</ele></trkpt>
<trkpt lat="47.950852" lon="12.734434"><ele>449.9</ele></trkpt>
<trkpt lat="47.949545" lon="12.734913"><ele>457.4</ele></trkpt>
<trkpt lat="47.948115" lon="12.735229"><ele>461.1</ele></trkpt>
<trkpt lat="47.947049" lon="12.735305"><ele>450.4</ele></trkpt>
<trkpt lat="47.947034" lon="12.735570"><ele>448.6</ele></trkpt>
<trkpt lat="47.946735" lon="12.735599"><ele>448.8</ele></trkpt>
<trkpt lat="47.946379" lon="12.736147"><ele>450.5</ele></trkpt>
<trkpt lat="47.945329" lon="12.737065"><ele>460.0</ele></trkpt>
<trkpt lat="47.944222" lon="12.738519"><ele>447.1</ele></trkpt>
<trkpt lat="47.943822" lon="12.739061"><ele>448.0</ele></trkpt>
<trkpt lat="47.943645" lon="12.740614"><ele>446.5</ele></trkpt>
<trkpt lat="47.943351" lon="12.741132"><ele>447.9</ele></trkpt>
<trkpt lat="47.942424" lon="12.741158"><ele>454.1</ele></trkpt>
<trkpt lat="47.941845" lon="12.742933"><ele>449.0</ele></trkpt>
<trkpt lat="47.941632" lon="12.743703"><ele>449.6</ele></trkpt>
<trkpt lat="47.941238" lon="12.744234"><ele>447.3</ele></trkpt>
<trkpt lat="47.940827" lon="12.745963"><ele>448.1</ele></trkpt>
<trkpt lat="47.940373" lon="12.746073"><ele>453.3</ele></trkpt>
<trkpt lat="47.939271" lon="12.747048"><ele>452.7</ele></trkpt>
<trkpt lat="47.938486" lon="12.748670"><ele>450.3</ele></trkpt>
<trkpt lat="47.938331" lon="12.749055"><ele>450.4</ele></trkpt>
<trkpt lat="47.937734" lon="12.749181"><ele>450.0</ele></trkpt>
<trkpt lat="47.936933" lon="12.750815"><ele>447.0</ele></trkpt>
<trkpt lat="47.936609" lon="12.751733"><ele>449.4</ele></trkpt>
<trkpt lat="47.936236" lon="12.752172"><ele>450.5</ele></trkpt>
<trkpt lat="47.935907" lon="12.753949"><ele>450.7</ele></trkpt>
<trkpt lat="47.935251" lon="12.755763"><ele>447.3</ele></trkpt>
<trkpt lat="47.934602" lon="12.757422"><ele>448.3</ele></trkpt>
<trkpt lat="47.934154" lon="12.759376"><ele>446.8</ele></trkpt>
<trkpt lat="47.934152" lon="12.759389"><ele>446.8</ele></trkpt>
<trkpt lat="47.934104" lon="12.761584"><ele>457.6</ele></trkpt>
<trkpt lat="47.934101" lon="12.762683"><ele>463.0</ele></trkpt>
<trkpt lat="47.934339" lon="12.764807"><ele>457.2</ele></trkpt>
<trkpt lat="47.934431" lon="12.765677"><ele>464.9</ele></trkpt>
<trkpt lat="47.934356" lon="12.767700"><ele>464.6</ele></trkpt>
<trkpt lat="47.934280" lon="12.768708"><ele>462.5</ele></trkpt>
<trkpt lat="47.933952" lon="12.770479"><ele>453.9</ele></trkpt>
<trkpt lat="47.933274" lon="12.772278"><ele>454.9</ele></trkpt>
<trkpt lat="47.933167" lon="12.772606"><ele>458.2</ele></trkpt>
<trkpt lat="47.932815" lon="12.774565"><ele>461.5</ele></trkpt>
<trkpt lat="47.932727" lon="12.775393"><ele>464.2</ele></trkpt>
<trkpt lat="47.932405" lon="12.776319"><ele>459.9</ele></trkpt>
<trkpt lat="47.931147" lon="12.777566"><ele>450.3</ele></trkpt>
<trkpt lat="47.930667" lon="12.777907"><ele>449.4</ele></trkpt>
<trkpt lat="47.929198" lon="12.778046"><ele>448.0</ele></trkpt>
<trkpt lat="47.928519" lon="12.778124"><ele>450.3</ele></trkpt>
<trkpt lat="47.927787" lon="12.778533"><ele>448.5</ele></trkpt>
<trkpt lat="47.927021" lon="12.779348"><ele>446.1</ele></trkpt>
<trkpt lat="47.926076" lon="12.780621"><ele>455.7</ele></trkpt>
<trkpt lat="47.925124" lon="12.782355"><ele>456.0</ele></trkpt>
<trkpt lat="47.924092" lon="12.783964"><ele>456.6</ele></trkpt>
<trkpt lat="47.923813" lon="12.784420"><ele>449.2</ele></trkpt>
<trkpt lat="47.923227" lon="12.786461"><ele>445.7</ele></trkpt>
<trkpt lat="47.923173" lon="12.786688"><ele>446.1</ele></trkpt>
<trkpt lat="47.922492" lon="12.788046"><ele>448.0</ele></trkpt>
<trkpt lat="47.921288" lon="12.789096"><ele>453.8</ele></trkpt>
<trkpt lat="47.920575" lon="12.789856"><ele>456.1</ele></trkpt>
<trkpt lat="47.919504" lon="12.791418"><ele>467.7</ele></trkpt>
<trkpt lat="47.918415" lon="12.792736"><ele>463.0</ele></trkpt>
<trkpt lat="47.918270" lon="12.792941"><ele>459.8</ele></trkpt>
<trkpt lat="47.917365" lon="12.794583"><ele>456.5</ele></trkpt>
<trkpt lat="47.916837" lon="12.795390"><ele>457.4</ele></trkpt>
<trkpt lat="47.915723" lon="12.796692"><ele>460.4</ele></trkpt>
<trkpt lat="47.914587" lon="12.798031"><ele>466.7</ele></trkpt>
<trkpt lat="47.914508" lon="12.798138"><ele>466.9</ele></trkpt>
<trkpt lat="47.913605" lon="12.799692"><ele>465.0</ele></trkpt>
<trkpt lat="47.913424" lon="12.800086"><ele>463.0</ele></trkpt>
<trkpt lat="47.912889" lon="12.802166"><ele>457.7</ele></trkpt>
<trkpt lat="47.912355" lon="12.804035"><ele>451.0</ele></trkpt>
<trkpt lat="47.912355" lon="12.804035"><ele>451.0</ele></trkpt>
<trkpt lat="47.911480" lon="12.805816"><ele>449.7</ele></trkpt>
<trkpt lat="47.911386" lon="12.806075"><ele>450.0</ele></trkpt>
<trkpt lat="47.911536" lon="12.806643"><ele>449.5</ele></trkpt>
<trkpt lat="47.911470" lon="12.807305"><ele>449.0</ele></trkpt>
<trkpt lat="47.911985" lon="12.808333"><ele>447.1</ele></trkpt>
<trkpt lat="47.912365" lon="12.810213"><ele>447.5</ele></trkpt>
<trkpt lat="47.912443" lon="12.810465"><ele>447.8</ele></trkpt>
<trkpt lat="47.913375" lon="12.812125"><ele>448.9</ele></trkpt>
<trkpt lat="47.913391" lon="12.812176"><ele>448.8</ele></trkpt>
<trkpt lat="47.913173" lon="12.812455"><ele>447.6</ele></trkpt>
<trkpt lat="47.913211" lon="12.813145"><ele>445.0</ele></trkpt>
<trkpt lat="47.912520" lon="12.814419"><ele>446.1</ele></trkpt>
<trkpt lat="47.912247" lon="12.815882"><ele>448.2</ele></trkpt>
<trkpt lat="47.911590" lon="12.817698"><ele>449.9</ele></trkpt>
<trkpt lat="47.911389" lon="12.818214"><ele>450.0</ele></trkpt>
<trkpt lat="47.910657" lon="12.818953"><ele>452.6</ele></trkpt>
<trkpt lat="47.909671" lon="12.819540"><ele>449.5</ele></trkpt>
<trkpt lat="47.908328" lon="12.820001"><ele>449.0</ele></trkpt>
<trkpt lat="47.907126" lon="12.820581"><ele>452.6</ele></trkpt>
<trkpt lat="47.905667" lon="12.820689"><ele>452.7</ele></trkpt>
<trkpt lat="47.904355" lon="12.820893"><ele>452.8</ele></trkpt>
<trkpt lat="47.903455" lon="12.821900"><ele>450.6</ele></trkpt>
<trkpt lat="47.903061" lon="12.821784"><ele>450.0</ele></trkpt>
<trkpt lat="47.902024" lon="12.823270"><ele>449.5</ele></trkpt>
<trkpt lat="47.901040" lon="12.824677"><ele>449.2</ele></trkpt>
<trkpt lat="47.900047" lon="12.826160"><ele>450.4</ele></trkpt>
<trkpt lat="47.899974" lon="12.826270"><ele>449.9</ele></trkpt>
<trkpt lat="47.899197" lon="12.827729"><ele>448.1</ele></trkpt>
<trkpt lat="47.898406" lon="12.829445"><ele>450.0</ele></trkpt>
<trkpt lat="47.898075" lon="12.830250"><ele>447.2</ele></trkpt>
<trkpt lat="47.897467" lon="12.832324"><ele>448.3</ele></trkpt>
<trkpt lat="47.896905" lon="12.834171"><ele>447.4</ele></trkpt>
<trkpt lat="47.896377" lon="12.835556"><ele>448.9</ele></trkpt>
<trkpt lat="47.895488" lon="12.837105"><ele>451.2</ele></trkpt>
<trkpt lat="47.895079" lon="12.837646"><ele>448.1</ele></trkpt>
<trkpt lat="47.893848" lon="12.838738"><ele>450.2</ele></trkpt>
<trkpt lat="47.892678" lon="12.839751"><ele>446.3</ele></trkpt>
<trkpt lat="47.892027" lon="12.840348"><ele>446.4</ele></trkpt>
<trkpt lat="47.890870" lon="12.841603"><ele>446.0</ele></trkpt>
<trkpt lat="47.889732" lon="12.842847"><ele>445.2</ele></trkpt>
<trkpt lat="47.889259" lon="12.843372"><ele>447.7</ele></trkpt>
<trkpt lat="47.888266" lon="12.844733"><ele>451.7</ele></trkpt>
<trkpt lat="47.887183" lon="12.846233"><ele>449.2</ele></trkpt>
<trkpt lat="47.886663" lon="12.846752"><ele>451.3</ele></trkpt>
<trkpt lat="47.885960" lon="12.848136"><ele>456.5</ele></trkpt>
<trkpt lat="47.885550" lon="12.848166"><ele>456.0</ele></trkpt>
<trkpt lat="47.884997" lon="12.848813"><ele>451.2</ele></trkpt>
<trkpt lat="47.884653" lon="12.849782"><ele>447.3</ele></trkpt>
<trkpt lat="47.883845" lon="12.849377"><ele>440.6</ele></trkpt>
<trkpt lat="47.883170" lon="12.847603"><ele>440.2</ele></trkpt>
<trkpt lat="47.882762" lon="12.847152"><ele>442.0</ele></trkpt>
<trkpt lat="47.881969" lon="12.845516"><ele>444.9</ele></trkpt>
<trkpt lat="47.881658" lon="12.844863"><ele>451.6</ele></trkpt>
<trkpt lat="47.880671" lon="12.846449"><ele>451.9</ele></trkpt>
<trkpt lat="47.880232" lon="12.847235"><ele>452.3</ele></trkpt>
<trkpt lat="47.879406" lon="12.848897"><ele>453.1</ele></trkpt>
<trkpt lat="47.878828" lon="12.850109"><ele>456.5</ele></trkpt>
<trkpt lat="47.877628" lon="12.851284"><ele>462.7</ele></trkpt>
<trkpt lat="47.877359" lon="12.851608"><ele>463.0</ele></trkpt>
<trkpt lat="47.876670" lon="12.853366"><ele>464.0</ele></trkpt>
<trkpt lat="47.875698" lon="12.854932"><ele>469.2</ele></trkpt>
<trkpt lat="47.875590" lon="12.855178"><ele>469.3</ele></trkpt>
<trkpt lat="47.874351" lon="12.856100"><ele>476.0</ele></trkpt>
<trkpt lat="47.874156" lon="12.856153"><ele>477.9</ele></trkpt>
<trkpt lat="47.873304" lon="12.856071"><ele>476.4</ele></trkpt>
<trkpt lat="47.872698" lon="12.855761"><ele>482.7</ele></trkpt>
<trkpt lat="47.871578" lon="12.856917"><ele>482.3</ele></trkpt>
<trkpt lat="47.870382" lon="12.858051"><ele>492.1</ele></trkpt>
<trkpt lat="47.870313" lon="12.858117"><ele>493.1</ele></trkpt>
<trkpt lat="47.869322" lon="12.859669"><ele>499.6</ele></trkpt>
<trkpt lat="47.868397" lon="12.861199"><ele>494.4</ele></trkpt>
<trkpt lat="47.867410" lon="12.862878"><ele>505.8</ele></trkpt>
<trkpt lat="47.867286" lon="12.863092"><ele>507.7</ele></trkpt>
<trkpt lat="47.866585" lon="12.865007"><ele>505.9</ele></trkpt>
<trkpt lat="47.866544" lon="12.865124"><ele>504.9</ele></trkpt>
<trkpt lat="47.865663" lon="12.866724"><ele>502.9</ele></trkpt>
<trkpt lat="47.865631" lon="12.866776"><ele>502.4</ele></trkpt>
<trkpt lat="47.864518" lon="12.867916"><ele>497.5</ele></trkpt>
<trkpt lat="47.863760" lon="12.868814"><ele>500.0</ele></trkpt>
<trkpt lat="47.863063" lon="12.870279"><ele>500.9</ele></trkpt>
<trkpt lat="47.861688" lon="12.870956"><ele>500.6</ele></trkpt>
<trkpt lat="47.861717" lon="12.871484"><ele>500.6</ele></trkpt>
<trkpt lat="47.861310" lon="12.871710"><ele>497.9</ele></trkpt>
<trkpt lat="47.861132" lon="12.872630"><ele>497.0</ele></trkpt>
<trkpt lat="47.861002" lon="12.872687"><ele>497.0</ele></trkpt>
<trkpt lat="47.861018" lon="12.874668"><ele>487.1</ele></trkpt>
<trkpt lat="47.860495" lon="12.876683"><ele>482.2</ele></trkpt>
<trkpt lat="47.860418" lon="12.877406"><ele>481.8</ele></trkpt>
<trkpt lat="47.860563" lon="12.879510"><ele>478.7</ele></trkpt>
<trkpt lat="47.860783" lon="12.881547"><ele>467.9</ele></trkpt>
<trkpt lat="47.860997" lon="12.883526"><ele>469.7</ele></trkpt>
<trkpt lat="47.861040" lon="12.884042"><ele>472.6</ele></trkpt>
<trkpt lat="47.860864" lon="12.885839"><ele>478.2</ele></trkpt>
<trkpt lat="47.860561" lon="12.887274"><ele>470.2</ele></trkpt>
<trkpt lat="47.859876" lon="12.889214"><ele>443.9</ele></trkpt>
<trkpt lat="47.859831" lon="12.889339"><ele>443.2</ele></trkpt>
<trkpt lat="47.859103" lon="12.891032"><ele>442.4</ele></trkpt>
<trkpt lat="47.858279" lon="12.892707"><ele>442.1</ele></trkpt>
<trkpt lat="47.857594" lon="12.894253"><ele>438.6</ele></trkpt>
<trkpt lat="47.857258" lon="12.895507"><ele>441.9</ele></trkpt>
<trkpt lat="47.857162" lon="12.896603"><ele>441.2</ele></trkpt>
<trkpt lat="47.857235" lon="12.897920"><ele>442.5</ele></trkpt>
<trkpt lat="47.857586" lon="12.899242"><ele>439.6</ele></trkpt>
<trkpt lat="47.858434" lon="12.900896"><ele>435.9</ele></trkpt>
<trkpt lat="47.859333" lon="12.902563"><ele>438.5</ele></trkpt>
<trkpt lat="47.860233" lon="12.904231"><ele>441.8</ele></trkpt>
<trkpt lat="47.861042" lon="12.905945"><ele>431.7</ele></trkpt>
<trkpt lat="47.861899" lon="12.907785"><ele>434.5</ele></trkpt>
<trkpt lat="47.862770" lon="12.909413"><ele>449.7</ele></trkpt>
<trkpt lat="47.862696" lon="12.910134"><ele>450.2</ele></trkpt>
<trkpt lat="47.861821" lon="12.911680"><ele>444.6</ele></trkpt>
<trkpt lat="47.860970" lon="12.913361"><ele>444.1</ele></trkpt>
<trkpt lat="47.860535" lon="12.914128"><ele>442.8</ele></trkpt>
<trkpt lat="47.860244" lon="12.914920"><ele>447.3</ele></trkpt>
<trkpt lat="47.860366" lon="12.916299"><ele>452.8</ele></trkpt>
<trkpt lat="47.861095" lon="12.918055"><ele>446.9</ele></trkpt>
<trkpt lat="47.861047" lon="12.920096"><ele>451.4</ele></trkpt>
<trkpt lat="47.860980" lon="12.920483"><ele>452.8</ele></trkpt>
<trkpt lat="47.861224" lon="12.921166"><ele>454.9</ele></trkpt>
<trkpt lat="47.861460" lon="12.921374"><ele>456.3</ele></trkpt>
<trkpt lat="47.861453" lon="12.921671"><ele>455.5</ele></trkpt>
<trkpt lat="47.861003" lon="12.922175"><ele>449.2</ele></trkpt>
<trkpt lat="47.860538" lon="12.923659"><ele>448.9</ele></trkpt>
<trkpt lat="47.860304" lon="12.925880"><ele>448.5</ele></trkpt>
<trkpt lat="47.860211" lon="12.927954"><ele>443.1</ele></trkpt>
<trkpt lat="47.859755" lon="12.929989"><ele>446.6</ele></trkpt>
<trkpt lat="47.859699" lon="12.930200"><ele>445.4</ele></trkpt>
<trkpt lat="47.858979" lon="12.932095"><ele>442.7</ele></trkpt>
<trkpt lat="47.858971" lon="12.932113"><ele>442.7</ele></trkpt>
<trkpt lat="47.858117" lon="12.933836"><ele>433.8</ele></trkpt>
<trkpt lat="47.857786" lon="12.934447"><ele>431.1</ele></trkpt>
<trkpt lat="47.857166" lon="12.935390"><ele>435.4</ele></trkpt>
<trkpt lat="47.856677" lon="12.935676"><ele>432.0</ele></trkpt>
<trkpt lat="47.856465" lon="12.936249"><ele>436.4</ele></trkpt>
<trkpt lat="47.855249" lon="12.937152"><ele>434.0</ele></trkpt>
<trkpt lat="47.854023" lon="12.938127"><ele>431.0</ele></trkpt>
<trkpt lat="47.852736" lon="12.939155"><ele>445.2</ele></trkpt>
<trkpt lat="47.852522" lon="12.939367"><ele>444.4</ele></trkpt>
<trkpt lat="47.851394" lon="12.940822"><ele>441.0</ele></trkpt>
<trkpt lat="47.850344" lon="12.942138"><ele>439.5</ele></trkpt>
<trkpt lat="47.849233" lon="12.943635"><ele>433.8</ele></trkpt>
<trkpt lat="47.848858" lon="12.944015"><ele>432.4</ele></trkpt>
<trkpt lat="47.847499" lon="12.944514"><ele>428.0</ele></trkpt>
<trkpt lat="47.846862" lon="12.945028"><ele>423.9</ele></trkpt>
<trkpt lat="47.846462" lon="12.945628"><ele>425.7</ele></trkpt>
<trkpt lat="47.845791" lon="12.947386"><ele>423.8</ele></trkpt>
<trkpt lat="47.845735" lon="12.947509"><ele>423.6</ele></trkpt>
<trkpt lat="47.844670" lon="12.949042"><ele>422.2</ele></trkpt>
<trkpt lat="47.843835" lon="12.950291"><ele>421.4</ele></trkpt>
<trkpt lat="47.843705" lon="12.952308"><ele>423.8</ele></trkpt>
<trkpt lat="47.843679" lon="12.953373"><ele>423.8</ele></trkpt>
<trkpt lat="47.843553" lon="12.953372"><ele>424.2</ele></trkpt>
<trkpt lat="47.843413" lon="12.955453"><ele>422.7</ele></trkpt>
<trkpt lat="47.843407" lon="12.955508"><ele>422.7</ele></trkpt>
<trkpt lat="47.843633" lon="12.957469"><ele>425.0</ele></trkpt>
<trkpt lat="47.843887" lon="12.958563"><ele>422.0</ele></trkpt>
<trkpt lat="47.843984" lon="12.960051"><ele>423.0</ele></trkpt>
<trkpt lat="47.843755" lon="12.962159"><ele>423.8</ele></trkpt>
<trkpt lat="47.843728" lon="12.962981"><ele>422.7</ele></trkpt>
<trkpt lat="47.843367" lon="12.965007"><ele>424.0</ele></trkpt>
<trkpt lat="47.843269" lon="12.965888"><ele>422.8</ele></trkpt>
<trkpt lat="47.843261" lon="12.968134"><ele>425.5</ele></trkpt>
<trkpt lat="47.843242" lon="12.969475"><ele>423.0</ele></trkpt>
<trkpt lat="47.842929" lon="12.971567"><ele>421.5</ele></trkpt>
<trkpt lat="47.842794" lon="12.972475"><ele>423.9</ele></trkpt>
<trkpt lat="47.842312" lon="12.972335"><ele>424.1</ele></trkpt>
<trkpt lat="47.841442" lon="12.973057"><ele>420.2</ele></trkpt>
<trkpt lat="47.841146" lon="12.975131"><ele>421.4</ele></trkpt>
<trkpt lat="47.840888" lon="12.977232"><ele>421.2</ele></trkpt>
<trkpt lat="47.840813" lon="12.977883"><ele>420.9</ele></trkpt>
<trkpt lat="47.839426" lon="12.977436"><ele>422.8</ele></trkpt>
<trkpt lat="47.838468" lon="12.977061"><ele>421.2</ele></trkpt>
<trkpt lat="47.838289" lon="12.978282"><ele>421.8</ele></trkpt>
<trkpt lat="47.837418" lon="12.979355"><ele>420.4</ele></trkpt>
<trkpt lat="47.837547" lon="12.978893"><ele>419.0</ele></trkpt>
<trkpt lat="47.836192" lon="12.978183"><ele>420.3</ele></trkpt>
<trkpt lat="47.836116" lon="12.978139"><ele>420.0</ele></trkpt>
<trkpt lat="47.836286" lon="12.976915"><ele>421.9</ele></trkpt>
<trkpt lat="47.835058" lon="12.976576"><ele>421.0</ele></trkpt>
<trkpt lat="47.834947" lon="12.976852"><ele>421.3</ele></trkpt>
<trkpt lat="47.834338" lon="12.976657"><ele>424.4</ele></trkpt>
<trkpt lat="47.833144" lon="12.975850"><ele>425.0</ele></trkpt>
<trkpt lat="47.832649" lon="12.975128"><ele>423.0</ele></trkpt>
<trkpt lat="47.831724" lon="12.974846"><ele>422.4</ele></trkpt>
<trkpt lat="47.830333" lon="12.974143"><ele>424.2</ele></trkpt>
<trkpt lat="47.829051" lon="12.973432"><ele>425.4</ele></trkpt>
<trkpt lat="47.828496" lon="12.975410"><ele>424.4</ele></trkpt>
<trkpt lat="47.828470" lon="12.975548"><ele>424.5</ele></trkpt>
<trkpt lat="47.827900" lon="12.975312"><ele>425.0</ele></trkpt>
<trkpt lat="47.827244" lon="12.976965"><ele>420.0</ele></trkpt>
<trkpt lat="47.827131" lon="12.976958"><ele>420.0</ele></trkpt>
<trkpt lat="47.826980" lon="12.976525"><ele>421.4</ele></trkpt>
<trkpt lat="47.825778" lon="12.975351"><ele>424.7</ele></trkpt>
<trkpt lat="47.825401" lon="12.974983"><ele>423.5</ele></trkpt>
<trkpt lat="47.824150" lon="12.974340"><ele>426.1</ele></trkpt>
<trkpt lat="47.823486" lon="12.973266"><ele>429.5</ele></trkpt>
<trkpt lat="47.822311" lon="12.972106"><ele>424.5</ele></trkpt>
<trkpt lat="47.821770" lon="12.971521"><ele>425.3</ele></trkpt>
<trkpt lat="47.821053" lon="12.972804"><ele>425.5</ele></trkpt>
<trkpt lat="47.819573" lon="12.972642"><ele>423.2</ele></trkpt>
<trkpt lat="47.819295" lon="12.972617"><ele>422.7</ele></trkpt>
<trkpt lat="47.818714" lon="12.972264"><ele>422.8</ele></trkpt>
<trkpt lat="47.817679" lon="12.970953"><ele>423.6</ele></trkpt>
<trkpt lat="47.816254" lon="12.970342"><ele>423.8</ele></trkpt>
<trkpt lat="47.815706" lon="12.969998"><ele>424.6</ele></trkpt>
<trkpt lat="47.815604" lon="12.968827"><ele>425.0</ele></trkpt>
<trkpt lat="47.814509" lon="12.967263"><ele>426.9</ele></trkpt>
<trkpt lat="47.814249" lon="12.966908"><ele>427.4</ele></trkpt>
<trkpt lat="47.814233" lon="12.966527"><ele>427.9</ele></trkpt>
<trkpt lat="47.812951" lon="12.965735"><ele>428.6</ele></trkpt>
<trkpt lat="47.812373" lon="12.965365"><ele>426.9</ele></trkpt>
<trkpt lat="47.812076" lon="12.966190"><ele>426.5</ele></trkpt>
<trkpt lat="47.812218" lon="12.965578"><ele>427.0</ele></trkpt>
<trkpt lat="47.811046" lon="12.964597"><ele>425.8</ele></trkpt>
<trkpt lat="47.809975" lon="12.963264"><ele>429.7</ele></trkpt>
<trkpt lat="47.809585" lon="12.963174"><ele>429.5</ele></trkpt>
<trkpt lat="47.808284" lon="12.962185"><ele>431.1</ele></trkpt>
<trkpt lat="47.807714" lon="12.961761"><ele>432.0</ele></trkpt>
<trkpt lat="47.806287" lon="12.960993"><ele>433.0</ele></trkpt>
<trkpt lat="47.805407" lon="12.960525"><ele>435.5</ele></trkpt>
<trkpt lat="47.804724" lon="12.959917"><ele>434.7</ele></trkpt>
<trkpt lat="47.804359" lon="12.959451"><ele>432.6</ele></trkpt>
<trkpt lat="47.803624" lon="12.957724"><ele>433.2</ele></trkpt>
<trkpt lat="47.803415" lon="12.957186"><ele>435.5</ele></trkpt>
<trkpt lat="47.802588" lon="12.955624"><ele>433.3</ele></trkpt>
<trkpt lat="47.802454" lon="12.955375"><ele>433.3</ele></trkpt>
<trkpt lat="47.801140" lon="12.954729"><ele>434.9</ele></trkpt>
<trkpt lat="47.800462" lon="12.954006"><ele>433.2</ele></trkpt>
<trkpt lat="47.799732" lon="12.952249"><ele>432.9</ele></trkpt>
<trkpt lat="47.799066" lon="12.950463"><ele>436.2</ele></trkpt>
<trkpt lat="47.798965" lon="12.950196"><ele>436.6</ele></trkpt>
<trkpt lat="47.798261" lon="12.949103"><ele>438.9</ele></trkpt>
<trkpt lat="47.797843" lon="12.948815"><ele>439.4</ele></trkpt>
<trkpt lat="47.796461" lon="12.948453"><ele>437.1</ele></trkpt>
<trkpt lat="47.796049" lon="12.948332"><ele>438.0</ele></trkpt>
<trkpt lat="47.795176" lon="12.947831"><ele>439.8</ele></trkpt>
<trkpt lat="47.793891" lon="12.947707"><ele>436.3</ele></trkpt>
<trkpt lat="47.792822" lon="12.947198"><ele>438.5</ele></trkpt>
<trkpt lat="47.791397" lon="12.947134"><ele>439.6</ele></trkpt>
<trkpt lat="47.791299" lon="12.947135"><ele>440.1</ele></trkpt>
<trkpt lat="47.790683" lon="12.947401"><ele>440.8</ele></trkpt>
<trkpt lat="47.790239" lon="12.946875"><ele>445.0</ele></trkpt>
<trkpt lat="47.789639" lon="12.945326"><ele>450.1</ele></trkpt>
<trkpt lat="47.788599" lon="12.943799"><ele>452.8</ele></trkpt>
<trkpt lat="47.788554" lon="12.943727"><ele>452.1</ele></trkpt>
<trkpt lat="47.788322" lon="12.941685"><ele>444.9</ele></trkpt>
<trkpt lat="47.787431" lon="12.940056"><ele>445.8</ele></trkpt>
<trkpt lat="47.787178" lon="12.939675"><ele>447.5</ele></trkpt>
<trkpt lat="47.785912" lon="12.938878"><ele>443.9</ele></trkpt>
<trkpt lat="47.784568" lon="12.938025"><ele>442.5</ele></trkpt>
<trkpt lat="47.783950" lon="12.937607"><ele>446.1</ele></trkpt>
<trkpt lat="47.783028" lon="12.937558"><ele>447.0</ele></trkpt>
<trkpt lat="47.782099" lon="12.937987"><ele>441.3</ele></trkpt>
<trkpt lat="47.780719" lon="12.937829"><ele>447.5</ele></trkpt>
<trkpt lat="47.780325" lon="12.937761"><ele>448.0</ele></trkpt>
<trkpt lat="47.779547" lon="12.937566"><ele>451.1</ele></trkpt>
<trkpt lat="47.778241" lon="12.936746"><ele>448.1</ele></trkpt>
<trkpt lat="47.777887" lon="12.936479"><ele>448.6</ele></trkpt>
<trkpt lat="47.777151" lon="12.935104"><ele>444.4</ele></trkpt>
<trkpt lat="47.776893" lon="12.933882"><ele>450.0</ele></trkpt>
<trkpt lat="47.776091" lon="12.931961"><ele>448.9</ele></trkpt>
<trkpt lat="47.776087" lon="12.931953"><ele>449.0</ele></trkpt>
<trkpt lat="47.775080" lon="12.930593"><ele>446.8</ele></trkpt>
<trkpt lat="47.775074" lon="12.930583"><ele>446.8</ele></trkpt>
<trkpt lat="47.774683" lon="12.930419"><ele>444.9</ele></trkpt>
<trkpt lat="47.773469" lon="12.929159"><ele>443.0</ele></trkpt>
<trkpt lat="47.773443" lon="12.929136"><ele>443.1</ele></trkpt>
<trkpt lat="47.772162" lon="12.928415"><ele>444.2</ele></trkpt>
<trkpt lat="47.771325" lon="12.927908"><ele>443.3</ele></trkpt>
<trkpt lat="47.770850" lon="12.925956"><ele>446.0</ele></trkpt>
<trkpt lat="47.770792" lon="12.925773"><ele>446.2</ele></trkpt>
<trkpt lat="47.769730" lon="12.924156"><ele>446.8</ele></trkpt>
<trkpt lat="47.769485" lon="12.923829"><ele>447.2</ele></trkpt>
<trkpt lat="47.768639" lon="12.923469"><ele>450.0</ele></trkpt>
<trkpt lat="47.768060" lon="12.922624"><ele>448.9</ele></trkpt>
<trkpt lat="47.767701" lon="12.922377"><ele>451.3</ele></trkpt>
<trkpt lat="47.767625" lon="12.922600"><ele>453.5</ele></trkpt>
<trkpt lat="47.767501" lon="12.922532"><ele>454.2</ele></trkpt>
<trkpt lat="47.766525" lon="12.921564"><ele>457.8</ele></trkpt>
<trkpt lat="47.765567" lon="12.922204"><ele>460.0</ele></trkpt>
<trkpt lat="47.764976" lon="12.922047"><ele>455.4</ele></trkpt>
<trkpt lat="47.764293" lon="12.921381"><ele>453.0</ele></trkpt>
<trkpt lat="47.763618" lon="12.920544"><ele>453.2</ele></trkpt>
<trkpt lat="47.763138" lon="12.919425"><ele>457.6</ele></trkpt>
<trkpt lat="47.762858" lon="12.919697"><ele>454.7</ele></trkpt>
<trkpt lat="47.761760" lon="12.918316"><ele>452.4</ele></trkpt>
<trkpt lat="47.760616" lon="12.916893"><ele>454.6</ele></trkpt>
<trkpt lat="47.759512" lon="12.915523"><ele>453.7</ele></trkpt>
<trkpt lat="47.758365" lon="12.914113"><ele>456.3</ele></trkpt>
<trkpt lat="47.757240" lon="12.912760"><ele>452.9</ele></trkpt>
<trkpt lat="47.756152" lon="12.911407"><ele>452.8</ele></trkpt>
<trkpt lat="47.755099" lon="12.910086"><ele>450.4</ele></trkpt>
<trkpt lat="47.754082" lon="12.908766"><ele>452.3</ele></trkpt>
<trkpt lat="47.753030" lon="12.907411"><ele>451.2</ele></trkpt>
<trkpt lat="47.751963" lon="12.906020"><ele>454.3</ele></trkpt>
<trkpt lat="47.750823" lon="12.904562"><ele>455.5</ele></trkpt>
<trkpt lat="47.750802" lon="12.904536"><ele>455.6</ele></trkpt>
<trkpt lat="47.750445" lon="12.904478"><ele>454.5</ele></trkpt>
<trkpt lat="47.750209" lon="12.903734"><ele>456.4</ele></trkpt>
<trkpt lat="47.749440" lon="12.902699"><ele>460.2</ele></trkpt>
<trkpt lat="47.748616" lon="12.902192"><ele>451.1</ele></trkpt>
<trkpt lat="47.748204" lon="12.901429"><ele>454.6</ele></trkpt>
<trkpt lat="47.748542" lon="12.900782"><ele>467.0</ele></trkpt>
<trkpt lat="47.747599" lon="12.899938"><ele>457.0</ele></trkpt>
<trkpt lat="47.746856" lon="12.900634"><ele>458.7</ele></trkpt>
<trkpt lat="47.746796" lon="12.900174"><ele>457.7</ele></trkpt>
<trkpt lat="47.745991" lon="12.898355"><ele>459.6</ele></trkpt>
<trkpt lat="47.745674" lon="12.897284"><ele>462.4</ele></trkpt>
<trkpt lat="47.745251" lon="12.896696"><ele>463.1</ele></trkpt>
<trkpt lat="47.744765" lon="12.895508"><ele>461.9</ele></trkpt>
<trkpt lat="47.744501" lon="12.895290"><ele>462.8</ele></trkpt>
<trkpt lat="47.744049" lon="12.894024"><ele>465.6</ele></trkpt>
<trkpt lat="47.743213" lon="12.892394"><ele>466.9</ele></trkpt>
<trkpt lat="47.742328" lon="12.890621"><ele>462.5</ele></trkpt>
<trkpt lat="47.742142" lon="12.890272"><ele>463.3</ele></trkpt>
<trkpt lat="47.741496" lon="12.889633"><ele>462.0</ele></trkpt>
<trkpt lat="47.740761" lon="12.887826"><ele>465.6</ele></trkpt>
<trkpt lat="47.740268" lon="12.886363"><ele>466.0</ele></trkpt>
<trkpt lat="47.739455" lon="12.884715"><ele>467.0</ele></trkpt>
<trkpt lat="47.738668" lon="12.882994"><ele>466.6</ele></trkpt>
<trkpt lat="47.737817" lon="12.881371"><ele>463.7</ele></trkpt>
<trkpt lat="47.737043" lon="12.879701"><ele>463.6</ele></trkpt>
<trkpt lat="47.736231" lon="12.878030"><ele>463.1</ele></trkpt>
<trkpt lat="47.735357" lon="12.876200"><ele>464.3</ele></trkpt>
<trkpt lat="47.734853" lon="12.875306"><ele>465.1</ele></trkpt>
<trkpt lat="47.734106" lon="12.875916"><ele>460.5</ele></trkpt>
<trkpt lat="47.733051" lon="12.877346"><ele>465.4</ele></trkpt>
<trkpt lat="47.732762" lon="12.877764"><ele>465.9</ele></trkpt>
<trkpt lat="47.731783" lon="12.878258"><ele>464.3</ele></trkpt>
<trkpt lat="47.730442" lon="12.879279"><ele>469.2</ele></trkpt>
<trkpt lat="47.730113" lon="12.879533"><ele>468.9</ele></trkpt>
<trkpt lat="47.729632" lon="12.879561"><ele>467.7</ele></trkpt>
<trkpt lat="47.728984" lon="12.880019"><ele>470.3</ele></trkpt>
<trkpt lat="47.729690" lon="12.881168"><ele>467.4</ele></trkpt>
<trkpt lat="47.728766" lon="12.882934"><ele>468.2</ele></trkpt>
<trkpt lat="47.728118" lon="12.884187"><ele>469.7</ele></trkpt>
<trkpt lat="47.727687" lon="12.883896"><ele>471.3</ele></trkpt>
<trkpt lat="47.727494" lon="12.883113"><ele>470.2</ele></trkpt>
<trkpt lat="47.726900" lon="12.883842"><ele>474.7</ele></trkpt>
</trkseg></trk></gpx>