<?xml version="1.0" encoding="UTF-8"?>
<gpx version="1.1" creator="Bad Reichenhall gravel – saját gravel-router (OSM/Overture + SRTM)" xmlns="http://www.topografix.com/GPX/1/1">
<metadata><name>Waginger See dombos változat (Högl és Höglwörth)</name><desc>GENERÁLT NYOMVONAL – A tavas nagy kör dombosabb változata: a Högl dombhátján (Ulrichshögl) és a Höglwörther See kolostoránál kapaszkodsz a Rupertiwinkel dombjaira, Teisendorfon át érsz a Waginger See-hez és a Tachinger See-hez, majd Laufenen és a Salzach-ártéren át vissza Freilassing felé.</desc><copyright author="OpenStreetMap contributors (via Overture Maps)"><license>https://opendatacommons.org/licenses/odbl/</license></copyright><time>2026-10-04T22:32:01Z</time></metadata>
<wpt lat="47.7596" lon="12.9114"><name>Piding</name><type>town</type></wpt>
<wpt lat="47.783" lon="12.868"><name>Aufham</name><type>town</type></wpt>
<wpt lat="47.8095" lon="12.9249"><name>Ulrichshögl – Högl-dombhát</name><type>view</type></wpt>
<wpt lat="47.8156" lon="12.8429"><name>Höglwörther See – kolostor</name><type>history</type></wpt>
<wpt lat="47.8493" lon="12.8343"><name>Teisendorf</name><type>town</type></wpt>
<wpt lat="47.9316" lon="12.7273"><name>Waging am See</name><type>town</type></wpt>
<wpt lat="47.9658" lon="12.7433"><name>Tachinger See</name><type>lake</type></wpt>
<wpt lat="47.9228" lon="12.7884"><name>Waginger See – keleti part</name><type>lake</type></wpt>
<wpt lat="47.9377" lon="12.9311"><name>Laufen</name><type>history</type></wpt>
<wpt lat="47.8366" lon="12.9771"><name>Freilassing</name><type>town</type></wpt>
<trk><name>Waginger See dombos változat (Högl és Höglwörth)</name><type>gravel</type><trkseg>
<trkpt lat="47.726900" lon="12.883842"><ele>474.7</ele></trkpt>
<trkpt lat="47.727494" lon="12.883113"><ele>470.2</ele></trkpt>
<trkpt lat="47.727719" lon="12.883943"><ele>471.1</ele></trkpt>
<trkpt lat="47.728704" lon="12.884653"><ele>467.7</ele></trkpt>
<trkpt lat="47.729731" lon="12.886062"><ele>468.9</ele></trkpt>
<trkpt lat="47.730708" lon="12.887277"><ele>466.8</ele></trkpt>
<trkpt lat="47.731702" lon="12.887899"><ele>465.8</ele></trkpt>
<trkpt lat="47.732859" lon="12.888988"><ele>463.3</ele></trkpt>
<trkpt lat="47.733919" lon="12.889805"><ele>464.0</ele></trkpt>
<trkpt lat="47.735182" lon="12.890496"><ele>464.3</ele></trkpt>
<trkpt lat="47.735557" lon="12.890716"><ele>462.4</ele></trkpt>
<trkpt lat="47.736228" lon="12.891388"><ele>461.0</ele></trkpt>
<trkpt lat="47.736592" lon="12.890916"><ele>460.9</ele></trkpt>
<trkpt lat="47.737193" lon="12.891704"><ele>461.2</ele></trkpt>
<trkpt lat="47.737802" lon="12.890693"><ele>461.0</ele></trkpt>
<trkpt lat="47.738920" lon="12.891835"><ele>460.0</ele></trkpt>
<trkpt lat="47.739303" lon="12.892183"><ele>460.4</ele></trkpt>
<trkpt lat="47.739530" lon="12.892872"><ele>465.0</ele></trkpt>
<trkpt lat="47.740022" lon="12.892659"><ele>464.1</ele></trkpt>
<trkpt lat="47.740252" lon="12.892788"><ele>464.2</ele></trkpt>
<trkpt lat="47.740420" lon="12.893505"><ele>468.4</ele></trkpt>
<trkpt lat="47.740871" lon="12.893655"><ele>462.9</ele></trkpt>
<trkpt lat="47.741641" lon="12.895484"><ele>466.1</ele></trkpt>
<trkpt lat="47.742413" lon="12.897293"><ele>459.3</ele></trkpt>
<trkpt lat="47.743190" lon="12.899091"><ele>454.4</ele></trkpt>
<trkpt lat="47.743932" lon="12.900790"><ele>454.8</ele></trkpt>
<trkpt lat="47.744252" lon="12.901496"><ele>455.7</ele></trkpt>
<trkpt lat="47.744878" lon="12.900827"><ele>454.4</ele></trkpt>
<trkpt lat="47.746249" lon="12.900860"><ele>457.9</ele></trkpt>
<trkpt lat="47.746683" lon="12.900793"><ele>459.1</ele></trkpt>
<trkpt lat="47.747599" lon="12.899938"><ele>457.0</ele></trkpt>
<trkpt lat="47.748711" lon="12.900887"><ele>467.5</ele></trkpt>
<trkpt lat="47.750153" lon="12.901197"><ele>466.6</ele></trkpt>
<trkpt lat="47.750593" lon="12.901341"><ele>472.2</ele></trkpt>
<trkpt lat="47.751582" lon="12.902133"><ele>465.0</ele></trkpt>
<trkpt lat="47.752294" lon="12.901798"><ele>464.8</ele></trkpt>
<trkpt lat="47.753134" lon="12.900502"><ele>474.8</ele></trkpt>
<trkpt lat="47.754414" lon="12.899381"><ele>472.6</ele></trkpt>
<trkpt lat="47.754737" lon="12.899148"><ele>474.1</ele></trkpt>
<trkpt lat="47.755518" lon="12.898948"><ele>462.5</ele></trkpt>
<trkpt lat="47.756921" lon="12.899199"><ele>458.0</ele></trkpt>
<trkpt lat="47.756975" lon="12.899204"><ele>457.9</ele></trkpt>
<trkpt lat="47.757900" lon="12.898689"><ele>460.7</ele></trkpt>
<trkpt lat="47.758294" lon="12.898983"><ele>458.8</ele></trkpt>
<trkpt lat="47.758493" lon="12.900203"><ele>459.7</ele></trkpt>
<trkpt lat="47.758947" lon="12.900563"><ele>456.9</ele></trkpt>
<trkpt lat="47.759643" lon="12.900757"><ele>457.3</ele></trkpt>
<trkpt lat="47.760992" lon="12.900350"><ele>457.4</ele></trkpt>
<trkpt lat="47.761660" lon="12.900156"><ele>457.5</ele></trkpt>
<trkpt lat="47.761680" lon="12.899562"><ele>454.5</ele></trkpt>
<trkpt lat="47.762402" lon="12.899920"><ele>456.6</ele></trkpt>
<trkpt lat="47.763550" lon="12.898662"><ele>456.0</ele></trkpt>
<trkpt lat="47.764678" lon="12.897491"><ele>457.0</ele></trkpt>
<trkpt lat="47.765903" lon="12.896195"><ele>456.9</ele></trkpt>
<trkpt lat="47.766878" lon="12.895113"><ele>456.0</ele></trkpt>
<trkpt lat="47.767667" lon="12.893271"><ele>458.2</ele></trkpt>
<trkpt lat="47.768410" lon="12.891705"><ele>457.5</ele></trkpt>
<trkpt lat="47.769127" lon="12.889755"><ele>462.0</ele></trkpt>
<trkpt lat="47.769569" lon="12.888493"><ele>466.8</ele></trkpt>
<trkpt lat="47.769909" lon="12.887982"><ele>470.7</ele></trkpt>
<trkpt lat="47.771101" lon="12.887132"><ele>474.6</ele></trkpt>
<trkpt lat="47.771495" lon="12.886626"><ele>479.6</ele></trkpt>
<trkpt lat="47.772174" lon="12.884656"><ele>474.1</ele></trkpt>
<trkpt lat="47.772334" lon="12.884237"><ele>473.2</ele></trkpt>
<trkpt lat="47.772908" lon="12.883093"><ele>472.1</ele></trkpt>
<trkpt lat="47.774051" lon="12.882009"><ele>472.4</ele></trkpt>
<trkpt lat="47.774542" lon="12.881486"><ele>471.9</ele></trkpt>
<trkpt lat="47.775448" lon="12.879972"><ele>469.0</ele></trkpt>
<trkpt lat="47.775660" lon="12.879615"><ele>469.0</ele></trkpt>
<trkpt lat="47.776741" lon="12.878165"><ele>469.6</ele></trkpt>
<trkpt lat="47.777153" lon="12.877685"><ele>468.9</ele></trkpt>
<trkpt lat="47.778400" lon="12.876752"><ele>473.7</ele></trkpt>
<trkpt lat="47.778953" lon="12.876443"><ele>474.8</ele></trkpt>
<trkpt lat="47.778947" lon="12.875755"><ele>475.0</ele></trkpt>
<trkpt lat="47.778495" lon="12.874781"><ele>477.5</ele></trkpt>
<trkpt lat="47.778554" lon="12.874618"><ele>477.9</ele></trkpt>
<trkpt lat="47.779684" lon="12.873468"><ele>482.4</ele></trkpt>
<trkpt lat="47.780906" lon="12.872460"><ele>493.3</ele></trkpt>
<trkpt lat="47.781620" lon="12.871862"><ele>495.9</ele></trkpt>
<trkpt lat="47.782953" lon="12.871328"><ele>498.8</ele></trkpt>
<trkpt lat="47.783159" lon="12.871195"><ele>499.1</ele></trkpt>
<trkpt lat="47.783176" lon="12.870578"><ele>501.9</ele></trkpt>
<trkpt lat="47.783591" lon="12.870176"><ele>502.4</ele></trkpt>
<trkpt lat="47.783852" lon="12.869635"><ele>504.3</ele></trkpt>
<trkpt lat="47.783842" lon="12.869298"><ele>505.1</ele></trkpt>
<trkpt lat="47.784382" lon="12.868921"><ele>503.3</ele></trkpt>
<trkpt lat="47.785483" lon="12.867565"><ele>497.7</ele></trkpt>
<trkpt lat="47.785522" lon="12.867528"><ele>497.4</ele></trkpt>
<trkpt lat="47.786144" lon="12.867228"><ele>495.0</ele></trkpt>
<trkpt lat="47.786831" lon="12.867350"><ele>494.5</ele></trkpt>
<trkpt lat="47.787891" lon="12.866632"><ele>494.4</ele></trkpt>
<trkpt lat="47.788888" lon="12.866349"><ele>494.1</ele></trkpt>
<trkpt lat="47.790154" lon="12.865384"><ele>494.6</ele></trkpt>
<trkpt lat="47.791412" lon="12.864473"><ele>499.1</ele></trkpt>
<trkpt lat="47.791581" lon="12.864333"><ele>500.1</ele></trkpt>
<trkpt lat="47.792780" lon="12.863189"><ele>504.5</ele></trkpt>
<trkpt lat="47.793160" lon="12.862815"><ele>505.0</ele></trkpt>
<trkpt lat="47.794009" lon="12.861379"><ele>508.9</ele></trkpt>
<trkpt lat="47.795123" lon="12.860390"><ele>514.3</ele></trkpt>
<trkpt lat="47.796260" lon="12.858898"><ele>517.0</ele></trkpt>
<trkpt lat="47.797167" lon="12.857565"><ele>523.4</ele></trkpt>
<trkpt lat="47.797578" lon="12.857230"><ele>525.7</ele></trkpt>
<trkpt lat="47.798243" lon="12.857080"><ele>527.9</ele></trkpt>
<trkpt lat="47.798731" lon="12.856258"><ele>530.3</ele></trkpt>
<trkpt lat="47.799006" lon="12.855279"><ele>535.6</ele></trkpt>
<trkpt lat="47.799168" lon="12.855275"><ele>535.0</ele></trkpt>
<trkpt lat="47.799943" lon="12.856279"><ele>532.0</ele></trkpt>
<trkpt lat="47.801164" lon="12.857304"><ele>531.7</ele></trkpt>
<trkpt lat="47.801283" lon="12.857360"><ele>532.7</ele></trkpt>
<trkpt lat="47.801700" lon="12.857905"><ele>538.8</ele></trkpt>
<trkpt lat="47.802246" lon="12.859015"><ele>538.8</ele></trkpt>
<trkpt lat="47.802521" lon="12.860401"><ele>532.5</ele></trkpt>
<trkpt lat="47.803198" lon="12.861997"><ele>525.9</ele></trkpt>
<trkpt lat="47.803557" lon="12.863435"><ele>526.2</ele></trkpt>
<trkpt lat="47.804761" lon="12.862475"><ele>525.0</ele></trkpt>
<trkpt lat="47.805931" lon="12.861456"><ele>521.8</ele></trkpt>
<trkpt lat="47.806056" lon="12.861337"><ele>522.2</ele></trkpt>
<trkpt lat="47.806907" lon="12.861497"><ele>529.9</ele></trkpt>
<trkpt lat="47.807644" lon="12.860999"><ele>533.9</ele></trkpt>
<trkpt lat="47.808756" lon="12.861426"><ele>541.8</ele></trkpt>
<trkpt lat="47.810137" lon="12.861397"><ele>531.9</ele></trkpt>
<trkpt lat="47.810191" lon="12.861413"><ele>530.5</ele></trkpt>
<trkpt lat="47.811441" lon="12.862355"><ele>525.5</ele></trkpt>
<trkpt lat="47.812667" lon="12.863268"><ele>535.4</ele></trkpt>
<trkpt lat="47.813143" lon="12.863560"><ele>539.9</ele></trkpt>
<trkpt lat="47.814542" lon="12.863357"><ele>532.7</ele></trkpt>
<trkpt lat="47.814813" lon="12.863429"><ele>533.4</ele></trkpt>
<trkpt lat="47.815894" lon="12.864507"><ele>535.2</ele></trkpt>
<trkpt lat="47.817258" lon="12.865225"><ele>535.0</ele></trkpt>
<trkpt lat="47.818416" lon="12.866019"><ele>537.0</ele></trkpt>
<trkpt lat="47.819566" lon="12.867410"><ele>543.3</ele></trkpt>
<trkpt lat="47.820786" lon="12.868683"><ele>547.6</ele></trkpt>
<trkpt lat="47.821617" lon="12.869758"><ele>549.7</ele></trkpt>
<trkpt lat="47.822125" lon="12.870155"><ele>552.5</ele></trkpt>
<trkpt lat="47.822717" lon="12.870220"><ele>555.7</ele></trkpt>
<trkpt lat="47.823900" lon="12.869502"><ele>550.8</ele></trkpt>
<trkpt lat="47.824836" lon="12.869314"><ele>544.1</ele></trkpt>
<trkpt lat="47.825396" lon="12.869448"><ele>544.3</ele></trkpt>
<trkpt lat="47.826623" lon="12.870292"><ele>525.4</ele></trkpt>
<trkpt lat="47.826432" lon="12.870703"><ele>522.6</ele></trkpt>
<trkpt lat="47.826356" lon="12.872427"><ele>511.0</ele></trkpt>
<trkpt lat="47.825997" lon="12.873882"><ele>498.5</ele></trkpt>
<trkpt lat="47.825491" lon="12.874508"><ele>504.6</ele></trkpt>
<trkpt lat="47.825420" lon="12.875804"><ele>479.3</ele></trkpt>
<trkpt lat="47.824767" lon="12.876997"><ele>481.1</ele></trkpt>
<trkpt lat="47.824374" lon="12.878448"><ele>475.0</ele></trkpt>
<trkpt lat="47.824256" lon="12.880508"><ele>475.4</ele></trkpt>
<trkpt lat="47.824346" lon="12.882632"><ele>472.5</ele></trkpt>
<trkpt lat="47.824425" lon="12.884277"><ele>474.8</ele></trkpt>
<trkpt lat="47.824216" lon="12.886228"><ele>473.2</ele></trkpt>
<trkpt lat="47.823467" lon="12.887970"><ele>475.9</ele></trkpt>
<trkpt lat="47.822568" lon="12.889646"><ele>478.3</ele></trkpt>
<trkpt lat="47.821860" lon="12.891553"><ele>481.0</ele></trkpt>
<trkpt lat="47.821455" lon="12.892645"><ele>482.3</ele></trkpt>
<trkpt lat="47.820672" lon="12.894382"><ele>477.9</ele></trkpt>
<trkpt lat="47.820237" lon="12.895333"><ele>481.4</ele></trkpt>
<trkpt lat="47.819709" lon="12.897252"><ele>477.9</ele></trkpt>
<trkpt lat="47.819701" lon="12.897297"><ele>477.8</ele></trkpt>
<trkpt lat="47.819564" lon="12.899447"><ele>471.4</ele></trkpt>
<trkpt lat="47.819589" lon="12.899840"><ele>471.2</ele></trkpt>
<trkpt lat="47.819933" lon="12.901863"><ele>463.5</ele></trkpt>
<trkpt lat="47.820363" lon="12.903912"><ele>463.4</ele></trkpt>
<trkpt lat="47.820446" lon="12.904195"><ele>462.8</ele></trkpt>
<trkpt lat="47.820584" lon="12.906323"><ele>461.8</ele></trkpt>
<trkpt lat="47.820537" lon="12.907193"><ele>464.1</ele></trkpt>
<trkpt lat="47.819998" lon="12.908800"><ele>468.3</ele></trkpt>
<trkpt lat="47.818797" lon="12.910196"><ele>478.1</ele></trkpt>
<trkpt lat="47.818166" lon="12.910930"><ele>481.4</ele></trkpt>
<trkpt lat="47.817727" lon="12.911698"><ele>485.2</ele></trkpt>
<trkpt lat="47.817107" lon="12.913389"><ele>484.8</ele></trkpt>
<trkpt lat="47.816746" lon="12.915495"><ele>480.6</ele></trkpt>
<trkpt lat="47.816459" lon="12.917080"><ele>480.1</ele></trkpt>
<trkpt lat="47.816008" lon="12.918290"><ele>483.2</ele></trkpt>
<trkpt lat="47.816434" lon="12.916945"><ele>479.8</ele></trkpt>
<trkpt lat="47.816804" lon="12.914862"><ele>481.0</ele></trkpt>
<trkpt lat="47.817035" lon="12.913547"><ele>484.0</ele></trkpt>
<trkpt lat="47.817650" lon="12.911715"><ele>485.3</ele></trkpt>
<trkpt lat="47.817755" lon="12.911481"><ele>484.3</ele></trkpt>
<trkpt lat="47.818825" lon="12.910045"><ele>477.9</ele></trkpt>
<trkpt lat="47.819910" lon="12.908815"><ele>468.8</ele></trkpt>
<trkpt lat="47.819992" lon="12.908691"><ele>468.7</ele></trkpt>
<trkpt lat="47.820607" lon="12.907062"><ele>463.6</ele></trkpt>
<trkpt lat="47.821460" lon="12.906558"><ele>460.0</ele></trkpt>
<trkpt lat="47.821418" lon="12.905080"><ele>457.8</ele></trkpt>
<trkpt lat="47.820786" lon="12.903958"><ele>460.3</ele></trkpt>
<trkpt lat="47.820569" lon="12.903059"><ele>462.9</ele></trkpt>
<trkpt lat="47.820258" lon="12.903058"><ele>463.1</ele></trkpt>
<trkpt lat="47.819913" lon="12.901615"><ele>463.7</ele></trkpt>
<trkpt lat="47.819611" lon="12.899637"><ele>471.9</ele></trkpt>
<trkpt lat="47.819603" lon="12.899518"><ele>471.7</ele></trkpt>
<trkpt lat="47.819684" lon="12.897778"><ele>473.9</ele></trkpt>
<trkpt lat="47.819930" lon="12.896426"><ele>475.5</ele></trkpt>
<trkpt lat="47.820486" lon="12.894785"><ele>477.7</ele></trkpt>
<trkpt lat="47.821328" lon="12.892939"><ele>479.5</ele></trkpt>
<trkpt lat="47.822062" lon="12.891008"><ele>480.2</ele></trkpt>
<trkpt lat="47.822595" lon="12.889673"><ele>478.0</ele></trkpt>
<trkpt lat="47.823428" lon="12.888039"><ele>476.0</ele></trkpt>
<trkpt lat="47.823971" lon="12.886921"><ele>472.1</ele></trkpt>
<trkpt lat="47.824362" lon="12.885345"><ele>474.7</ele></trkpt>
<trkpt lat="47.824672" lon="12.885216"><ele>474.6</ele></trkpt>
<trkpt lat="47.824570" lon="12.883928"><ele>473.6</ele></trkpt>
<trkpt lat="47.824401" lon="12.883482"><ele>473.6</ele></trkpt>
<trkpt lat="47.824272" lon="12.881302"><ele>474.8</ele></trkpt>
<trkpt lat="47.824269" lon="12.881145"><ele>475.2</ele></trkpt>
<trkpt lat="47.824281" lon="12.879268"><ele>475.9</ele></trkpt>
<trkpt lat="47.824515" lon="12.877759"><ele>477.4</ele></trkpt>
<trkpt lat="47.825118" lon="12.876270"><ele>480.0</ele></trkpt>
<trkpt lat="47.826236" lon="12.874845"><ele>481.9</ele></trkpt>
<trkpt lat="47.827309" lon="12.873506"><ele>483.1</ele></trkpt>
<trkpt lat="47.827463" lon="12.873291"><ele>482.6</ele></trkpt>
<trkpt lat="47.828421" lon="12.871641"><ele>491.7</ele></trkpt>
<trkpt lat="47.828873" lon="12.870659"><ele>500.5</ele></trkpt>
<trkpt lat="47.829193" lon="12.869469"><ele>510.9</ele></trkpt>
<trkpt lat="47.829433" lon="12.867351"><ele>517.1</ele></trkpt>
<trkpt lat="47.829597" lon="12.866469"><ele>516.4</ele></trkpt>
<trkpt lat="47.830237" lon="12.864555"><ele>512.9</ele></trkpt>
<trkpt lat="47.830876" lon="12.862850"><ele>507.2</ele></trkpt>
<trkpt lat="47.829986" lon="12.862037"><ele>505.9</ele></trkpt>
<trkpt lat="47.828501" lon="12.861526"><ele>509.8</ele></trkpt>
<trkpt lat="47.827961" lon="12.861310"><ele>511.5</ele></trkpt>
<trkpt lat="47.826636" lon="12.860278"><ele>523.2</ele></trkpt>
<trkpt lat="47.826569" lon="12.860231"><ele>524.5</ele></trkpt>
<trkpt lat="47.825150" lon="12.860005"><ele>534.0</ele></trkpt>
<trkpt lat="47.824335" lon="12.859922"><ele>537.3</ele></trkpt>
<trkpt lat="47.823488" lon="12.859533"><ele>537.6</ele></trkpt>
<trkpt lat="47.822791" lon="12.858246"><ele>550.1</ele></trkpt>
<trkpt lat="47.822783" lon="12.856659"><ele>547.0</ele></trkpt>
<trkpt lat="47.822525" lon="12.854780"><ele>549.0</ele></trkpt>
<trkpt lat="47.823044" lon="12.852667"><ele>560.3</ele></trkpt>
<trkpt lat="47.823311" lon="12.851201"><ele>567.8</ele></trkpt>
<trkpt lat="47.823545" lon="12.850456"><ele>573.8</ele></trkpt>
<trkpt lat="47.824063" lon="12.849643"><ele>573.8</ele></trkpt>
<trkpt lat="47.823493" lon="12.849270"><ele>574.4</ele></trkpt>
<trkpt lat="47.822488" lon="12.848009"><ele>577.2</ele></trkpt>
<trkpt lat="47.821677" lon="12.847490"><ele>579.1</ele></trkpt>
<trkpt lat="47.821437" lon="12.847135"><ele>579.7</ele></trkpt>
<trkpt lat="47.820312" lon="12.848124"><ele>574.6</ele></trkpt>
<trkpt lat="47.820846" lon="12.846229"><ele>558.0</ele></trkpt>
<trkpt lat="47.821183" lon="12.845009"><ele>555.7</ele></trkpt>
<trkpt lat="47.821411" lon="12.844004"><ele>556.1</ele></trkpt>
<trkpt lat="47.821411" lon="12.843308"><ele>541.5</ele></trkpt>
<trkpt lat="47.821747" lon="12.842380"><ele>549.1</ele></trkpt>
<trkpt lat="47.821809" lon="12.841052"><ele>552.6</ele></trkpt>
<trkpt lat="47.821577" lon="12.840348"><ele>549.6</ele></trkpt>
<trkpt lat="47.821011" lon="12.839597"><ele>546.3</ele></trkpt>
<trkpt lat="47.820924" lon="12.838359"><ele>547.4</ele></trkpt>
<trkpt lat="47.821358" lon="12.836932"><ele>551.9</ele></trkpt>
<trkpt lat="47.821200" lon="12.835870"><ele>545.5</ele></trkpt>
<trkpt lat="47.821209" lon="12.834246"><ele>536.2</ele></trkpt>
<trkpt lat="47.821849" lon="12.832944"><ele>534.2</ele></trkpt>
<trkpt lat="47.823172" lon="12.832612"><ele>537.2</ele></trkpt>
<trkpt lat="47.823818" lon="12.832390"><ele>532.7</ele></trkpt>
<trkpt lat="47.824248" lon="12.830464"><ele>542.9</ele></trkpt>
<trkpt lat="47.824312" lon="12.830009"><ele>544.3</ele></trkpt>
<trkpt lat="47.825133" lon="12.829811"><ele>534.2</ele></trkpt>
<trkpt lat="47.826598" lon="12.830353"><ele>521.0</ele></trkpt>
<trkpt lat="47.827737" lon="12.830878"><ele>518.3</ele></trkpt>
<trkpt lat="47.829099" lon="12.831715"><ele>513.1</ele></trkpt>
<trkpt lat="47.830161" lon="12.832447"><ele>520.6</ele></trkpt>
<trkpt lat="47.830551" lon="12.832507"><ele>519.9</ele></trkpt>
<trkpt lat="47.831363" lon="12.831851"><ele>520.8</ele></trkpt>
<trkpt lat="47.831740" lon="12.831050"><ele>530.0</ele></trkpt>
<trkpt lat="47.832678" lon="12.830493"><ele>512.5</ele></trkpt>
<trkpt lat="47.833546" lon="12.830607"><ele>516.1</ele></trkpt>
<trkpt lat="47.833755" lon="12.830070"><ele>515.9</ele></trkpt>
<trkpt lat="47.834786" lon="12.828978"><ele>517.7</ele></trkpt>
<trkpt lat="47.836093" lon="12.828017"><ele>516.4</ele></trkpt>
<trkpt lat="47.836812" lon="12.827271"><ele>520.7</ele></trkpt>
<trkpt lat="47.837964" lon="12.827001"><ele>521.8</ele></trkpt>
<trkpt lat="47.839304" lon="12.827635"><ele>501.5</ele></trkpt>
<trkpt lat="47.839432" lon="12.827661"><ele>501.3</ele></trkpt>
<trkpt lat="47.839987" lon="12.827164"><ele>510.8</ele></trkpt>
<trkpt lat="47.840860" lon="12.827077"><ele>509.9</ele></trkpt>
<trkpt lat="47.841417" lon="12.826410"><ele>496.9</ele></trkpt>
<trkpt lat="47.842338" lon="12.826479"><ele>494.0</ele></trkpt>
<trkpt lat="47.843605" lon="12.827296"><ele>501.0</ele></trkpt>
<trkpt lat="47.843911" lon="12.827335"><ele>502.7</ele></trkpt>
<trkpt lat="47.845263" lon="12.826925"><ele>500.6</ele></trkpt>
<trkpt lat="47.845629" lon="12.826797"><ele>499.9</ele></trkpt>
<trkpt lat="47.846309" lon="12.825816"><ele>500.4</ele></trkpt>
<trkpt lat="47.847111" lon="12.825550"><ele>499.5</ele></trkpt>
<trkpt lat="47.847994" lon="12.824713"><ele>500.3</ele></trkpt>
<trkpt lat="47.849067" lon="12.824113"><ele>503.1</ele></trkpt>
<trkpt lat="47.849087" lon="12.822175"><ele>501.9</ele></trkpt>
<trkpt lat="47.849089" lon="12.822116"><ele>501.8</ele></trkpt>
<trkpt lat="47.849336" lon="12.820935"><ele>499.1</ele></trkpt>
<trkpt lat="47.849790" lon="12.820938"><ele>499.6</ele></trkpt>
<trkpt lat="47.849819" lon="12.820491"><ele>498.1</ele></trkpt>
<trkpt lat="47.850471" lon="12.820330"><ele>497.6</ele></trkpt>
<trkpt lat="47.850435" lon="12.819276"><ele>494.7</ele></trkpt>
<trkpt lat="47.850798" lon="12.819184"><ele>495.0</ele></trkpt>
<trkpt lat="47.851167" lon="12.818704"><ele>494.6</ele></trkpt>
<trkpt lat="47.851397" lon="12.817670"><ele>491.6</ele></trkpt>
<trkpt lat="47.851590" lon="12.817619"><ele>491.5</ele></trkpt>
<trkpt lat="47.851550" lon="12.817001"><ele>492.0</ele></trkpt>
<trkpt lat="47.852258" lon="12.816243"><ele>494.1</ele></trkpt>
<trkpt lat="47.852765" lon="12.815974"><ele>493.6</ele></trkpt>
<trkpt lat="47.852870" lon="12.815154"><ele>491.7</ele></trkpt>
<trkpt lat="47.853152" lon="12.814668"><ele>491.1</ele></trkpt>
<trkpt lat="47.853035" lon="12.813030"><ele>491.9</ele></trkpt>
<trkpt lat="47.854186" lon="12.812456"><ele>490.0</ele></trkpt>
<trkpt lat="47.855076" lon="12.811553"><ele>499.9</ele></trkpt>
<trkpt lat="47.856001" lon="12.809866"><ele>514.9</ele></trkpt>
<trkpt lat="47.856799" lon="12.808270"><ele>518.8</ele></trkpt>
<trkpt lat="47.857593" lon="12.807116"><ele>523.2</ele></trkpt>
<trkpt lat="47.858725" lon="12.806048"><ele>531.3</ele></trkpt>
<trkpt lat="47.858859" lon="12.805938"><ele>531.3</ele></trkpt>
<trkpt lat="47.860173" lon="12.805068"><ele>535.4</ele></trkpt>
<trkpt lat="47.861442" lon="12.804204"><ele>531.8</ele></trkpt>
<trkpt lat="47.861708" lon="12.803982"><ele>530.1</ele></trkpt>
<trkpt lat="47.862828" lon="12.802817"><ele>531.4</ele></trkpt>
<trkpt lat="47.863521" lon="12.801897"><ele>537.2</ele></trkpt>
<trkpt lat="47.864460" lon="12.800367"><ele>535.5</ele></trkpt>
<trkpt lat="47.864966" lon="12.799380"><ele>535.2</ele></trkpt>
<trkpt lat="47.865723" lon="12.797519"><ele>536.9</ele></trkpt>
<trkpt lat="47.866465" lon="12.795688"><ele>536.9</ele></trkpt>
<trkpt lat="47.866581" lon="12.795224"><ele>539.8</ele></trkpt>
<trkpt lat="47.867411" lon="12.793525"><ele>542.7</ele></trkpt>
<trkpt lat="47.868278" lon="12.791763"><ele>546.1</ele></trkpt>
<trkpt lat="47.868462" lon="12.791364"><ele>545.2</ele></trkpt>
<trkpt lat="47.869115" lon="12.789601"><ele>546.5</ele></trkpt>
<trkpt lat="47.869679" lon="12.787786"><ele>548.8</ele></trkpt>
<trkpt lat="47.870369" lon="12.785921"><ele>546.5</ele></trkpt>
<trkpt lat="47.870514" lon="12.785589"><ele>546.0</ele></trkpt>
<trkpt lat="47.871513" lon="12.784177"><ele>547.9</ele></trkpt>
<trkpt lat="47.871989" lon="12.783670"><ele>550.7</ele></trkpt>
<trkpt lat="47.873298" lon="12.782553"><ele>551.8</ele></trkpt>
<trkpt lat="47.874049" lon="12.782011"><ele>553.3</ele></trkpt>
<trkpt lat="47.875417" lon="12.781184"><ele>555.2</ele></trkpt>
<trkpt lat="47.876195" lon="12.780794"><ele>557.0</ele></trkpt>
<trkpt lat="47.877595" lon="12.780174"><ele>564.8</ele></trkpt>
<trkpt lat="47.878985" lon="12.779665"><ele>568.1</ele></trkpt>
<trkpt lat="47.880326" lon="12.779287"><ele>557.7</ele></trkpt>
<trkpt lat="47.881700" lon="12.778952"><ele>560.5</ele></trkpt>
<trkpt lat="47.883039" lon="12.778650"><ele>557.2</ele></trkpt>
<trkpt lat="47.884460" lon="12.778320"><ele>554.9</ele></trkpt>
<trkpt lat="47.885521" lon="12.778042"><ele>555.0</ele></trkpt>
<trkpt lat="47.886870" lon="12.777588"><ele>553.0</ele></trkpt>
<trkpt lat="47.888225" lon="12.777075"><ele>548.9</ele></trkpt>
<trkpt lat="47.889185" lon="12.776777"><ele>549.6</ele></trkpt>
<trkpt lat="47.890591" lon="12.776585"><ele>546.9</ele></trkpt>
<trkpt lat="47.892086" lon="12.776493"><ele>543.4</ele></trkpt>
<trkpt lat="47.893496" lon="12.776302"><ele>546.0</ele></trkpt>
<trkpt lat="47.894180" lon="12.776124"><ele>543.9</ele></trkpt>
<trkpt lat="47.895630" lon="12.775542"><ele>544.7</ele></trkpt>
<trkpt lat="47.896963" lon="12.774853"><ele>546.0</ele></trkpt>
<trkpt lat="47.898242" lon="12.774214"><ele>546.9</ele></trkpt>
<trkpt lat="47.899663" lon="12.773659"><ele>548.7</ele></trkpt>
<trkpt lat="47.900005" lon="12.773555"><ele>549.4</ele></trkpt>
<trkpt lat="47.901491" lon="12.773309"><ele>545.2</ele></trkpt>
<trkpt lat="47.902722" lon="12.773322"><ele>543.2</ele></trkpt>
<trkpt lat="47.904234" lon="12.773540"><ele>541.8</ele></trkpt>
<trkpt lat="47.905649" lon="12.773858"><ele>532.7</ele></trkpt>
<trkpt lat="47.906291" lon="12.773963"><ele>529.6</ele></trkpt>
<trkpt lat="47.907506" lon="12.773921"><ele>522.9</ele></trkpt>
<trkpt lat="47.908829" lon="12.773420"><ele>535.0</ele></trkpt>
<trkpt lat="47.910229" lon="12.772641"><ele>509.7</ele></trkpt>
<trkpt lat="47.910652" lon="12.772467"><ele>505.5</ele></trkpt>
<trkpt lat="47.912146" lon="12.772213"><ele>495.5</ele></trkpt>
<trkpt lat="47.913489" lon="12.771979"><ele>489.2</ele></trkpt>
<trkpt lat="47.913842" lon="12.771847"><ele>486.9</ele></trkpt>
<trkpt lat="47.915182" lon="12.770941"><ele>481.5</ele></trkpt>
<trkpt lat="47.915184" lon="12.770940"><ele>481.5</ele></trkpt>
<trkpt lat="47.916191" lon="12.769963"><ele>486.0</ele></trkpt>
<trkpt lat="47.917241" lon="12.768624"><ele>485.0</ele></trkpt>
<trkpt lat="47.917570" lon="12.768151"><ele>486.5</ele></trkpt>
<trkpt lat="47.918551" lon="12.766500"><ele>487.5</ele></trkpt>
<trkpt lat="47.919378" lon="12.764822"><ele>483.1</ele></trkpt>
<trkpt lat="47.919469" lon="12.764616"><ele>482.9</ele></trkpt>
<trkpt lat="47.920199" lon="12.762802"><ele>483.0</ele></trkpt>
<trkpt lat="47.920769" lon="12.761102"><ele>481.0</ele></trkpt>
<trkpt lat="47.921261" lon="12.759186"><ele>479.3</ele></trkpt>
<trkpt lat="47.921662" lon="12.757223"><ele>477.0</ele></trkpt>
<trkpt lat="47.921923" lon="12.756010"><ele>477.5</ele></trkpt>
<trkpt lat="47.922514" lon="12.754103"><ele>478.2</ele></trkpt>
<trkpt lat="47.922612" lon="12.753855"><ele>478.2</ele></trkpt>
<trkpt lat="47.923169" lon="12.752739"><ele>474.4</ele></trkpt>
<trkpt lat="47.923861" lon="12.751820"><ele>479.5</ele></trkpt>
<trkpt lat="47.925087" lon="12.750753"><ele>476.0</ele></trkpt>
<trkpt lat="47.925486" lon="12.750547"><ele>472.8</ele></trkpt>
<trkpt lat="47.925133" lon="12.750020"><ele>475.0</ele></trkpt>
<trkpt lat="47.924631" lon="12.749928"><ele>477.7</ele></trkpt>
<trkpt lat="47.924529" lon="12.749348"><ele>476.6</ele></trkpt>
<trkpt lat="47.925008" lon="12.748427"><ele>475.0</ele></trkpt>
<trkpt lat="47.926150" lon="12.747319"><ele>475.0</ele></trkpt>
<trkpt lat="47.927308" lon="12.746115"><ele>470.3</ele></trkpt>
<trkpt lat="47.928508" lon="12.744984"><ele>467.8</ele></trkpt>
<trkpt lat="47.929503" lon="12.743663"><ele>467.6</ele></trkpt>
<trkpt lat="47.930076" lon="12.742377"><ele>467.5</ele></trkpt>
<trkpt lat="47.931165" lon="12.742120"><ele>466.4</ele></trkpt>
<trkpt lat="47.931523" lon="12.740146"><ele>467.0</ele></trkpt>
<trkpt lat="47.931671" lon="12.739551"><ele>468.6</ele></trkpt>
<trkpt lat="47.932028" lon="12.739772"><ele>467.2</ele></trkpt>
<trkpt lat="47.932278" lon="12.739582"><ele>467.7</ele></trkpt>
<trkpt lat="47.933073" lon="12.741143"><ele>466.9</ele></trkpt>
<trkpt lat="47.933353" lon="12.739066"><ele>466.9</ele></trkpt>
<trkpt lat="47.933684" lon="12.737541"><ele>464.9</ele></trkpt>
<trkpt lat="47.933669" lon="12.736489"><ele>465.5</ele></trkpt>
<trkpt lat="47.934343" lon="12.735888"><ele>466.7</ele></trkpt>
<trkpt lat="47.935592" lon="12.735160"><ele>461.8</ele></trkpt>
<trkpt lat="47.935807" lon="12.735068"><ele>461.8</ele></trkpt>
<trkpt lat="47.935873" lon="12.734250"><ele>464.3</ele></trkpt>
<trkpt lat="47.936355" lon="12.734695"><ele>464.9</ele></trkpt>
<trkpt lat="47.936747" lon="12.734724"><ele>462.9</ele></trkpt>
<trkpt lat="47.937728" lon="12.733296"><ele>473.8</ele></trkpt>
<trkpt lat="47.937853" lon="12.733149"><ele>473.2</ele></trkpt>
<trkpt lat="47.938597" lon="12.732650"><ele>473.0</ele></trkpt>
<trkpt lat="47.940043" lon="12.732676"><ele>476.9</ele></trkpt>
<trkpt lat="47.941467" lon="12.732822"><ele>472.9</ele></trkpt>
<trkpt lat="47.941699" lon="12.732805"><ele>472.1</ele></trkpt>
<trkpt lat="47.943094" lon="12.732204"><ele>474.1</ele></trkpt>
<trkpt lat="47.943535" lon="12.732062"><ele>474.8</ele></trkpt>
<trkpt lat="47.944906" lon="12.732206"><ele>461.1</ele></trkpt>
<trkpt lat="47.944942" lon="12.732209"><ele>460.7</ele></trkpt>
<trkpt lat="47.945730" lon="12.732614"><ele>459.7</ele></trkpt>
<trkpt lat="47.946983" lon="12.733807"><ele>459.0</ele></trkpt>
<trkpt lat="47.947020" lon="12.733854"><ele>459.1</ele></trkpt>
<trkpt lat="47.947598" lon="12.735253"><ele>454.3</ele></trkpt>
<trkpt lat="47.948474" lon="12.735190"><ele>460.9</ele></trkpt>
<trkpt lat="47.949895" lon="12.734787"><ele>453.2</ele></trkpt>
<trkpt lat="47.950783" lon="12.734464"><ele>450.0</ele></trkpt>
<trkpt lat="47.952228" lon="12.733811"><ele>449.3</ele></trkpt>
<trkpt lat="47.953549" lon="12.733014"><ele>450.1</ele></trkpt>
<trkpt lat="47.953595" lon="12.732986"><ele>450.2</ele></trkpt>
<trkpt lat="47.953801" lon="12.733493"><ele>450.2</ele></trkpt>
<trkpt lat="47.954155" lon="12.735121"><ele>445.0</ele></trkpt>
<trkpt lat="47.954405" lon="12.737285"><ele>444.1</ele></trkpt>
<trkpt lat="47.954506" lon="12.738683"><ele>443.8</ele></trkpt>
<trkpt lat="47.954408" lon="12.740725"><ele>443.3</ele></trkpt>
<trkpt lat="47.954201" lon="12.742956"><ele>442.4</ele></trkpt>
<trkpt lat="47.954007" lon="12.745116"><ele>441.4</ele></trkpt>
<trkpt lat="47.953810" lon="12.747197"><ele>439.8</ele></trkpt>
<trkpt lat="47.953579" lon="12.748908"><ele>443.0</ele></trkpt>
<trkpt lat="47.953741" lon="12.751125"><ele>445.0</ele></trkpt>
<trkpt lat="47.953741" lon="12.751125"><ele>445.0</ele></trkpt>
<trkpt lat="47.954144" lon="12.752708"><ele>453.8</ele></trkpt>
<trkpt lat="47.955483" lon="12.753532"><ele>463.2</ele></trkpt>
<trkpt lat="47.955781" lon="12.753659"><ele>464.2</ele></trkpt>
<trkpt lat="47.956586" lon="12.753139"><ele>460.3</ele></trkpt>
<trkpt lat="47.956868" lon="12.753705"><ele>460.3</ele></trkpt>
<trkpt lat="47.956774" lon="12.753994"><ele>460.2</ele></trkpt>
<trkpt lat="47.956153" lon="12.754482"><ele>465.4</ele></trkpt>
<trkpt lat="47.956276" lon="12.755572"><ele>459.7</ele></trkpt>
<trkpt lat="47.956801" lon="12.757594"><ele>453.0</ele></trkpt>
<trkpt lat="47.956840" lon="12.757725"><ele>453.2</ele></trkpt>
<trkpt lat="47.956628" lon="12.759222"><ele>453.9</ele></trkpt>
<trkpt lat="47.956856" lon="12.761356"><ele>456.4</ele></trkpt>
<trkpt lat="47.957073" lon="12.763568"><ele>462.5</ele></trkpt>
<trkpt lat="47.957098" lon="12.764553"><ele>464.3</ele></trkpt>
<trkpt lat="47.957009" lon="12.766588"><ele>464.5</ele></trkpt>
<trkpt lat="47.956960" lon="12.767087"><ele>465.0</ele></trkpt>
<trkpt lat="47.956730" lon="12.769219"><ele>462.0</ele></trkpt>
<trkpt lat="47.956490" lon="12.771395"><ele>460.7</ele></trkpt>
<trkpt lat="47.956243" lon="12.773527"><ele>462.8</ele></trkpt>
<trkpt lat="47.955966" lon="12.775375"><ele>462.5</ele></trkpt>
<trkpt lat="47.955555" lon="12.777450"><ele>455.4</ele></trkpt>
<trkpt lat="47.955055" lon="12.779559"><ele>454.6</ele></trkpt>
<trkpt lat="47.954746" lon="12.780764"><ele>456.0</ele></trkpt>
<trkpt lat="47.954154" lon="12.782570"><ele>457.3</ele></trkpt>
<trkpt lat="47.953688" lon="12.783663"><ele>458.5</ele></trkpt>
<trkpt lat="47.952718" lon="12.785354"><ele>454.8</ele></trkpt>
<trkpt lat="47.952284" lon="12.785964"><ele>454.2</ele></trkpt>
<trkpt lat="47.951165" lon="12.787303"><ele>451.4</ele></trkpt>
<trkpt lat="47.950082" lon="12.788532"><ele>451.7</ele></trkpt>
<trkpt lat="47.948936" lon="12.789780"><ele>455.2</ele></trkpt>
<trkpt lat="47.947929" lon="12.790946"><ele>465.6</ele></trkpt>
<trkpt lat="47.946845" lon="12.792345"><ele>464.1</ele></trkpt>
<trkpt lat="47.945798" lon="12.793762"><ele>465.4</ele></trkpt>
<trkpt lat="47.944736" lon="12.795320"><ele>466.9</ele></trkpt>
<trkpt lat="47.943809" lon="12.796795"><ele>467.7</ele></trkpt>
<trkpt lat="47.942897" lon="12.798324"><ele>471.4</ele></trkpt>
<trkpt lat="47.942020" lon="12.799744"><ele>478.4</ele></trkpt>
<trkpt lat="47.940906" lon="12.801244"><ele>480.4</ele></trkpt>
<trkpt lat="47.940062" lon="12.802234"><ele>478.8</ele></trkpt>
<trkpt lat="47.938734" lon="12.803203"><ele>477.6</ele></trkpt>
<trkpt lat="47.937511" lon="12.804159"><ele>472.1</ele></trkpt>
<trkpt lat="47.937233" lon="12.804315"><ele>470.1</ele></trkpt>
<trkpt lat="47.936410" lon="12.804530"><ele>466.2</ele></trkpt>
<trkpt lat="47.934927" lon="12.804468"><ele>462.1</ele></trkpt>
<trkpt lat="47.934646" lon="12.804534"><ele>462.4</ele></trkpt>
<trkpt lat="47.933357" lon="12.805266"><ele>456.2</ele></trkpt>
<trkpt lat="47.932702" lon="12.805667"><ele>454.3</ele></trkpt>
<trkpt lat="47.931343" lon="12.806097"><ele>449.9</ele></trkpt>
<trkpt lat="47.931344" lon="12.806334"><ele>450.7</ele></trkpt>
<trkpt lat="47.930401" lon="12.806691"><ele>445.4</ele></trkpt>
<trkpt lat="47.929203" lon="12.807791"><ele>449.2</ele></trkpt>
<trkpt lat="47.928656" lon="12.808249"><ele>452.0</ele></trkpt>
<trkpt lat="47.927685" lon="12.808689"><ele>457.2</ele></trkpt>
<trkpt lat="47.927205" lon="12.809454"><ele>468.2</ele></trkpt>
<trkpt lat="47.926640" lon="12.809910"><ele>476.2</ele></trkpt>
<trkpt lat="47.925304" lon="12.810374"><ele>468.6</ele></trkpt>
<trkpt lat="47.924060" lon="12.811464"><ele>469.2</ele></trkpt>
<trkpt lat="47.922734" lon="12.812351"><ele>460.2</ele></trkpt>
<trkpt lat="47.922296" lon="12.812740"><ele>460.5</ele></trkpt>
<trkpt lat="47.921556" lon="12.812797"><ele>450.8</ele></trkpt>
<trkpt lat="47.920234" lon="12.813448"><ele>443.0</ele></trkpt>
<trkpt lat="47.920075" lon="12.813493"><ele>443.0</ele></trkpt>
<trkpt lat="47.918848" lon="12.813669"><ele>443.4</ele></trkpt>
<trkpt lat="47.917489" lon="12.813582"><ele>446.0</ele></trkpt>
<trkpt lat="47.917296" lon="12.813556"><ele>446.3</ele></trkpt>
<trkpt lat="47.916029" lon="12.813094"><ele>447.0</ele></trkpt>
<trkpt lat="47.915791" lon="12.813049"><ele>447.1</ele></trkpt>
<trkpt lat="47.914463" lon="12.813484"><ele>447.0</ele></trkpt>
<trkpt lat="47.914415" lon="12.813480"><ele>447.0</ele></trkpt>
<trkpt lat="47.914003" lon="12.812860"><ele>447.7</ele></trkpt>
<trkpt lat="47.913511" lon="12.812501"><ele>448.0</ele></trkpt>
<trkpt lat="47.912593" lon="12.810837"><ele>447.0</ele></trkpt>
<trkpt lat="47.912443" lon="12.810465"><ele>447.8</ele></trkpt>
<trkpt lat="47.912013" lon="12.808580"><ele>447.2</ele></trkpt>
<trkpt lat="47.911985" lon="12.808333"><ele>447.1</ele></trkpt>
<trkpt lat="47.911470" lon="12.807305"><ele>449.0</ele></trkpt>
<trkpt lat="47.911536" lon="12.806643"><ele>449.5</ele></trkpt>
<trkpt lat="47.911386" lon="12.806075"><ele>450.0</ele></trkpt>
<trkpt lat="47.912216" lon="12.804415"><ele>450.1</ele></trkpt>
<trkpt lat="47.912225" lon="12.804392"><ele>450.2</ele></trkpt>
<trkpt lat="47.912801" lon="12.802570"><ele>454.6</ele></trkpt>
<trkpt lat="47.913229" lon="12.800638"><ele>464.1</ele></trkpt>
<trkpt lat="47.913313" lon="12.800371"><ele>462.4</ele></trkpt>
<trkpt lat="47.913950" lon="12.799027"><ele>468.3</ele></trkpt>
<trkpt lat="47.914975" lon="12.797501"><ele>462.8</ele></trkpt>
<trkpt lat="47.915234" lon="12.797170"><ele>460.7</ele></trkpt>
<trkpt lat="47.916435" lon="12.795876"><ele>459.2</ele></trkpt>
<trkpt lat="47.916837" lon="12.795390"><ele>457.4</ele></trkpt>
<trkpt lat="47.917787" lon="12.793796"><ele>456.4</ele></trkpt>
<trkpt lat="47.918270" lon="12.792941"><ele>459.8</ele></trkpt>
<trkpt lat="47.919353" lon="12.791617"><ele>469.3</ele></trkpt>
<trkpt lat="47.920367" lon="12.790154"><ele>459.5</ele></trkpt>
<trkpt lat="47.920827" lon="12.789535"><ele>455.3</ele></trkpt>
<trkpt lat="47.922084" lon="12.788478"><ele>448.7</ele></trkpt>
<trkpt lat="47.922592" lon="12.787881"><ele>448.8</ele></trkpt>
<trkpt lat="47.922709" lon="12.788494"><ele>448.5</ele></trkpt>
<trkpt lat="47.922870" lon="12.788580"><ele>448.4</ele></trkpt>
<trkpt lat="47.922709" lon="12.788494"><ele>448.5</ele></trkpt>
<trkpt lat="47.922590" lon="12.787884"><ele>448.7</ele></trkpt>
<trkpt lat="47.921448" lon="12.788975"><ele>452.8</ele></trkpt>
<trkpt lat="47.920827" lon="12.789535"><ele>455.3</ele></trkpt>
<trkpt lat="47.919844" lon="12.790931"><ele>467.3</ele></trkpt>
<trkpt lat="47.918780" lon="12.792257"><ele>468.4</ele></trkpt>
<trkpt lat="47.918270" lon="12.792941"><ele>459.8</ele></trkpt>
<trkpt lat="47.917365" lon="12.794583"><ele>456.5</ele></trkpt>
<trkpt lat="47.916837" lon="12.795390"><ele>457.4</ele></trkpt>
<trkpt lat="47.915723" lon="12.796692"><ele>460.4</ele></trkpt>
<trkpt lat="47.914587" lon="12.798031"><ele>466.7</ele></trkpt>
<trkpt lat="47.914508" lon="12.798138"><ele>466.9</ele></trkpt>
<trkpt lat="47.913605" lon="12.799692"><ele>465.0</ele></trkpt>
<trkpt lat="47.913313" lon="12.800371"><ele>462.4</ele></trkpt>
<trkpt lat="47.912867" lon="12.802279"><ele>456.7</ele></trkpt>
<trkpt lat="47.912270" lon="12.804270"><ele>450.4</ele></trkpt>
<trkpt lat="47.912226" lon="12.804391"><ele>450.2</ele></trkpt>
<trkpt lat="47.911343" lon="12.805856"><ele>449.7</ele></trkpt>
<trkpt lat="47.911001" lon="12.806387"><ele>449.0</ele></trkpt>
<trkpt lat="47.909851" lon="12.807779"><ele>445.5</ele></trkpt>
<trkpt lat="47.908775" lon="12.809229"><ele>448.5</ele></trkpt>
<trkpt lat="47.908606" lon="12.809503"><ele>446.0</ele></trkpt>
<trkpt lat="47.907824" lon="12.811223"><ele>446.8</ele></trkpt>
<trkpt lat="47.907172" lon="12.813031"><ele>450.4</ele></trkpt>
<trkpt lat="47.906507" lon="12.814862"><ele>449.4</ele></trkpt>
<trkpt lat="47.906135" lon="12.815807"><ele>452.8</ele></trkpt>
<trkpt lat="47.906212" lon="12.816014"><ele>452.3</ele></trkpt>
<trkpt lat="47.905660" lon="12.817187"><ele>451.0</ele></trkpt>
<trkpt lat="47.906267" lon="12.819212"><ele>452.3</ele></trkpt>
<trkpt lat="47.906638" lon="12.820648"><ele>451.9</ele></trkpt>
<trkpt lat="47.905183" lon="12.820713"><ele>453.0</ele></trkpt>
<trkpt lat="47.904618" lon="12.820807"><ele>453.1</ele></trkpt>
<trkpt lat="47.904137" lon="12.821039"><ele>452.2</ele></trkpt>
<trkpt lat="47.903455" lon="12.821900"><ele>450.6</ele></trkpt>
<trkpt lat="47.903080" lon="12.821765"><ele>450.1</ele></trkpt>
<trkpt lat="47.902024" lon="12.823270"><ele>449.5</ele></trkpt>
<trkpt lat="47.901040" lon="12.824677"><ele>449.2</ele></trkpt>
<trkpt lat="47.900047" lon="12.826160"><ele>450.4</ele></trkpt>
<trkpt lat="47.899974" lon="12.826270"><ele>449.9</ele></trkpt>
<trkpt lat="47.899092" lon="12.827946"><ele>447.9</ele></trkpt>
<trkpt lat="47.898312" lon="12.829673"><ele>449.8</ele></trkpt>
<trkpt lat="47.898075" lon="12.830250"><ele>447.2</ele></trkpt>
<trkpt lat="47.897467" lon="12.832324"><ele>448.3</ele></trkpt>
<trkpt lat="47.896905" lon="12.834171"><ele>447.4</ele></trkpt>
<trkpt lat="47.896721" lon="12.834688"><ele>446.3</ele></trkpt>
<trkpt lat="47.895857" lon="12.836507"><ele>449.1</ele></trkpt>
<trkpt lat="47.895643" lon="12.836870"><ele>450.4</ele></trkpt>
<trkpt lat="47.894967" lon="12.837761"><ele>447.9</ele></trkpt>
<trkpt lat="47.893691" lon="12.838870"><ele>449.6</ele></trkpt>
<trkpt lat="47.892491" lon="12.839921"><ele>446.3</ele></trkpt>
<trkpt lat="47.892027" lon="12.840348"><ele>446.4</ele></trkpt>
<trkpt lat="47.890870" lon="12.841603"><ele>446.0</ele></trkpt>
<trkpt lat="47.889732" lon="12.842847"><ele>445.2</ele></trkpt>
<trkpt lat="47.889259" lon="12.843372"><ele>447.7</ele></trkpt>
<trkpt lat="47.888266" lon="12.844733"><ele>451.7</ele></trkpt>
<trkpt lat="47.887183" lon="12.846233"><ele>449.2</ele></trkpt>
<trkpt lat="47.886102" lon="12.847644"><ele>456.0</ele></trkpt>
<trkpt lat="47.886101" lon="12.847645"><ele>456.0</ele></trkpt>
<trkpt lat="47.885905" lon="12.849083"><ele>455.3</ele></trkpt>
<trkpt lat="47.885276" lon="12.850506"><ele>451.4</ele></trkpt>
<trkpt lat="47.884761" lon="12.852364"><ele>447.9</ele></trkpt>
<trkpt lat="47.884353" lon="12.854231"><ele>444.6</ele></trkpt>
<trkpt lat="47.883927" lon="12.854897"><ele>441.1</ele></trkpt>
<trkpt lat="47.882862" lon="12.855813"><ele>437.7</ele></trkpt>
<trkpt lat="47.882066" lon="12.857586"><ele>440.6</ele></trkpt>
<trkpt lat="47.881203" lon="12.859272"><ele>439.7</ele></trkpt>
<trkpt lat="47.881011" lon="12.859684"><ele>439.6</ele></trkpt>
<trkpt lat="47.880476" lon="12.861426"><ele>444.0</ele></trkpt>
<trkpt lat="47.880188" lon="12.863544"><ele>441.3</ele></trkpt>
<trkpt lat="47.879941" lon="12.864687"><ele>445.7</ele></trkpt>
<trkpt lat="47.879112" lon="12.866482"><ele>439.3</ele></trkpt>
<trkpt lat="47.878417" lon="12.868075"><ele>437.4</ele></trkpt>
<trkpt lat="47.878079" lon="12.870108"><ele>439.9</ele></trkpt>
<trkpt lat="47.877769" lon="12.872277"><ele>456.6</ele></trkpt>
<trkpt lat="47.877768" lon="12.872281"><ele>456.7</ele></trkpt>
<trkpt lat="47.876867" lon="12.874033"><ele>454.1</ele></trkpt>
<trkpt lat="47.876409" lon="12.875222"><ele>440.4</ele></trkpt>
<trkpt lat="47.876195" lon="12.877283"><ele>436.9</ele></trkpt>
<trkpt lat="47.876078" lon="12.878368"><ele>439.1</ele></trkpt>
<trkpt lat="47.875665" lon="12.880137"><ele>437.9</ele></trkpt>
<trkpt lat="47.874866" lon="12.881992"><ele>436.0</ele></trkpt>
<trkpt lat="47.874456" lon="12.882753"><ele>435.9</ele></trkpt>
<trkpt lat="47.873474" lon="12.884282"><ele>438.6</ele></trkpt>
<trkpt lat="47.872431" lon="12.885921"><ele>441.8</ele></trkpt>
<trkpt lat="47.872000" lon="12.886687"><ele>443.0</ele></trkpt>
<trkpt lat="47.871222" lon="12.888445"><ele>443.8</ele></trkpt>
<trkpt lat="47.871072" lon="12.888921"><ele>444.0</ele></trkpt>
<trkpt lat="47.870649" lon="12.890956"><ele>441.2</ele></trkpt>
<trkpt lat="47.870632" lon="12.891084"><ele>441.1</ele></trkpt>
<trkpt lat="47.870507" lon="12.893248"><ele>443.0</ele></trkpt>
<trkpt lat="47.870499" lon="12.893477"><ele>444.1</ele></trkpt>
<trkpt lat="47.870250" lon="12.895487"><ele>439.5</ele></trkpt>
<trkpt lat="47.870058" lon="12.896440"><ele>440.0</ele></trkpt>
<trkpt lat="47.869287" lon="12.898082"><ele>442.6</ele></trkpt>
<trkpt lat="47.868918" lon="12.898759"><ele>445.1</ele></trkpt>
<trkpt lat="47.867885" lon="12.900163"><ele>456.6</ele></trkpt>
<trkpt lat="47.867462" lon="12.900875"><ele>455.4</ele></trkpt>
<trkpt lat="47.866746" lon="12.902594"><ele>459.4</ele></trkpt>
<trkpt lat="47.866598" lon="12.902914"><ele>458.0</ele></trkpt>
<trkpt lat="47.866290" lon="12.903111"><ele>453.1</ele></trkpt>
<trkpt lat="47.866348" lon="12.903932"><ele>457.8</ele></trkpt>
<trkpt lat="47.865862" lon="12.905311"><ele>456.2</ele></trkpt>
<trkpt lat="47.865279" lon="12.906160"><ele>455.0</ele></trkpt>
<trkpt lat="47.864260" lon="12.907025"><ele>452.5</ele></trkpt>
<trkpt lat="47.863208" lon="12.908344"><ele>447.7</ele></trkpt>
<trkpt lat="47.863176" lon="12.908395"><ele>447.6</ele></trkpt>
<trkpt lat="47.862728" lon="12.909487"><ele>449.4</ele></trkpt>
<trkpt lat="47.862696" lon="12.910134"><ele>450.2</ele></trkpt>
<trkpt lat="47.861821" lon="12.911680"><ele>444.6</ele></trkpt>
<trkpt lat="47.860970" lon="12.913361"><ele>444.1</ele></trkpt>
<trkpt lat="47.860320" lon="12.914594"><ele>445.4</ele></trkpt>
<trkpt lat="47.860244" lon="12.915259"><ele>447.9</ele></trkpt>
<trkpt lat="47.860366" lon="12.916299"><ele>452.8</ele></trkpt>
<trkpt lat="47.861095" lon="12.918055"><ele>446.9</ele></trkpt>
<trkpt lat="47.861119" lon="12.918235"><ele>447.0</ele></trkpt>
<trkpt lat="47.860989" lon="12.920243"><ele>451.5</ele></trkpt>
<trkpt lat="47.860987" lon="12.920531"><ele>453.2</ele></trkpt>
<trkpt lat="47.861224" lon="12.921166"><ele>454.9</ele></trkpt>
<trkpt lat="47.861460" lon="12.921374"><ele>456.3</ele></trkpt>
<trkpt lat="47.861457" lon="12.921645"><ele>455.5</ele></trkpt>
<trkpt lat="47.861003" lon="12.922175"><ele>449.2</ele></trkpt>
<trkpt lat="47.860538" lon="12.923659"><ele>448.9</ele></trkpt>
<trkpt lat="47.860304" lon="12.925880"><ele>448.5</ele></trkpt>
<trkpt lat="47.860211" lon="12.927954"><ele>443.1</ele></trkpt>
<trkpt lat="47.860126" lon="12.928493"><ele>442.1</ele></trkpt>
<trkpt lat="47.859699" lon="12.930200"><ele>445.4</ele></trkpt>
<trkpt lat="47.858979" lon="12.932095"><ele>442.7</ele></trkpt>
<trkpt lat="47.858971" lon="12.932113"><ele>442.7</ele></trkpt>
<trkpt lat="47.858117" lon="12.933836"><ele>433.8</ele></trkpt>
<trkpt lat="47.857786" lon="12.934447"><ele>431.1</ele></trkpt>
<trkpt lat="47.857166" lon="12.935390"><ele>435.4</ele></trkpt>
<trkpt lat="47.856677" lon="12.935676"><ele>432.0</ele></trkpt>
<trkpt lat="47.856465" lon="12.936249"><ele>436.4</ele></trkpt>
<trkpt lat="47.855249" lon="12.937152"><ele>434.0</ele></trkpt>
<trkpt lat="47.854023" lon="12.938127"><ele>431.0</ele></trkpt>
<trkpt lat="47.852736" lon="12.939155"><ele>445.2</ele></trkpt>
<trkpt lat="47.852522" lon="12.939367"><ele>444.4</ele></trkpt>
<trkpt lat="47.851394" lon="12.940822"><ele>441.0</ele></trkpt>
<trkpt lat="47.850344" lon="12.942138"><ele>439.5</ele></trkpt>
<trkpt lat="47.849233" lon="12.943635"><ele>433.8</ele></trkpt>
<trkpt lat="47.848858" lon="12.944015"><ele>432.4</ele></trkpt>
<trkpt lat="47.847499" lon="12.944514"><ele>428.0</ele></trkpt>
<trkpt lat="47.846862" lon="12.945028"><ele>423.9</ele></trkpt>
<trkpt lat="47.846462" lon="12.945628"><ele>425.7</ele></trkpt>
<trkpt lat="47.845791" lon="12.947386"><ele>423.8</ele></trkpt>
<trkpt lat="47.845735" lon="12.947509"><ele>423.6</ele></trkpt>
<trkpt lat="47.844670" lon="12.949042"><ele>422.2</ele></trkpt>
<trkpt lat="47.843835" lon="12.950291"><ele>421.4</ele></trkpt>
<trkpt lat="47.843705" lon="12.952308"><ele>423.8</ele></trkpt>
<trkpt lat="47.843679" lon="12.953373"><ele>423.8</ele></trkpt>
<trkpt lat="47.843553" lon="12.953372"><ele>424.2</ele></trkpt>
<trkpt lat="47.843413" lon="12.955453"><ele>422.7</ele></trkpt>
<trkpt lat="47.843407" lon="12.955508"><ele>422.7</ele></trkpt>
<trkpt lat="47.843633" lon="12.957469"><ele>425.0</ele></trkpt>
<trkpt lat="47.843887" lon="12.958563"><ele>422.0</ele></trkpt>
<trkpt lat="47.843984" lon="12.960051"><ele>423.0</ele></trkpt>
<trkpt lat="47.843755" lon="12.962159"><ele>423.8</ele></trkpt>
<trkpt lat="47.843728" lon="12.962981"><ele>422.7</ele></trkpt>
<trkpt lat="47.843367" lon="12.965007"><ele>424.0</ele></trkpt>
<trkpt lat="47.843269" lon="12.965888"><ele>422.8</ele></trkpt>
<trkpt lat="47.843261" lon="12.968134"><ele>425.5</ele></trkpt>
<trkpt lat="47.843242" lon="12.969475"><ele>423.0</ele></trkpt>
<trkpt lat="47.842929" lon="12.971567"><ele>421.5</ele></trkpt>
<trkpt lat="47.842794" lon="12.972475"><ele>423.9</ele></trkpt>
<trkpt lat="47.842312" lon="12.972335"><ele>424.1</ele></trkpt>
<trkpt lat="47.841442" lon="12.973057"><ele>420.2</ele></trkpt>
<trkpt lat="47.841146" lon="12.975131"><ele>421.4</ele></trkpt>
<trkpt lat="47.840888" lon="12.977232"><ele>421.2</ele></trkpt>
<trkpt lat="47.840813" lon="12.977883"><ele>420.9</ele></trkpt>
<trkpt lat="47.839426" lon="12.977436"><ele>422.8</ele></trkpt>
<trkpt lat="47.838468" lon="12.977061"><ele>421.2</ele></trkpt>
<trkpt lat="47.838289" lon="12.978282"><ele>421.8</ele></trkpt>
<trkpt lat="47.837418" lon="12.979355"><ele>420.4</ele></trkpt>
<trkpt lat="47.837547" lon="12.978893"><ele>419.0</ele></trkpt>
<trkpt lat="47.836192" lon="12.978183"><ele>420.3</ele></trkpt>
<trkpt lat="47.836116" lon="12.978139"><ele>420.0</ele></trkpt>
<trkpt lat="47.836286" lon="12.976915"><ele>421.9</ele></trkpt>
<trkpt lat="47.835058" lon="12.976576"><ele>421.0</ele></trkpt>
<trkpt lat="47.834947" lon="12.976852"><ele>421.3</ele></trkpt>
<trkpt lat="47.834499" lon="12.976734"><ele>423.7</ele></trkpt>
<trkpt lat="47.833173" lon="12.975868"><ele>425.0</ele></trkpt>
<trkpt lat="47.833144" lon="12.975850"><ele>425.0</ele></trkpt>
<trkpt lat="47.832649" lon="12.975128"><ele>423.0</ele></trkpt>
<trkpt lat="47.831724" lon="12.974846"><ele>422.4</ele></trkpt>
<trkpt lat="47.830333" lon="12.974143"><ele>424.2</ele></trkpt>
<trkpt lat="47.829608" lon="12.973734"><ele>424.7</ele></trkpt>
<trkpt lat="47.829066" lon="12.975713"><ele>423.2</ele></trkpt>
<trkpt lat="47.829059" lon="12.975740"><ele>423.3</ele></trkpt>
<trkpt lat="47.827900" lon="12.975312"><ele>425.0</ele></trkpt>
<trkpt lat="47.827244" lon="12.976965"><ele>420.0</ele></trkpt>
<trkpt lat="47.827131" lon="12.976958"><ele>420.0</ele></trkpt>
<trkpt lat="47.826980" lon="12.976525"><ele>421.4</ele></trkpt>
<trkpt lat="47.825778" lon="12.975351"><ele>424.7</ele></trkpt>
<trkpt lat="47.825401" lon="12.974983"><ele>423.5</ele></trkpt>
<trkpt lat="47.824150" lon="12.974340"><ele>426.1</ele></trkpt>
<trkpt lat="47.823486" lon="12.973266"><ele>429.5</ele></trkpt>
<trkpt lat="47.822311" lon="12.972106"><ele>424.5</ele></trkpt>
<trkpt lat="47.821770" lon="12.971521"><ele>425.3</ele></trkpt>
<trkpt lat="47.821053" lon="12.972804"><ele>425.5</ele></trkpt>
<trkpt lat="47.819573" lon="12.972642"><ele>423.2</ele></trkpt>
<trkpt lat="47.819295" lon="12.972617"><ele>422.7</ele></trkpt>
<trkpt lat="47.818714" lon="12.972264"><ele>422.8</ele></trkpt>
<trkpt lat="47.817679" lon="12.970953"><ele>423.6</ele></trkpt>
<trkpt lat="47.816254" lon="12.970342"><ele>423.8</ele></trkpt>
<trkpt lat="47.815706" lon="12.969998"><ele>424.6</ele></trkpt>
<trkpt lat="47.815604" lon="12.968827"><ele>425.0</ele></trkpt>
<trkpt lat="47.814509" lon="12.967263"><ele>426.9</ele></trkpt>
<trkpt lat="47.814249" lon="12.966908"><ele>427.4</ele></trkpt>
<trkpt lat="47.814233" lon="12.966527"><ele>427.9</ele></trkpt>
<trkpt lat="47.812951" lon="12.965735"><ele>428.6</ele></trkpt>
<trkpt lat="47.812373" lon="12.965365"><ele>426.9</ele></trkpt>
<trkpt lat="47.812076" lon="12.966190"><ele>426.5</ele></trkpt>
<trkpt lat="47.812218" lon="12.965578"><ele>427.0</ele></trkpt>
<trkpt lat="47.811046" lon="12.964597"><ele>425.8</ele></trkpt>
<trkpt lat="47.809975" lon="12.963264"><ele>429.7</ele></trkpt>
<trkpt lat="47.809585" lon="12.963174"><ele>429.5</ele></trkpt>
<trkpt lat="47.808284" lon="12.962185"><ele>431.1</ele></trkpt>
<trkpt lat="47.807714" lon="12.961761"><ele>432.0</ele></trkpt>
<trkpt lat="47.806287" lon="12.960993"><ele>433.0</ele></trkpt>
<trkpt lat="47.805407" lon="12.960525"><ele>435.5</ele></trkpt>
<trkpt lat="47.804724" lon="12.959917"><ele>434.7</ele></trkpt>
<trkpt lat="47.804359" lon="12.959451"><ele>432.6</ele></trkpt>
<trkpt lat="47.803624" lon="12.957724"><ele>433.2</ele></trkpt>
<trkpt lat="47.803415" lon="12.957186"><ele>435.5</ele></trkpt>
<trkpt lat="47.802588" lon="12.955624"><ele>433.3</ele></trkpt>
<trkpt lat="47.802454" lon="12.955375"><ele>433.3</ele></trkpt>
<trkpt lat="47.801140" lon="12.954729"><ele>434.9</ele></trkpt>
<trkpt lat="47.800462" lon="12.954006"><ele>433.2</ele></trkpt>
<trkpt lat="47.799732" lon="12.952249"><ele>432.9</ele></trkpt>
<trkpt lat="47.799066" lon="12.950463"><ele>436.2</ele></trkpt>
<trkpt lat="47.798965" lon="12.950196"><ele>436.6</ele></trkpt>
<trkpt lat="47.798261" lon="12.949103"><ele>438.9</ele></trkpt>
<trkpt lat="47.797843" lon="12.948815"><ele>439.4</ele></trkpt>
<trkpt lat="47.796461" lon="12.948453"><ele>437.1</ele></trkpt>
<trkpt lat="47.796049" lon="12.948332"><ele>438.0</ele></trkpt>
<trkpt lat="47.795176" lon="12.947831"><ele>439.8</ele></trkpt>
<trkpt lat="47.793891" lon="12.947707"><ele>436.3</ele></trkpt>
<trkpt lat="47.792822" lon="12.947198"><ele>438.5</ele></trkpt>
<trkpt lat="47.791397" lon="12.947134"><ele>439.6</ele></trkpt>
<trkpt lat="47.791299" lon="12.947135"><ele>440.1</ele></trkpt>
<trkpt lat="47.790683" lon="12.947401"><ele>440.8</ele></trkpt>
<trkpt lat="47.790239" lon="12.946875"><ele>445.0</ele></trkpt>
<trkpt lat="47.789639" lon="12.945326"><ele>450.1</ele></trkpt>
<trkpt lat="47.788599" lon="12.943799"><ele>452.8</ele></trkpt>
<trkpt lat="47.788554" lon="12.943727"><ele>452.1</ele></trkpt>
<trkpt lat="47.788322" lon="12.941685"><ele>444.9</ele></trkpt>
<trkpt lat="47.787431" lon="12.940056"><ele>445.8</ele></trkpt>
<trkpt lat="47.787178" lon="12.939675"><ele>447.5</ele></trkpt>
<trkpt lat="47.785912" lon="12.938878"><ele>443.9</ele></trkpt>
<trkpt lat="47.784568" lon="12.938025"><ele>442.5</ele></trkpt>
<trkpt lat="47.783950" lon="12.937607"><ele>446.1</ele></trkpt>
<trkpt lat="47.783028" lon="12.937558"><ele>447.0</ele></trkpt>
<trkpt lat="47.782099" lon="12.937987"><ele>441.3</ele></trkpt>
<trkpt lat="47.780719" lon="12.937829"><ele>447.5</ele></trkpt>
<trkpt lat="47.780325" lon="12.937761"><ele>448.0</ele></trkpt>
<trkpt lat="47.779547" lon="12.937566"><ele>451.1</ele></trkpt>
<trkpt lat="47.778241" lon="12.936746"><ele>448.1</ele></trkpt>
<trkpt lat="47.777887" lon="12.936479"><ele>448.6</ele></trkpt>
<trkpt lat="47.777151" lon="12.935104"><ele>444.4</ele></trkpt>
<trkpt lat="47.776893" lon="12.933882"><ele>450.0</ele></trkpt>
<trkpt lat="47.776091" lon="12.931961"><ele>448.9</ele></trkpt>
<trkpt lat="47.776087" lon="12.931953"><ele>449.0</ele></trkpt>
<trkpt lat="47.775080" lon="12.930593"><ele>446.8</ele></trkpt>
<trkpt lat="47.775074" lon="12.930583"><ele>446.8</ele></trkpt>
<trkpt lat="47.774683" lon="12.930419"><ele>444.9</ele></trkpt>
<trkpt lat="47.773469" lon="12.929159"><ele>443.0</ele></trkpt>
<trkpt lat="47.773443" lon="12.929136"><ele>443.1</ele></trkpt>
<trkpt lat="47.772162" lon="12.928415"><ele>444.2</ele></trkpt>
<trkpt lat="47.771325" lon="12.927908"><ele>443.3</ele></trkpt>
<trkpt lat="47.770850" lon="12.925956"><ele>446.0</ele></trkpt>
<trkpt lat="47.770792" lon="12.925773"><ele>446.2</ele></trkpt>
<trkpt lat="47.769730" lon="12.924156"><ele>446.8</ele></trkpt>
<trkpt lat="47.769485" lon="12.923829"><ele>447.2</ele></trkpt>
<trkpt lat="47.768639" lon="12.923469"><ele>450.0</ele></trkpt>
<trkpt lat="47.768060" lon="12.922624"><ele>448.9</ele></trkpt>
<trkpt lat="47.767701" lon="12.922377"><ele>451.3</ele></trkpt>
<trkpt lat="47.767625" lon="12.922600"><ele>453.5</ele></trkpt>
<trkpt lat="47.767501" lon="12.922532"><ele>454.2</ele></trkpt>
<trkpt lat="47.766525" lon="12.921564"><ele>457.8</ele></trkpt>
<trkpt lat="47.765567" lon="12.922204"><ele>460.0</ele></trkpt>
<trkpt lat="47.764976" lon="12.922047"><ele>455.4</ele></trkpt>
<trkpt lat="47.764293" lon="12.921381"><ele>453.0</ele></trkpt>
<trkpt lat="47.763618" lon="12.920544"><ele>453.2</ele></trkpt>
<trkpt lat="47.763138" lon="12.919425"><ele>457.6</ele></trkpt>
<trkpt lat="47.762858" lon="12.919697"><ele>454.7</ele></trkpt>
<trkpt lat="47.761760" lon="12.918316"><ele>452.4</ele></trkpt>
<trkpt lat="47.760616" lon="12.916893"><ele>454.6</ele></trkpt>
<trkpt lat="47.759512" lon="12.915523"><ele>453.7</ele></trkpt>
<trkpt lat="47.758365" lon="12.914113"><ele>456.3</ele></trkpt>
<trkpt lat="47.757240" lon="12.912760"><ele>452.9</ele></trkpt>
<trkpt lat="47.756152" lon="12.911407"><ele>452.8</ele></trkpt>
<trkpt lat="47.755099" lon="12.910086"><ele>450.4</ele></trkpt>
<trkpt lat="47.754082" lon="12.908766"><ele>452.3</ele></trkpt>
<trkpt lat="47.753030" lon="12.907411"><ele>451.2</ele></trkpt>
<trkpt lat="47.751963" lon="12.906020"><ele>454.3</ele></trkpt>
<trkpt lat="47.750823" lon="12.904562"><ele>455.5</ele></trkpt>
<trkpt lat="47.750802" lon="12.904536"><ele>455.6</ele></trkpt>
<trkpt lat="47.750445" lon="12.904478"><ele>454.5</ele></trkpt>
<trkpt lat="47.750209" lon="12.903734"><ele>456.4</ele></trkpt>
<trkpt lat="47.749440" lon="12.902699"><ele>460.2</ele></trkpt>
<trkpt lat="47.748616" lon="12.902192"><ele>451.1</ele></trkpt>
<trkpt lat="47.748204" lon="12.901429"><ele>454.6</ele></trkpt>
<trkpt lat="47.748542" lon="12.900782"><ele>467.0</ele></trkpt>
<trkpt lat="47.747599" lon="12.899938"><ele>457.0</ele></trkpt>
<trkpt lat="47.746856" lon="12.900634"><ele>458.7</ele></trkpt>
<trkpt lat="47.746796" lon="12.900174"><ele>457.7</ele></trkpt>
<trkpt lat="47.745991" lon="12.898355"><ele>459.6</ele></trkpt>
<trkpt lat="47.745674" lon="12.897284"><ele>462.4</ele></trkpt>
<trkpt lat="47.745251" lon="12.896696"><ele>463.1</ele></trkpt>
<trkpt lat="47.744765" lon="12.895508"><ele>461.9</ele></trkpt>
<trkpt lat="47.744501" lon="12.895290"><ele>462.8</ele></trkpt>
<trkpt lat="47.744049" lon="12.894024"><ele>465.6</ele></trkpt>
<trkpt lat="47.743213" lon="12.892394"><ele>466.9</ele></trkpt>
<trkpt lat="47.742328" lon="12.890621"><ele>462.5</ele></trkpt>
<trkpt lat="47.742142" lon="12.890272"><ele>463.3</ele></trkpt>
<trkpt lat="47.741496" lon="12.889633"><ele>462.0</ele></trkpt>
<trkpt lat="47.740761" lon="12.887826"><ele>465.6</ele></trkpt>
<trkpt lat="47.740268" lon="12.886363"><ele>466.0</ele></trkpt>
<trkpt lat="47.739455" lon="12.884715"><ele>467.0</ele></trkpt>
<trkpt lat="47.738668" lon="12.882994"><ele>466.6</ele></trkpt>
<trkpt lat="47.737817" lon="12.881371"><ele>463.7</ele></trkpt>
<trkpt lat="47.737043" lon="12.879701"><ele>463.6</ele></trkpt>
<trkpt lat="47.736231" lon="12.878030"><ele>463.1</ele></trkpt>
<trkpt lat="47.735357" lon="12.876200"><ele>464.3</ele></trkpt>
<trkpt lat="47.734853" lon="12.875306"><ele>465.1</ele></trkpt>
<trkpt lat="47.734106" lon="12.875916"><ele>460.5</ele></trkpt>
<trkpt lat="47.733051" lon="12.877346"><ele>465.4</ele></trkpt>
<trkpt lat="47.732762" lon="12.877764"><ele>465.9</ele></trkpt>
<trkpt lat="47.731783" lon="12.878258"><ele>464.3</ele></trkpt>
<trkpt lat="47.730442" lon="12.879279"><ele>469.2</ele></trkpt>
<trkpt lat="47.730113" lon="12.879533"><ele>468.9</ele></trkpt>
<trkpt lat="47.729632" lon="12.879561"><ele>467.7</ele></trkpt>
<trkpt lat="47.728984" lon="12.880019"><ele>470.3</ele></trkpt>
<trkpt lat="47.729690" lon="12.881168"><ele>467.4</ele></trkpt>
<trkpt lat="47.728766" lon="12.882934"><ele>468.2</ele></trkpt>
<trkpt lat="47.728118" lon="12.884187"><ele>469.7</ele></trkpt>
<trkpt lat="47.727687" lon="12.883896"><ele>471.3</ele></trkpt>
<trkpt lat="47.727494" lon="12.883113"><ele>470.2</ele></trkpt>
<trkpt lat="47.726900" lon="12.883842"><ele>474.7</ele></trkpt>
</trkseg></trk></gpx>