<?xml version="1.0" encoding="UTF-8"?>
<gpx version="1.1" creator="Bad Reichenhall gravel – saját gravel-router (OSM/Overture + SRTM)" xmlns="http://www.topografix.com/GPX/1/1">
<metadata><name>Watzmann–Königssee kör</name><desc>GENERÁLT NYOMVONAL – Berchtesgadeni képeslap-kör: a vasútállomástól a Königssee partjára (Malerwinkel!), Schönauon át az Engedey felé, majd a Wimbachbrücke és Ramsau templomának ikonikus nézőpontja után a Soleleitungsweg történelmi sóvezeték-útjának bringával járható szakaszán (Zipfhäusl) haladsz, és Ilsanknál a Ramsauer Ache völgyében gurulsz vissza Berchtesgadenbe. Rövid, de minden kanyarban Watzmann.</desc><copyright author="OpenStreetMap contributors (via Overture Maps)"><license>https://opendatacommons.org/licenses/odbl/</license></copyright><time>2026-10-04T16:52:58Z</time></metadata>
<wpt lat="47.6263" lon="12.9993"><name>Berchtesgaden Hbf</name><type>station</type></wpt>
<wpt lat="47.5918" lon="12.9895"><name>Königssee</name><type>lake</type></wpt>
<wpt lat="47.5828" lon="12.9928"><name>Malerwinkel</name><type>view</type></wpt>
<wpt lat="47.603" lon="12.9232"><name>Wimbachbrücke</name><type>gorge</type></wpt>
<wpt lat="47.6068" lon="12.9026"><name>Ramsau – Pfarrkirche</name><type>view</type></wpt>
<wpt lat="47.6175" lon="12.8954"><name>Zipfhäusl – Soleleitungsweg</name><type>history</type></wpt>
<wpt lat="47.6068" lon="12.9026"><name>Ramsau</name><type>town</type></wpt>
<wpt lat="47.615" lon="12.94"><name>Ilsank – Ramsauer Ache</name><type>gorge</type></wpt>
<trk><name>Watzmann–Königssee kör</name><type>gravel</type><trkseg>
<trkpt lat="47.626085" lon="12.999324"><ele>539.5</ele></trkpt>
<trkpt lat="47.625908" lon="12.999437"><ele>539.3</ele></trkpt>
<trkpt lat="47.626144" lon="12.999928"><ele>539.1</ele></trkpt>
<trkpt lat="47.626089" lon="13.000238"><ele>539.8</ele></trkpt>
<trkpt lat="47.625472" lon="13.001025"><ele>543.8</ele></trkpt>
<trkpt lat="47.624745" lon="13.001332"><ele>552.8</ele></trkpt>
<trkpt lat="47.623336" lon="13.001095"><ele>548.8</ele></trkpt>
<trkpt lat="47.621990" lon="13.000936"><ele>560.2</ele></trkpt>
<trkpt lat="47.620561" lon="13.000631"><ele>565.8</ele></trkpt>
<trkpt lat="47.620245" lon="13.000551"><ele>564.1</ele></trkpt>
<trkpt lat="47.620277" lon="13.000418"><ele>563.5</ele></trkpt>
<trkpt lat="47.618871" lon="12.999812"><ele>572.6</ele></trkpt>
<trkpt lat="47.618790" lon="12.999798"><ele>572.3</ele></trkpt>
<trkpt lat="47.617369" lon="13.000168"><ele>578.7</ele></trkpt>
<trkpt lat="47.616022" lon="13.000423"><ele>569.4</ele></trkpt>
<trkpt lat="47.615056" lon="13.000640"><ele>577.8</ele></trkpt>
<trkpt lat="47.614080" lon="13.000308"><ele>594.5</ele></trkpt>
<trkpt lat="47.613550" lon="12.999752"><ele>590.5</ele></trkpt>
<trkpt lat="47.612794" lon="12.999391"><ele>588.5</ele></trkpt>
<trkpt lat="47.611993" lon="12.999347"><ele>595.1</ele></trkpt>
<trkpt lat="47.611164" lon="12.999700"><ele>605.9</ele></trkpt>
<trkpt lat="47.609808" lon="12.999171"><ele>604.0</ele></trkpt>
<trkpt lat="47.609574" lon="12.999074"><ele>604.9</ele></trkpt>
<trkpt lat="47.608737" lon="12.998518"><ele>601.3</ele></trkpt>
<trkpt lat="47.607332" lon="12.998863"><ele>610.2</ele></trkpt>
<trkpt lat="47.607122" lon="12.998830"><ele>609.5</ele></trkpt>
<trkpt lat="47.606187" lon="12.997315"><ele>604.7</ele></trkpt>
<trkpt lat="47.605537" lon="12.996391"><ele>603.2</ele></trkpt>
<trkpt lat="47.604651" lon="12.996190"><ele>604.1</ele></trkpt>
<trkpt lat="47.604308" lon="12.995821"><ele>603.5</ele></trkpt>
<trkpt lat="47.603595" lon="12.994116"><ele>599.4</ele></trkpt>
<trkpt lat="47.603456" lon="12.993776"><ele>602.9</ele></trkpt>
<trkpt lat="47.603092" lon="12.991799"><ele>597.1</ele></trkpt>
<trkpt lat="47.603070" lon="12.990989"><ele>592.9</ele></trkpt>
<trkpt lat="47.602830" lon="12.990727"><ele>599.5</ele></trkpt>
<trkpt lat="47.601451" lon="12.990117"><ele>603.6</ele></trkpt>
<trkpt lat="47.600047" lon="12.989697"><ele>601.4</ele></trkpt>
<trkpt lat="47.599897" lon="12.989653"><ele>600.7</ele></trkpt>
<trkpt lat="47.598880" lon="12.989688"><ele>598.0</ele></trkpt>
<trkpt lat="47.597642" lon="12.989330"><ele>600.5</ele></trkpt>
<trkpt lat="47.596143" lon="12.989572"><ele>602.2</ele></trkpt>
<trkpt lat="47.595980" lon="12.989581"><ele>601.3</ele></trkpt>
<trkpt lat="47.595154" lon="12.989389"><ele>603.5</ele></trkpt>
<trkpt lat="47.594447" lon="12.988917"><ele>608.6</ele></trkpt>
<trkpt lat="47.593678" lon="12.988811"><ele>608.3</ele></trkpt>
<trkpt lat="47.593043" lon="12.987281"><ele>603.3</ele></trkpt>
<trkpt lat="47.592747" lon="12.987173"><ele>604.7</ele></trkpt>
<trkpt lat="47.592533" lon="12.987462"><ele>606.7</ele></trkpt>
<trkpt lat="47.592752" lon="12.987744"><ele>605.1</ele></trkpt>
<trkpt lat="47.592799" lon="12.988471"><ele>605.1</ele></trkpt>
<trkpt lat="47.591641" lon="12.988733"><ele>610.2</ele></trkpt>
<trkpt lat="47.591523" lon="12.988505"><ele>610.9</ele></trkpt>
<trkpt lat="47.591616" lon="12.987803"><ele>610.1</ele></trkpt>
<trkpt lat="47.592470" lon="12.987109"><ele>608.9</ele></trkpt>
<trkpt lat="47.592996" lon="12.987255"><ele>603.3</ele></trkpt>
<trkpt lat="47.593246" lon="12.986360"><ele>601.0</ele></trkpt>
<trkpt lat="47.593415" lon="12.984843"><ele>593.5</ele></trkpt>
<trkpt lat="47.593778" lon="12.984166"><ele>594.2</ele></trkpt>
<trkpt lat="47.593170" lon="12.983738"><ele>601.3</ele></trkpt>
<trkpt lat="47.593509" lon="12.983649"><ele>606.1</ele></trkpt>
<trkpt lat="47.593918" lon="12.983208"><ele>616.3</ele></trkpt>
<trkpt lat="47.593326" lon="12.982295"><ele>628.2</ele></trkpt>
<trkpt lat="47.593273" lon="12.981798"><ele>640.5</ele></trkpt>
<trkpt lat="47.593969" lon="12.979976"><ele>635.5</ele></trkpt>
<trkpt lat="47.594364" lon="12.979075"><ele>633.6</ele></trkpt>
<trkpt lat="47.595430" lon="12.977554"><ele>632.4</ele></trkpt>
<trkpt lat="47.595453" lon="12.977530"><ele>632.5</ele></trkpt>
<trkpt lat="47.595912" lon="12.977631"><ele>628.8</ele></trkpt>
<trkpt lat="47.597368" lon="12.977118"><ele>618.5</ele></trkpt>
<trkpt lat="47.597373" lon="12.977117"><ele>618.5</ele></trkpt>
<trkpt lat="47.598333" lon="12.977296"><ele>608.5</ele></trkpt>
<trkpt lat="47.598859" lon="12.976938"><ele>606.4</ele></trkpt>
<trkpt lat="47.599360" lon="12.976076"><ele>607.3</ele></trkpt>
<trkpt lat="47.599683" lon="12.975932"><ele>605.3</ele></trkpt>
<trkpt lat="47.601025" lon="12.976341"><ele>604.5</ele></trkpt>
<trkpt lat="47.601091" lon="12.976482"><ele>603.3</ele></trkpt>
<trkpt lat="47.602148" lon="12.975604"><ele>606.1</ele></trkpt>
<trkpt lat="47.603509" lon="12.974902"><ele>613.2</ele></trkpt>
<trkpt lat="47.603904" lon="12.974729"><ele>616.1</ele></trkpt>
<trkpt lat="47.604655" lon="12.974038"><ele>617.2</ele></trkpt>
<trkpt lat="47.605214" lon="12.973788"><ele>618.3</ele></trkpt>
<trkpt lat="47.605805" lon="12.974106"><ele>615.3</ele></trkpt>
<trkpt lat="47.607301" lon="12.974184"><ele>619.2</ele></trkpt>
<trkpt lat="47.608139" lon="12.974080"><ele>619.7</ele></trkpt>
<trkpt lat="47.609385" lon="12.974802"><ele>617.5</ele></trkpt>
<trkpt lat="47.610208" lon="12.974963"><ele>616.4</ele></trkpt>
<trkpt lat="47.610307" lon="12.974634"><ele>614.9</ele></trkpt>
<trkpt lat="47.611767" lon="12.974432"><ele>622.4</ele></trkpt>
<trkpt lat="47.612031" lon="12.974422"><ele>623.1</ele></trkpt>
<trkpt lat="47.613053" lon="12.974628"><ele>622.0</ele></trkpt>
<trkpt lat="47.613615" lon="12.974528"><ele>620.0</ele></trkpt>
<trkpt lat="47.614760" lon="12.975154"><ele>615.0</ele></trkpt>
<trkpt lat="47.615774" lon="12.975132"><ele>605.1</ele></trkpt>
<trkpt lat="47.616160" lon="12.974122"><ele>595.4</ele></trkpt>
<trkpt lat="47.616313" lon="12.971991"><ele>597.9</ele></trkpt>
<trkpt lat="47.616358" lon="12.971406"><ele>598.3</ele></trkpt>
<trkpt lat="47.616611" lon="12.971188"><ele>594.1</ele></trkpt>
<trkpt lat="47.616686" lon="12.970303"><ele>593.1</ele></trkpt>
<trkpt lat="47.617316" lon="12.969378"><ele>568.6</ele></trkpt>
<trkpt lat="47.617026" lon="12.968587"><ele>576.7</ele></trkpt>
<trkpt lat="47.617137" lon="12.966513"><ele>574.9</ele></trkpt>
<trkpt lat="47.617124" lon="12.965014"><ele>576.2</ele></trkpt>
<trkpt lat="47.616213" lon="12.963399"><ele>578.8</ele></trkpt>
<trkpt lat="47.616029" lon="12.963100"><ele>580.3</ele></trkpt>
<trkpt lat="47.615369" lon="12.961580"><ele>581.5</ele></trkpt>
<trkpt lat="47.615300" lon="12.960354"><ele>578.7</ele></trkpt>
<trkpt lat="47.614691" lon="12.959609"><ele>577.3</ele></trkpt>
<trkpt lat="47.614395" lon="12.958907"><ele>585.9</ele></trkpt>
<trkpt lat="47.614294" lon="12.956739"><ele>583.5</ele></trkpt>
<trkpt lat="47.614286" lon="12.956622"><ele>584.5</ele></trkpt>
<trkpt lat="47.614003" lon="12.954609"><ele>590.5</ele></trkpt>
<trkpt lat="47.614003" lon="12.954605"><ele>590.4</ele></trkpt>
<trkpt lat="47.614223" lon="12.952734"><ele>581.1</ele></trkpt>
<trkpt lat="47.614380" lon="12.952676"><ele>580.8</ele></trkpt>
<trkpt lat="47.614184" lon="12.951926"><ele>582.0</ele></trkpt>
<trkpt lat="47.614019" lon="12.949811"><ele>589.4</ele></trkpt>
<trkpt lat="47.613743" lon="12.947640"><ele>588.6</ele></trkpt>
<trkpt lat="47.613635" lon="12.947056"><ele>593.8</ele></trkpt>
<trkpt lat="47.612821" lon="12.945443"><ele>590.1</ele></trkpt>
<trkpt lat="47.611479" lon="12.944545"><ele>591.7</ele></trkpt>
<trkpt lat="47.610974" lon="12.944062"><ele>593.5</ele></trkpt>
<trkpt lat="47.610299" lon="12.942194"><ele>602.4</ele></trkpt>
<trkpt lat="47.609935" lon="12.941053"><ele>609.5</ele></trkpt>
<trkpt lat="47.609242" lon="12.940267"><ele>614.9</ele></trkpt>
<trkpt lat="47.608720" lon="12.939154"><ele>619.1</ele></trkpt>
<trkpt lat="47.607581" lon="12.937805"><ele>618.9</ele></trkpt>
<trkpt lat="47.606742" lon="12.936826"><ele>636.7</ele></trkpt>
<trkpt lat="47.606094" lon="12.935774"><ele>635.7</ele></trkpt>
<trkpt lat="47.605004" lon="12.935059"><ele>631.9</ele></trkpt>
<trkpt lat="47.604144" lon="12.933276"><ele>643.1</ele></trkpt>
<trkpt lat="47.603733" lon="12.932242"><ele>642.7</ele></trkpt>
<trkpt lat="47.603378" lon="12.930788"><ele>651.2</ele></trkpt>
<trkpt lat="47.602615" lon="12.929093"><ele>630.1</ele></trkpt>
<trkpt lat="47.602503" lon="12.928702"><ele>630.3</ele></trkpt>
<trkpt lat="47.602942" lon="12.926589"><ele>632.5</ele></trkpt>
<trkpt lat="47.603110" lon="12.925581"><ele>637.8</ele></trkpt>
<trkpt lat="47.603218" lon="12.924687"><ele>632.0</ele></trkpt>
<trkpt lat="47.603081" lon="12.924704"><ele>631.0</ele></trkpt>
<trkpt lat="47.603282" lon="12.923346"><ele>636.6</ele></trkpt>
<trkpt lat="47.603711" lon="12.921415"><ele>637.3</ele></trkpt>
<trkpt lat="47.604261" lon="12.919532"><ele>635.9</ele></trkpt>
<trkpt lat="47.604385" lon="12.918888"><ele>634.2</ele></trkpt>
<trkpt lat="47.604548" lon="12.916919"><ele>636.6</ele></trkpt>
<trkpt lat="47.604273" lon="12.914973"><ele>643.7</ele></trkpt>
<trkpt lat="47.604883" lon="12.913172"><ele>644.2</ele></trkpt>
<trkpt lat="47.605465" lon="12.911134"><ele>645.0</ele></trkpt>
<trkpt lat="47.605472" lon="12.911113"><ele>645.1</ele></trkpt>
<trkpt lat="47.605403" lon="12.910106"><ele>647.3</ele></trkpt>
<trkpt lat="47.605522" lon="12.909365"><ele>647.8</ele></trkpt>
<trkpt lat="47.605693" lon="12.908992"><ele>648.7</ele></trkpt>
<trkpt lat="47.605827" lon="12.907870"><ele>649.9</ele></trkpt>
<trkpt lat="47.606135" lon="12.907184"><ele>652.0</ele></trkpt>
<trkpt lat="47.606519" lon="12.905130"><ele>651.1</ele></trkpt>
<trkpt lat="47.606603" lon="12.904663"><ele>650.6</ele></trkpt>
<trkpt lat="47.606723" lon="12.904635"><ele>652.3</ele></trkpt>
<trkpt lat="47.606870" lon="12.903820"><ele>655.0</ele></trkpt>
<trkpt lat="47.606751" lon="12.903584"><ele>653.9</ele></trkpt>
<trkpt lat="47.606359" lon="12.905676"><ele>653.7</ele></trkpt>
<trkpt lat="47.605917" lon="12.907602"><ele>651.7</ele></trkpt>
<trkpt lat="47.605522" lon="12.909365"><ele>647.8</ele></trkpt>
<trkpt lat="47.605403" lon="12.910106"><ele>647.3</ele></trkpt>
<trkpt lat="47.605472" lon="12.911113"><ele>645.1</ele></trkpt>
<trkpt lat="47.604907" lon="12.913089"><ele>644.3</ele></trkpt>
<trkpt lat="47.604273" lon="12.914973"><ele>643.7</ele></trkpt>
<trkpt lat="47.604543" lon="12.916749"><ele>636.2</ele></trkpt>
<trkpt lat="47.604417" lon="12.918621"><ele>634.2</ele></trkpt>
<trkpt lat="47.603875" lon="12.920673"><ele>637.5</ele></trkpt>
<trkpt lat="47.603445" lon="12.922714"><ele>636.3</ele></trkpt>
<trkpt lat="47.603336" lon="12.923080"><ele>634.3</ele></trkpt>
<trkpt lat="47.603167" lon="12.924543"><ele>630.6</ele></trkpt>
<trkpt lat="47.602613" lon="12.924719"><ele>630.0</ele></trkpt>
<trkpt lat="47.602271" lon="12.924330"><ele>634.4</ele></trkpt>
<trkpt lat="47.601963" lon="12.924883"><ele>636.2</ele></trkpt>
<trkpt lat="47.602159" lon="12.926242"><ele>636.1</ele></trkpt>
<trkpt lat="47.602533" lon="12.926913"><ele>631.0</ele></trkpt>
<trkpt lat="47.602415" lon="12.927801"><ele>634.5</ele></trkpt>
<trkpt lat="47.601912" lon="12.928561"><ele>635.1</ele></trkpt>
<trkpt lat="47.602608" lon="12.930486"><ele>642.9</ele></trkpt>
<trkpt lat="47.602614" lon="12.930812"><ele>651.7</ele></trkpt>
<trkpt lat="47.602831" lon="12.931121"><ele>657.4</ele></trkpt>
<trkpt lat="47.602142" lon="12.932082"><ele>678.5</ele></trkpt>
<trkpt lat="47.602161" lon="12.932353"><ele>680.3</ele></trkpt>
<trkpt lat="47.602547" lon="12.932184"><ele>676.7</ele></trkpt>
<trkpt lat="47.602681" lon="12.932511"><ele>679.0</ele></trkpt>
<trkpt lat="47.602303" lon="12.934183"><ele>702.4</ele></trkpt>
<trkpt lat="47.602652" lon="12.935638"><ele>728.0</ele></trkpt>
<trkpt lat="47.603083" lon="12.936587"><ele>730.4</ele></trkpt>
<trkpt lat="47.604051" lon="12.937756"><ele>731.8</ele></trkpt>
<trkpt lat="47.604460" lon="12.938855"><ele>733.3</ele></trkpt>
<trkpt lat="47.605141" lon="12.940037"><ele>741.8</ele></trkpt>
<trkpt lat="47.605305" lon="12.940670"><ele>743.4</ele></trkpt>
<trkpt lat="47.605129" lon="12.942792"><ele>738.5</ele></trkpt>
<trkpt lat="47.605178" lon="12.943603"><ele>735.5</ele></trkpt>
<trkpt lat="47.606015" lon="12.945488"><ele>724.7</ele></trkpt>
<trkpt lat="47.606064" lon="12.945623"><ele>724.1</ele></trkpt>
<trkpt lat="47.607157" lon="12.946824"><ele>698.5</ele></trkpt>
<trkpt lat="47.607244" lon="12.946983"><ele>697.8</ele></trkpt>
<trkpt lat="47.607492" lon="12.947908"><ele>697.0</ele></trkpt>
<trkpt lat="47.607453" lon="12.949318"><ele>692.6</ele></trkpt>
<trkpt lat="47.607804" lon="12.950007"><ele>700.0</ele></trkpt>
<trkpt lat="47.608066" lon="12.951296"><ele>703.3</ele></trkpt>
<trkpt lat="47.608886" lon="12.952144"><ele>685.4</ele></trkpt>
<trkpt lat="47.608793" lon="12.954276"><ele>685.7</ele></trkpt>
<trkpt lat="47.608759" lon="12.955071"><ele>685.7</ele></trkpt>
<trkpt lat="47.608488" lon="12.956091"><ele>685.0</ele></trkpt>
<trkpt lat="47.608714" lon="12.957596"><ele>668.2</ele></trkpt>
<trkpt lat="47.609537" lon="12.959199"><ele>651.1</ele></trkpt>
<trkpt lat="47.610142" lon="12.960285"><ele>642.5</ele></trkpt>
<trkpt lat="47.610390" lon="12.960059"><ele>641.6</ele></trkpt>
<trkpt lat="47.610977" lon="12.960808"><ele>636.0</ele></trkpt>
<trkpt lat="47.611368" lon="12.960944"><ele>633.6</ele></trkpt>
<trkpt lat="47.612504" lon="12.960394"><ele>636.6</ele></trkpt>
<trkpt lat="47.612989" lon="12.960678"><ele>633.7</ele></trkpt>
<trkpt lat="47.613170" lon="12.961111"><ele>632.6</ele></trkpt>
<trkpt lat="47.613219" lon="12.962537"><ele>628.1</ele></trkpt>
<trkpt lat="47.613570" lon="12.964081"><ele>629.9</ele></trkpt>
<trkpt lat="47.614395" lon="12.965861"><ele>636.1</ele></trkpt>
<trkpt lat="47.614406" lon="12.965899"><ele>636.0</ele></trkpt>
<trkpt lat="47.614462" lon="12.966598"><ele>631.6</ele></trkpt>
<trkpt lat="47.614240" lon="12.967625"><ele>626.6</ele></trkpt>
<trkpt lat="47.614398" lon="12.968193"><ele>626.8</ele></trkpt>
<trkpt lat="47.614775" lon="12.968691"><ele>622.8</ele></trkpt>
<trkpt lat="47.615277" lon="12.970130"><ele>613.9</ele></trkpt>
<trkpt lat="47.615816" lon="12.971050"><ele>605.6</ele></trkpt>
<trkpt lat="47.616358" lon="12.971406"><ele>598.3</ele></trkpt>
<trkpt lat="47.616187" lon="12.973407"><ele>598.4</ele></trkpt>
<trkpt lat="47.616160" lon="12.974122"><ele>595.4</ele></trkpt>
<trkpt lat="47.615774" lon="12.975132"><ele>605.1</ele></trkpt>
<trkpt lat="47.615764" lon="12.976061"><ele>612.4</ele></trkpt>
<trkpt lat="47.616022" lon="12.976610"><ele>613.5</ele></trkpt>
<trkpt lat="47.616038" lon="12.977203"><ele>612.1</ele></trkpt>
<trkpt lat="47.615431" lon="12.978285"><ele>605.5</ele></trkpt>
<trkpt lat="47.616818" lon="12.979035"><ele>614.5</ele></trkpt>
<trkpt lat="47.616956" lon="12.979063"><ele>615.0</ele></trkpt>
<trkpt lat="47.617798" lon="12.980310"><ele>610.4</ele></trkpt>
<trkpt lat="47.617943" lon="12.981332"><ele>604.3</ele></trkpt>
<trkpt lat="47.618409" lon="12.982216"><ele>606.0</ele></trkpt>
<trkpt lat="47.618543" lon="12.982951"><ele>608.6</ele></trkpt>
<trkpt lat="47.619278" lon="12.983762"><ele>608.5</ele></trkpt>
<trkpt lat="47.619574" lon="12.984652"><ele>613.5</ele></trkpt>
<trkpt lat="47.620179" lon="12.985245"><ele>617.8</ele></trkpt>
<trkpt lat="47.621489" lon="12.985604"><ele>620.2</ele></trkpt>
<trkpt lat="47.622540" lon="12.986890"><ele>620.3</ele></trkpt>
<trkpt lat="47.622977" lon="12.987347"><ele>616.6</ele></trkpt>
<trkpt lat="47.623144" lon="12.988031"><ele>614.4</ele></trkpt>
<trkpt lat="47.623097" lon="12.989541"><ele>605.7</ele></trkpt>
<trkpt lat="47.622520" lon="12.991206"><ele>594.0</ele></trkpt>
<trkpt lat="47.622680" lon="12.992172"><ele>587.9</ele></trkpt>
<trkpt lat="47.622428" lon="12.993592"><ele>580.8</ele></trkpt>
<trkpt lat="47.622528" lon="12.994753"><ele>582.6</ele></trkpt>
<trkpt lat="47.623216" lon="12.996557"><ele>576.8</ele></trkpt>
<trkpt lat="47.623471" lon="12.997209"><ele>569.7</ele></trkpt>
<trkpt lat="47.624282" lon="12.998538"><ele>557.0</ele></trkpt>
<trkpt lat="47.625386" lon="12.999518"><ele>540.7</ele></trkpt>
<trkpt lat="47.626085" lon="12.999324"><ele>539.5</ele></trkpt>
</trkseg></trk></gpx>